postcode,locality,region,island,lat,long,,territory
110,Abbey Caves,Northland,North Island,-35.749,174.327,,Whangarei
110,Avenues,Northland,North Island,-35.749,174.327,,Whangarei
110,Horahora,Northland,North Island,-35.749,174.327,,Whangarei
110,Morningside,Northland,North Island,-35.749,174.327,,Whangarei
110,Onerahi,Northland,North Island,-35.749,174.327,,Whangarei
110,Otaika,Northland,North Island,-35.749,174.327,,Whangarei
110,Port Whangarei,Northland,North Island,-35.749,174.327,,Whangarei
110,Raumanga,Northland,North Island,-35.749,174.327,,Whangarei
110,Whangarei Central,Northland,North Island,-35.749,174.327,,Whangarei
112,Glenbervie,Northland,North Island,-35.693,174.3001,,Whangarei
112,Kamo,Northland,North Island,-35.693,174.3001,,Whangarei
112,Kensington,Northland,North Island,-35.693,174.3001,,Whangarei
112,Mairtown,Northland,North Island,-35.693,174.3001,,Whangarei
112,Otangarei,Northland,North Island,-35.693,174.3001,,Whangarei
112,Parahaki,Northland,North Island,-35.693,174.3001,,Whangarei
112,Regent,Northland,North Island,-35.693,174.3001,,Whangarei
112,Riverside,Northland,North Island,-35.693,174.3001,,Whangarei
112,Tikipunga,Northland,North Island,-35.693,174.3001,,Whangarei
114,Hikurangi,Northland,North Island,-35.5909,174.2815,,Whangarei
114,Waro,Northland,North Island,-35.5909,174.2815,,Whangarei District
140,Riverside,Northland,North Island,-35.7245,174.3213,,Whangarei District
141,Otangarei,Northland,North Island,-35.6834,174.3008,,Whangarei District
142,Sherwood Rise,Northland,North Island,-35.7546,174.3681,,Whangarei District
143,Morningside,Northland,North Island,-35.7343,174.3054,,Whangarei District
144,Tikipunga,Northland,North Island,-35.6866,174.3266,,Whangarei District
145,Kensington,Northland,North Island,-35.7085,174.3207,,Whangarei District
146,Maungakaramea,Northland,North Island,-35.8451,174.2048,,Whangarei District
147,Woodhill,Northland,North Island,-35.7429,174.308,,Whangarei District
148,Woodhill,Northland,North Island,-35.7512,174.3152,,Whangarei District
149,Riverside,Northland,North Island,-35.7247,174.3259,,Whangarei District
150,Hikurangi,Northland,North Island,-35.5979,174.2863,,Whangarei District
151,Ruakaka,Northland,North Island,-35.8751,174.4554,,Whangarei District
152,Maungatapere,Northland,North Island,-35.7549,174.2081,,Whangarei District
153,Tutukaka,Northland,North Island,-35.6129,174.522,,Whangarei District
154,Ngunguru,Northland,North Island,-35.6297,174.5041,,Whangarei District
170,Puwera,Northland,North Island,-35.7762,174.268,,Whangarei District
171,Mata,Northland,North Island,-35.8556,174.3925,,Whangarei District
172,Parakao,Northland,North Island,-35.7039,173.9353,,Kaipara District
173,Kiripaka,Northland,North Island,-35.6147,174.4391,,Whangarei District
174,Whangarei Heads,Northland,North Island,-35.8069,174.4823,,Whangarei District
175,Tahere,Northland,North Island,-35.6943,174.4312,,Whangarei District
176,Moengawahine,Northland,North Island,-35.6306,174.1057,,Whangarei District
178,Maungakaramea,Northland,North Island,-35.852,174.2236,,Kaipara District
179,Maungatapere,Northland,North Island,-35.7562,174.1728,,Whangarei District
181,Marua,Northland,North Island,-35.5606,174.3839,,Whangarei District
182,Hukerenui,Northland,North Island,-35.4967,174.1879,,Far North District
184,Whangaruru North,Northland,North Island,-35.3593,174.3023,,Whangarei District
185,Ruatangata East,Northland,North Island,-35.6304,174.216,,Whangarei District
192,Rukuwai,Northland,North Island,-35.7429,174.4705,,Whangarei District
193,Waiotira,Northland,North Island,-35.9554,174.196,,Kaipara District
200,Paihia,Northland,North Island,-35.3073,174.0975,,Far North
241,Opua,Northland,North Island,-35.3124,174.1206,,Far North District
242,Russell,Northland,North Island,-35.2628,174.1228,,Far North District
243,Kawakawa,Northland,North Island,-35.3799,174.0672,,Far North District
244,Moerewa,Northland,North Island,-35.3875,174.0144,,Far North District
245,Kerikeri,Northland,North Island,-35.2289,173.9487,,Far North District
246,Waipapa,Northland,North Island,-35.206,173.9167,,Far North District
247,Paihia,Northland,North Island,-35.282,174.0915,,Far North District
271,Haruru,Northland,North Island,-35.2851,174.0397,,Far North District
272,Manawaora,Northland,North Island,-35.2844,174.1759,,Far North District
281,Pokere,Northland,North Island,-35.4904,174.0032,,Far North District
282,Karetu,Northland,North Island,-35.375,174.1364,,Far North District
283,Waihaha,Northland,North Island,-35.3488,174.1925,,Far North District
293,Puketona,Northland,North Island,-35.2621,173.9724,,Far North District
294,Purerua,Northland,North Island,-35.1578,174.0225,,Far North District
295,Waipapa,Northland,North Island,-35.1769,173.876,,Far North District
310,Awakino Point,Northland,North Island,-35.9542,173.8785,,Kaipara
310,Turiwiri,Northland,North Island,-35.9542,173.8785,,Kaipara
340,Dargaville,Northland,North Island,-35.9413,173.8697,,Kaipara District
341,Te Kopura,Northland,North Island,-36.0309,173.923,,Kaipara District
370,Arapohue,Northland,North Island,-36.0004,174.0199,,Kaipara District
371,Redhill,Northland,North Island,-36.0523,173.8602,,Kaipara District
372,Kairara,Northland,North Island,-35.8194,173.8585,,Kaipara District
373,Mamaranui,Northland,North Island,-35.8591,173.7106,,Kaipara District
374,Arapohue,Northland,North Island,-35.9673,173.9916,,Kaipara District
376,Tutamoe,Northland,North Island,-35.6467,173.6147,,Kaipara District
377,Baylys Beach,Northland,North Island,-35.9516,173.7818,,Kaipara District
379,Whatoro,Northland,North Island,-35.7555,173.6729,,Kaipara District
381,Kirikopuni,Northland,North Island,-35.8384,174.0082,,Kaipara District
391,Tangaihe,Northland,North Island,-36.2126,174.038,,Kaipara District
420,Cable Bay,Northland,North Island,-35.0008,173.4958,,Far North
420,Coopers Beach,Northland,North Island,-35.0008,173.4958,,Far North
420,Mangonui,Northland,North Island,-35.0008,173.4958,,Far North
420,Peria,Northland,North Island,-35.0008,173.4958,,Far North
440,Kaikohe,Northland,North Island,-35.4081,173.7986,,Far North District
441,Kaitaia,Northland,North Island,-35.114,173.2637,,Far North District
442,Mangonui,Northland,North Island,-34.9896,173.5366,,Far North District
443,Rawene,Northland,North Island,-35.3932,173.5056,,Far North District
444,Omapere,Northland,North Island,-35.5367,173.3862,,Far North District
445,Opononi,Northland,North Island,-35.5046,173.3924,,Far North District
446,Waimamaku,Northland,North Island,-35.556,173.4759,,Far North District
447,Okaihau,Northland,North Island,-35.3201,173.7713,,Far North District
448,Kaeo,Northland,North Island,-35.1006,173.7805,,Far North District
449,Ahipara,Northland,North Island,-35.171,173.1534,,Far North District
451,Awanui,Northland,North Island,-35.048,173.2565,,Far North District
453,Kohukohu,Northland,North Island,-35.3582,173.5461,,Far North District
460,Pukenui,Northland,North Island,-34.8149,173.1178,,Far North District
462,Broadwood,Northland,North Island,-35.2592,173.3896,,Far North District
472,Pakaraka,Northland,North Island,-35.3618,173.9337,,Far North District
473,Waima,Northland,North Island,-35.4963,173.5549,,Far North District
474,Tautoro,Northland,North Island,-35.5071,173.8144,,Far North District
475,Marangai,Northland,North Island,-35.3278,173.6987,,Far North District
476,Umawera,Northland,North Island,-35.2385,173.6264,,Far North District
478,Kaeo,Northland,North Island,-35.0974,173.7895,,Far North District
479,Saies,Northland,North Island,-35.0791,173.6798,,Far North District
481,Manukau,Northland,North Island,-35.2366,173.2382,,Far North District
482,Kaiaka,Northland,North Island,-35.1122,173.4133,,Far North District
483,Lake Ohia,Northland,North Island,-34.9593,173.3595,,Far North District
484,Te Kao,Northland,North Island,-34.6874,172.924,,Far North District
486,Waiharera,Northland,North Island,-34.9757,173.2179,,Far North District
491,Broadwood,Northland,North Island,-35.2764,173.4408,,Far North District
492,Panguru,Northland,North Island,-35.4197,173.3623,,Far North District
494,Paraoanui,Northland,North Island,-35.0088,173.621,,Far North District
496,Pawarenga,Northland,North Island,-35.3437,173.3046,,Far North District
505,Mangawhai,Northland,North Island,-36.0858,174.5842,,Kaipara
520,Maungaturoto,Northland,North Island,-36.1077,174.3568,,Kaipara
520,Rowsells,Northland,North Island,-36.1077,174.3568,,Kaipara District
540,Mangawhai,Northland,North Island,-36.1258,174.5746,,Kaipara District
541,Mangawhai Heads,Northland,North Island,-36.0946,174.5874,,Kaipara District
542,Kaiwaka,Northland,North Island,-36.1642,174.4428,,Kaipara District
543,Paparoa,Northland,North Island,-36.103,174.2315,,Kaipara District
545,Waipu,Northland,North Island,-35.9842,174.4453,,Whangarei District
547,Rowsells,Northland,North Island,-36.1102,174.3537,,Kaipara District
549,Ruawai,Northland,North Island,-36.1365,174.0233,,Kaipara District
550,Matakohe,Northland,North Island,-36.1298,174.1825,,Kaipara District
571,Mareretu,Northland,North Island,-36.053,174.2547,,Kaipara District
573,Kaiwaka,Northland,North Island,-36.1881,174.429,,Kaipara District
582,Waipu,Northland,North Island,-36.0052,174.4499,,Whangarei District
583,Marohemo,Northland,North Island,-36.1641,174.2892,,Kaipara District
587,Ranganui,Northland,North Island,-36.1441,174.4094,,Kaipara District
588,Maungaturoto,Northland,North Island,-36.0723,174.3737,,Kaipara District
589,Huarau,Northland,North Island,-36.0601,174.3167,,Kaipara District
591,Ruawai,Northland,North Island,-36.1195,174.0709,,Kaipara District
592,Rehia,Northland,North Island,-36.0549,174.0388,,Kaipara District
593,Pahi,Northland,North Island,-36.1962,174.2067,,Kaipara District
594,Matakohe,Northland,North Island,-36.0672,174.1446,,Kaipara District
600,Avondale,Auckland,North Island,-36.9158,174.6922,,Auckland
600,New Lynn,Auckland,North Island,-36.9158,174.6922,,Auckland
602,Glen Eden,Auckland,North Island,-36.9042,174.6474,,Auckland
602,Glendene,Auckland,North Island,-36.9042,174.6474,,Auckland
602,Te Atatu South,Auckland,North Island,-36.9042,174.6474,,Auckland
604,Cornwallis,Auckland,North Island,-36.9808,174.5827,,Auckland
604,Green Bay,Auckland,North Island,-36.9808,174.5827,,Auckland
604,Laingholm,Auckland,North Island,-36.9808,174.5827,,Auckland
604,Nihotupu,Auckland,North Island,-36.9808,174.5827,,Auckland
604,Oratia,Auckland,North Island,-36.9808,174.5827,,Auckland
604,Parau,Auckland,North Island,-36.9808,174.5827,,Auckland
604,Titirangi,Auckland,North Island,-36.9808,174.5827,,Auckland
604,Waiatarua,Auckland,North Island,-36.9808,174.5827,,Auckland
610,Henderson,Auckland,North Island,-36.8531,174.6466,,Auckland
610,Massey,Auckland,North Island,-36.8531,174.6466,,Auckland
610,Te Atatu Peninsula,Auckland,North Island,-36.8531,174.6466,,Auckland
612,Glen Eden,Auckland,North Island,-36.8988,174.5918,,Auckland
612,Henderson,Auckland,North Island,-36.8988,174.5918,,Auckland
612,Henderson Valley,Auckland,North Island,-36.8988,174.5918,,Auckland
612,McLaren Park,Auckland,North Island,-36.8988,174.5918,,Auckland
612,Ranui,Auckland,North Island,-36.8988,174.5918,,Auckland
612,Sunnyvale,Auckland,North Island,-36.8988,174.5918,,Auckland
612,Swanson,Auckland,North Island,-36.8988,174.5918,,Auckland
612,Waiatarua,Auckland,North Island,-36.8988,174.5918,,Auckland
614,Henderson Valley,Auckland,North Island,-36.8546,174.584,,Auckland
614,Massey,Auckland,North Island,-36.8546,174.584,,Auckland
614,Ranui,Auckland,North Island,-36.8546,174.584,,Auckland
614,Waitakere,Auckland,North Island,-36.8546,174.584,,Auckland
618,Herald Island,Auckland,North Island,-36.7987,174.6378,,Auckland
618,West Harbour,Auckland,North Island,-36.7987,174.6378,,Auckland
618,Whenuapai,Auckland,North Island,-36.7987,174.6378,,Auckland
620,Castor Bay,Auckland,North Island,-36.7661,174.7548,,Auckland
620,Milford,Auckland,North Island,-36.7661,174.7548,,Auckland
620,Sunnynook,Auckland,North Island,-36.7661,174.7548,,Auckland
620,Sunset North,Auckland,North Island,-36.7661,174.7548,,Auckland
620,Takapuna,Auckland,North Island,-36.7661,174.7548,,Auckland
622,Bayswater,Auckland,North Island,-36.801,174.778,,Auckland
622,Hauraki,Auckland,North Island,-36.801,174.778,,Auckland
622,Milford,Auckland,North Island,-36.801,174.778,,Auckland
622,Takapuna,Auckland,North Island,-36.801,174.778,,Auckland
624,Narrow Neck,Auckland,North Island,-36.8236,174.7918,,Auckland
624,Stanley Point,Auckland,North Island,-36.8236,174.7918,,Auckland
626,Beach Haven,Auckland,North Island,-36.8058,174.7083,,Auckland
626,Birkdale,Auckland,North Island,-36.8058,174.7083,,Auckland
626,Birkenhead,Auckland,North Island,-36.8058,174.7083,,Auckland
627,Hillcrest,Auckland,North Island,-36.798,174.7462,,Auckland
627,North Shore,Auckland,North Island,-36.798,174.7462,,Auckland
627,Northcote,Auckland,North Island,-36.798,174.7462,,Auckland
627,Wairau Valley,Auckland,North Island,-36.798,174.7462,,Auckland
629,Glenfield,Auckland,North Island,-36.7753,174.7199,,Auckland
629,Totaravale,Auckland,North Island,-36.7753,174.7199,,Auckland
630,Campbells Bay,Auckland,North Island,-36.7215,174.7447,,Auckland
630,Mairangi Bay,Auckland,North Island,-36.7215,174.7447,,Auckland
630,Murrays Bay,Auckland,North Island,-36.7215,174.7447,,Auckland
630,Rothesay Bay,Auckland,North Island,-36.7215,174.7447,,Auckland
630,Torbay,Auckland,North Island,-36.7215,174.7447,,Auckland
630,Waiake,Auckland,North Island,-36.7215,174.7447,,Auckland
632,Albany,Auckland,North Island,-36.7443,174.6948,,Auckland
632,Glenfield,Auckland,North Island,-36.7443,174.6948,,Auckland
632,Meadowood,Auckland,North Island,-36.7443,174.6948,,Auckland
632,Northcross,Auckland,North Island,-36.7443,174.6948,,Auckland
632,Paremoremo,Auckland,North Island,-36.7443,174.6948,,Auckland
632,Pinehill,Auckland,North Island,-36.7443,174.6948,,Auckland
632,Rosedale,Auckland,North Island,-36.7443,174.6948,,Auckland
632,Sunnynook,Auckland,North Island,-36.7443,174.6948,,Auckland
632,Sunset North,Auckland,North Island,-36.7443,174.6948,,Auckland
640,New Lynn,Auckland,North Island,-36.9079,174.6831,,Auckland
641,Glen Eden,Auckland,North Island,-36.9118,174.652,,Auckland
642,Titirangi,Auckland,North Island,-36.9378,174.6575,,Auckland
643,Green Bay,Auckland,North Island,-36.9306,174.6801,,Auckland
644,Blockhouse Bay,Auckland,North Island,-36.9234,174.7015,,Auckland
645,Glendene,Auckland,North Island,-36.8869,174.6446,,Auckland
650,Sunnyvale,Auckland,North Island,-36.881,174.6347,,Auckland
651,Te Atatu,Auckland,North Island,-36.8422,174.6515,,Auckland
652,Te Atatu South,Auckland,North Island,-36.865,174.6463,,Auckland
653,Swanson,Auckland,North Island,-36.8655,174.58,,Auckland
654,Te Atatu South,Auckland,North Island,-36.8557,174.6298,,Auckland
655,Swanson,Auckland,North Island,-36.8639,174.6011,,Auckland
656,Massey East,Auckland,North Island,-36.8332,174.6224,,Auckland
657,West Harbour,Auckland,North Island,-36.8222,174.6105,,Auckland
660,Waitakere,Auckland,North Island,-36.8492,174.5447,,Auckland
661,Te Atatu Peninsula,Auckland,North Island,-36.8107,174.6446,,Auckland
662,Brighams Creek,Auckland,North Island,-36.7935,174.6163,,Auckland
663,Massey East,Auckland,North Island,-36.8185,174.6292,,Auckland
740,Hauraki,Auckland,North Island,-36.7875,174.7729,,Auckland
741,Milford,Auckland,North Island,-36.7728,174.7661,,Auckland
742,Torbay,Auckland,North Island,-36.6949,174.7506,,Auckland
743,Forrest Hill,Auckland,North Island,-36.7512,174.7467,,Auckland
744,Devenport,Auckland,North Island,-36.8303,174.7969,,Auckland
745,Glenfield,Auckland,North Island,-36.768,174.7395,,Auckland
746,Birkenhead,Auckland,North Island,-36.8123,174.7254,,Auckland
747,Marlborough,Auckland,North Island,-36.782,174.7216,,Auckland
748,North Shore,Auckland,North Island,-36.8017,174.7446,,Auckland
749,Birkdale,Auckland,North Island,-36.7925,174.6872,,Auckland
750,Takapuna,Auckland,North Island,-36.7969,174.7782,,Auckland
751,Glenfield,Auckland,North Island,-36.7513,174.7139,,Auckland
752,Albany,Auckland,North Island,-36.7313,174.7075,,Auckland
753,Browns Bay,Auckland,North Island,-36.7155,174.7484,,Auckland
754,Mairangi Bay,Auckland,North Island,-36.7384,174.7534,,Auckland
755,Albany,Auckland,North Island,-36.7246,174.6952,,Auckland
756,Paremoremo,Auckland,North Island,-36.7758,174.6702,,Auckland
757,Forrest Hill,Auckland,North Island,-36.743,174.7248,,Auckland
758,Mairangi Bay,Auckland,North Island,-36.7397,174.7419,,Auckland
772,Karekare,Auckland,North Island,-36.9656,174.4894,,Auckland
781,Piha,Auckland,North Island,-36.8981,174.4855,,Auckland
782,Waitakere,Auckland,North Island,-36.8333,174.5226,,Auckland
792,Red Vale,Auckland,North Island,-36.6884,174.6927,,Auckland
793,Coatesville,Auckland,North Island,-36.7222,174.6236,,Auckland
794,Dairy Flat,Auckland,North Island,-36.6687,174.6549,,Auckland
810,Huapai,Auckland,North Island,-36.7726,174.5488,,Auckland
810,Kumeu,Auckland,North Island,-36.7726,174.5488,,Auckland
814,Kumeu,Auckland,North Island,-36.8061,174.5993,,Auckland
814,Massey,Auckland,North Island,-36.8061,174.5993,,Auckland
814,West Harbour,Auckland,North Island,-36.8061,174.5993,,Auckland
814,Whenuapai,Auckland,North Island,-36.8061,174.5993,,Auckland
840,Helensville,Auckland,North Island,-36.6764,174.4505,,Auckland
841,Huapai,Auckland,North Island,-36.7754,174.5548,,Auckland
842,Pahitoa,Auckland,North Island,-36.7687,174.4926,,Auckland
843,Kaukapakapa,Auckland,North Island,-36.6164,174.4933,,Auckland
871,Kaukapakapa,Auckland,North Island,-36.6354,174.5287,,Auckland
873,Parakakau,Auckland,North Island,-36.5611,174.5841,,Auckland
874,Parkhurst,Auckland,North Island,-36.5652,174.3028,,Auckland
875,Helensville,Auckland,North Island,-36.6868,174.4557,,Auckland
881,Woodhill,Auckland,North Island,-36.7829,174.4262,,Auckland
882,Waimauku,Auckland,North Island,-36.7176,174.5263,,Auckland
883,Pahitoa,Auckland,North Island,-36.7604,174.4673,,Auckland
891,Huapai,Auckland,North Island,-36.7875,174.5296,,Auckland
892,Kumeu,Auckland,North Island,-36.7596,174.571,,Auckland
920,Algies Bay,Auckland,North Island,-36.308,174.9148,,Auckland
920,Kawau Island,Auckland,North Island,-36.308,174.9148,,Auckland
920,Leigh,Auckland,North Island,-36.308,174.9148,,Auckland
920,Snells Beach,Auckland,North Island,-36.308,174.9148,,Auckland
930,Army Bay,Auckland,North Island,-36.6172,174.7966,,Auckland
930,Gulf Harbour,Auckland,North Island,-36.6172,174.7966,,Auckland
930,Manly,Auckland,North Island,-36.6172,174.7966,,Auckland
930,Tindalls Beach,Auckland,North Island,-36.6172,174.7966,,Auckland
930,Whangaparaoa,Auckland,North Island,-36.6172,174.7966,,Auckland
931,Hatfields Beach,Auckland,North Island,-36.58,174.6853,,Auckland
932,Arkles Bay,Auckland,North Island,-36.6232,174.7063,,Auckland
932,Orewa,Auckland,North Island,-36.6232,174.7063,,Auckland
932,Redvale,Auckland,North Island,-36.6232,174.7063,,Auckland
932,Stanmore Bay,Auckland,North Island,-36.6232,174.7063,,Auckland
940,Wellsford,Auckland,North Island,-36.2938,174.5238,,Auckland
941,Warkworth,Auckland,North Island,-36.3978,174.6639,,Auckland
942,Snells Beach,Auckland,North Island,-36.4204,174.7235,,Auckland
943,Whangaparaoa,Auckland,North Island,-36.6366,174.748,,Auckland
944,Silverdale,Auckland,North Island,-36.6178,174.6778,,Auckland
945,Red Beach,Auckland,North Island,-36.6056,174.6978,,Auckland
946,Orewa,Auckland,North Island,-36.5856,174.6943,,Auckland
947,Leigh,Auckland,North Island,-36.2905,174.8047,,Auckland
948,Matakana,Auckland,North Island,-36.3519,174.7169,,Auckland
950,Waiwera,Auckland,North Island,-36.5447,174.7058,,Auckland
951,Puhoi,Auckland,North Island,-36.5121,174.661,,Auckland
960,Okiwi,Auckland,North Island,-36.1556,175.3935,,Auckland
961,Okupu,Auckland,North Island,-36.2427,175.462,,Auckland
962,Tryphena,Auckland,North Island,-36.3015,175.4883,,Auckland
963,Port Fitzroy,Auckland,North Island,-36.1639,175.3624,,Auckland
972,Wayby,Auckland,North Island,-36.3001,174.6126,,Auckland
973,Wharehine,Auckland,North Island,-36.315,174.447,,Auckland
974,Te Hana,Auckland,North Island,-36.2485,174.6008,,Auckland
975,Topuni,Northland,North Island,-36.1895,174.5252,,Kaipara District
977,Wharehine,Auckland,North Island,-36.3561,174.3225,,Auckland
981,Woodcocks,Auckland,North Island,-36.4243,174.5979,,Auckland
982,Algies Bay,Auckland,North Island,-36.4404,174.7235,,Auckland
983,Pohuehue,Auckland,North Island,-36.4709,174.6573,,Auckland
984,Ahuroa,Auckland,North Island,-36.501,174.5307,,Auckland
985,Big Omaha,Auckland,North Island,-36.3249,174.7381,,Auckland
986,Tawharanui,Auckland,North Island,-36.3544,174.8003,,Auckland
991,Whangapara,Auckland,North Island,-36.2,175.4287,,Auckland
992,Silverdale,Auckland,North Island,-36.5992,174.6619,,Auckland
993,Red Beach,Auckland,North Island,-36.6374,174.693,,Auckland
1010,Auckland Central,Auckland,North Island,-36.8052,174.9811,,Auckland
1010,Eden Terrace,Auckland,North Island,-36.8052,174.9811,,Auckland
1010,Grafton,Auckland,North Island,-36.8052,174.9811,,Auckland
1010,Mechanics Bay,Auckland,North Island,-36.8052,174.9811,,Auckland
1010,Parnell,Auckland,North Island,-36.8052,174.9811,,Auckland
1010,Rakino Island,Auckland,North Island,-36.7187,174.9483,,Auckland
1010,Surfdale,Auckland,North Island,-36.8052,174.9811,,Auckland
1011,Freemans Bay,Auckland,North Island,-36.8447,174.7336,,Auckland
1011,Herne Bay,Auckland,North Island,-36.8447,174.7336,,Auckland
1011,Ponsonby,Auckland,North Island,-36.8447,174.7336,,Auckland
1011,St Marys Bay,Auckland,North Island,-36.8447,174.7336,,Auckland
1011,Westhaven,Auckland,North Island,-36.8447,174.7336,,Auckland
1021,Arch Hill,Auckland,North Island,-36.863,174.7432,,Auckland
1021,Eden Terrace,Auckland,North Island,-36.863,174.7432,,Auckland
1021,Grey Lynn,Auckland,North Island,-36.863,174.7432,,Auckland
1021,Kingsland,Auckland,North Island,-36.863,174.7432,,Auckland
1021,Ponsonby,Auckland,North Island,-36.863,174.7432,,Auckland
1022,Mt Albert,Auckland,North Island,-36.8585,174.7053,,Auckland
1022,Point Chevalier,Auckland,North Island,-36.8585,174.7053,,Auckland
1022,Western Springs,Auckland,North Island,-36.8585,174.7053,,Auckland
1022,Westmere,Auckland,North Island,-36.8585,174.7053,,Auckland
1023,Epsom,Auckland,North Island,-36.8872,174.7709,,Auckland
1023,Grafton,Auckland,North Island,-36.8872,174.7709,,Auckland
1023,Newmarket,Auckland,North Island,-36.8872,174.7709,,Auckland
1023,Royal Oak,Auckland,North Island,-36.8872,174.7709,,Auckland
1024,Epsom,Auckland,North Island,-36.8877,174.7529,,Auckland
1024,Mt Eden,Auckland,North Island,-36.8877,174.7529,,Auckland
1024,Three Kings,Auckland,North Island,-36.8877,174.7529,,Auckland
1025,Mt Albert,Auckland,North Island,-36.8844,174.7238,,Auckland
1025,Mt Roskill,Auckland,North Island,-36.8844,174.7238,,Auckland
1025,Point Chevalier,Auckland,North Island,-36.8844,174.7238,,Auckland
1025,Sandringham,Auckland,North Island,-36.8844,174.7238,,Auckland
1026,Avondale,Auckland,North Island,-36.876,174.6829,,Auckland
1026,Waterview,Auckland,North Island,-36.876,174.6829,,Auckland
1041,Mount Roskill,Auckland,North Island,-36.9125,174.7335,,Auckland
1041,Mt Eden,Auckland,North Island,-36.9125,174.7335,,Auckland
1041,Mt Roskill,Auckland,North Island,-36.9125,174.7335,,Auckland
1041,Sandringham,Auckland,North Island,-36.9125,174.7335,,Auckland
1042,Hillsborough,Auckland,North Island,-36.9214,174.7393,,Auckland
1042,Lynfield,Auckland,North Island,-36.9214,174.7393,,Auckland
1042,Three Kings,Auckland,North Island,-36.9214,174.7393,,Auckland
1050,Remuera,Auckland,North Island,-36.8768,174.8042,,Auckland
1050,St Johns,Auckland,North Island,-36.8768,174.8042,,Auckland
1051,Ellerslie,Auckland,North Island,-36.8917,174.8071,,Auckland
1051,Epsom,Auckland,North Island,-36.8917,174.8071,,Auckland
1051,Greenlane,Auckland,North Island,-36.8917,174.8071,,Auckland
1051,Mt Wellington,Auckland,North Island,-36.8917,174.8071,,Auckland
1051,One Tree Hill,Auckland,North Island,-36.8917,174.8071,,Auckland
1051,Remuera,Auckland,North Island,-36.8917,174.8071,,Auckland
1052,Parnell,Auckland,North Island,-36.857,174.7914,,Auckland
1052,Point Resolution,Auckland,North Island,-36.857,174.7914,,Auckland
1060,Ellerslie,Auckland,North Island,-36.9177,174.8356,,Auckland
1060,Mt Wellington,Auckland,North Island,-36.9177,174.8356,,Auckland
1060,Penrose,Auckland,North Island,-36.9177,174.8356,,Auckland
1061,Ellerslie,Auckland,North Island,-36.9155,174.7991,,Auckland
1061,Greenlane,Auckland,North Island,-36.9155,174.7991,,Auckland
1061,Hillsborough,Auckland,North Island,-36.9155,174.7991,,Auckland
1061,One Tree Hill,Auckland,North Island,-36.9155,174.7991,,Auckland
1061,Onehunga,Auckland,North Island,-36.9155,174.7991,,Auckland
1061,Penrose,Auckland,North Island,-36.9155,174.7991,,Auckland
1061,Royal Oak,Auckland,North Island,-36.9155,174.7991,,Auckland
1061,Te Papapa,Auckland,North Island,-36.9155,174.7991,,Auckland
1062,OTAHUHU,Auckland,North Island,-36.941,174.8483,,Auckland
1071,Glendowie,Auckland,North Island,-36.8565,174.8482,,Auckland
1071,Kohimarama,Auckland,North Island,-36.8565,174.8482,,Auckland
1071,Mission Bay,Auckland,North Island,-36.8565,174.8482,,Auckland
1071,Orakei,Auckland,North Island,-36.8565,174.8482,,Auckland
1071,St Heliers,Auckland,North Island,-36.8565,174.8482,,Auckland
1072,Glen Innes,Auckland,North Island,-36.8873,174.8528,,Auckland
1072,Meadowbank,Auckland,North Island,-36.8873,174.8528,,Auckland
1072,Mt Wellington,Auckland,North Island,-36.8873,174.8528,,Auckland
1072,Panmure,Auckland,North Island,-36.8873,174.8528,,Auckland
1072,Point England,Auckland,North Island,-36.8873,174.8528,,Auckland
1072,Remuera,Auckland,North Island,-36.8873,174.8528,,Auckland
1072,St Johns,Auckland,North Island,-36.8873,174.8528,,Auckland
1072,Tamaki,Auckland,North Island,-36.8873,174.8528,,Auckland
1081,Omiha,Auckland,North Island,-36.7932,175.0362,,Auckland
1081,Oneroa,Auckland,North Island,-36.7932,175.0362,,Auckland
1081,Onetangi,Auckland,North Island,-36.7932,175.0362,,Auckland
1081,Ostend,Auckland,North Island,-36.7932,175.0362,,Auckland
1081,Waiheke Island,Auckland,North Island,-36.7932,175.0362,,Auckland
1140,Mechanics Bay,Auckland,North Island,-36.8472,174.7692,,Auckland
1141,Newmarket,Auckland,North Island,-36.8507,174.7632,,Auckland
1142,Newton,Auckland,North Island,-36.8478,174.7577,,Auckland
1143,Mechanics Bay,Auckland,North Island,-36.8451,174.7675,,Auckland
1144,Freemans Bay,Auckland,North Island,-36.8481,174.7437,,Auckland
1145,Grafton,Auckland,North Island,-36.8578,174.7579,,Auckland
1147,Herne Bay,Auckland,North Island,-36.846,174.7339,,Auckland
1148,Auckland,Auckland,North Island,-36.8609,174.7695,,Auckland
1149,Parnell,Auckland,North Island,-36.8731,174.7773,,Auckland
1150,Auckland,Auckland,North Island,-36.8641,174.7621,,Auckland
1151,Point Resolution,Auckland,North Island,-36.8568,174.7811,,Auckland
1245,Western Springs,Auckland,North Island,-36.8654,174.7378,,Auckland
1246,Mount Albert,Auckland,North Island,-36.8702,174.7107,,Auckland
1340,Wesley,Auckland,North Island,-36.9004,174.72,,Auckland
1342,Balmoral,Auckland,North Island,-36.8885,174.7472,,Auckland
1344,One Tree Hill,Auckland,North Island,-36.8918,174.7745,,Auckland
1345,Royal Oak,Auckland,North Island,-36.9117,174.7763,,Auckland
1346,Sandringham,Auckland,North Island,-36.8837,174.733,,Auckland
1347,One Tree Hill,Auckland,North Island,-36.9,174.7734,,Auckland
1348,Avondale,Auckland,North Island,-36.8878,174.6845,,Auckland
1349,Epsom,Auckland,North Island,-36.8823,174.7619,,Auckland
1350,Owairaka,Auckland,North Island,-36.8849,174.715,,Auckland
1351,Balmoral,Auckland,North Island,-36.893,174.7363,,Auckland
1352,Mount Eden,Auckland,North Island,-36.8724,174.744,,Auckland
1440,Three Kings,Auckland,North Island,-36.9032,174.742,,Auckland
1443,Lynfield,Auckland,North Island,-36.9262,174.7231,,Auckland
1445,Waikowhai,Auckland,North Island,-36.9202,174.7367,,Auckland
1446,Mount Eden,Auckland,North Island,-36.8801,174.7495,,Auckland
1541,Greenlane,Auckland,North Island,-36.8804,174.798,,Auckland
1542,Ellerslie,Auckland,North Island,-36.898,174.8092,,Auckland
1543,Greenlane,Auckland,North Island,-36.8823,174.7849,,Auckland
1544,Ellerslie,Auckland,North Island,-36.8992,174.8053,,Auckland
1545,Panmure,Auckland,North Island,-36.8961,174.8324,,Auckland
1546,Ellerslie,Auckland,North Island,-36.895,174.8001,,Auckland
1640,Otahuhu,Auckland,North Island,-36.9444,174.8441,,Auckland
1641,Panmure,Auckland,North Island,-36.9079,174.838,,Auckland
1642,Mount Wellington,Auckland,North Island,-36.9097,174.8145,,Auckland
1643,Onehunga,Auckland,North Island,-36.9205,174.7861,,Auckland
1740,Saint Heliers,Auckland,North Island,-36.8507,174.8577,,Auckland
1741,Panmure,Auckland,North Island,-36.9005,174.8557,,Auckland
1742,Meadowbank,Auckland,North Island,-36.8758,174.8277,,Auckland
1743,Point England,Auckland,North Island,-36.8791,174.8552,,Auckland
1744,Mission Bay,Auckland,North Island,-36.8493,174.8288,,Auckland
1745,Orakei,Auckland,North Island,-36.856,174.8147,,Auckland
1746,New Windsor,Auckland,North Island,-36.8975,174.6973,,Auckland
1840,Oneroa,Auckland,North Island,-36.7834,175.0105,,Auckland
1841,Onetangi,Auckland,North Island,-36.792,175.0798,,Auckland
1842,Blackpool,Auckland,North Island,-36.7938,175.026,,Auckland
1843,Ostend,Auckland,North Island,-36.796,175.0465,,Auckland
1971,Onetangi,Auckland,North Island,-36.7931,175.0922,,Auckland
2010,Botany Downs,Auckland,North Island,-36.9104,174.8925,,Auckland
2010,Highland Park,Auckland,North Island,-36.9104,174.8925,,Auckland
2010,Howick,Auckland,North Island,-36.9104,174.8925,,Auckland
2010,Pakuranga,Auckland,North Island,-36.9104,174.8925,,Auckland
2010,Pakuranga Heights,Auckland,North Island,-36.9104,174.8925,,Auckland
2012,Bucklands Beach,Auckland,North Island,-36.8714,174.8978,,Auckland
2012,Eastern Beach,Auckland,North Island,-36.8714,174.8978,,Auckland
2012,Farm Cove,Auckland,North Island,-36.8714,174.8978,,Auckland
2012,Half Moon Bay,Auckland,North Island,-36.8714,174.8978,,Auckland
2013,Burswood,Auckland,North Island,-36.9373,174.8935,,Auckland
2013,Dannemora,Auckland,North Island,-36.9373,174.8935,,Auckland
2013,East Tamaki,Auckland,North Island,-36.9373,174.8935,,Auckland
2013,Golflands,Auckland,North Island,-36.9373,174.8935,,Auckland
2013,Huntington Park,Auckland,North Island,-36.9373,174.8935,,Auckland
2013,Otara,Auckland,North Island,-36.9373,174.8935,,Auckland
2014,Botany Downs,Auckland,North Island,-36.898,174.9308,,Auckland
2014,Bucklands Beach,Auckland,North Island,-36.898,174.9308,,Auckland
2014,Cockle Bay,Auckland,North Island,-36.898,174.9308,,Auckland
2014,Golflands,Auckland,North Island,-36.898,174.9308,,Auckland
2014,Half Moon Bay,Auckland,North Island,-36.898,174.9308,,Auckland
2014,Howick,Auckland,North Island,-36.898,174.9308,,Auckland
2014,Shelly Park,Auckland,North Island,-36.898,174.9308,,Auckland
2014,Somerville,Auckland,North Island,-36.898,174.9308,,Auckland
2016,Dannemora,Auckland,North Island,-36.9647,174.9241,,Auckland
2016,East Tamaki,Auckland,North Island,-36.9647,174.9241,,Auckland
2016,Ormiston,Auckland,North Island,-36.9647,174.9241,,Auckland
2016,Otara,Auckland,North Island,-36.9647,174.9241,,Auckland
2016,Wairere,Auckland,North Island,-36.9647,174.9241,,Auckland
2018,Beachlands,Auckland,North Island,-36.8818,175.0134,,Auckland
2018,Maraetai,Auckland,North Island,-36.8818,175.0134,,Auckland
2022,Auckland Airport,Auckland,North Island,-36.9784,174.7817,,Auckland
2022,Mangere,Auckland,North Island,-36.9784,174.7817,,Auckland
2022,Mangere Bridge,Auckland,North Island,-36.9784,174.7817,,Auckland
2022,Mangere South,Auckland,North Island,-36.9784,174.7817,,Auckland
2023,Clover Park,Auckland,North Island,-36.969,174.8822,,Auckland
2023,Ormiston,Auckland,North Island,-36.969,174.8822,,Auckland
2023,Otara,Auckland,North Island,-36.969,174.8822,,Auckland
2023,Wiri,Auckland,North Island,-36.969,174.8822,,Auckland
2024,Favona,Auckland,North Island,-36.9559,174.8184,,Auckland
2024,Mangere East,Auckland,North Island,-36.9559,174.8184,,Auckland
2024,Otahuhu,Auckland,North Island,-36.9559,174.8184,,Auckland
2025,Manukau,Auckland,North Island,-36.9915,174.8466,,Auckland
2025,Otara,Auckland,North Island,-36.9915,174.8466,,Auckland
2025,Papatoetoe,Auckland,North Island,-36.9915,174.8466,,Auckland
2025,Wiri,Auckland,North Island,-36.9915,174.8466,,Auckland
2102,Manurewa,Auckland,North Island,-37.0234,174.8856,,Auckland
2102,Manurewa East,Auckland,North Island,-37.0234,174.8856,,Auckland
2103,Clendon Park,Auckland,North Island,-37.0408,174.8752,,Auckland
2103,Wattle Downs,Auckland,North Island,-37.0408,174.8752,,Auckland
2103,Weymouth,Auckland,North Island,-37.0408,174.8752,,Auckland
2104,Manukau,Auckland,North Island,-37.0011,174.8672,,Auckland
2104,Papatoetoe,Auckland,North Island,-37.0011,174.8672,,Auckland
2104,Wiri,Auckland,North Island,-37.0011,174.8672,,Auckland
2105,Alfriston,Auckland,North Island,-37.0135,174.9183,,Auckland
2105,Clover Park,Auckland,North Island,-37.0135,174.9183,,Auckland
2105,Conifer Grove,Auckland,North Island,-37.0135,174.9183,,Auckland
2105,Goodwood Heights,Auckland,North Island,-37.0135,174.9183,,Auckland
2105,Manurewa East,Auckland,North Island,-37.0135,174.9183,,Auckland
2105,Randwick Park,Auckland,North Island,-37.0135,174.9183,,Auckland
2105,Takanini,Auckland,North Island,-37.0135,174.9183,,Auckland
2105,The Gardens,Auckland,North Island,-37.0135,174.9183,,Auckland
2105,Wairere,Auckland,North Island,-37.0135,174.9183,,Auckland
2110,Papakura,Auckland,North Island,-37.0609,174.9656,,Auckland
2110,Red Hill,Auckland,North Island,-37.0609,174.9656,,Auckland
2112,Conifer Grove,Auckland,North Island,-37.045,174.9202,,Auckland
2112,Takanini,Auckland,North Island,-37.045,174.9202,,Auckland
2113,Drury,Auckland,North Island,-37.0874,174.9409,,Auckland
2113,Opaheke,Auckland,North Island,-37.0874,174.9409,,Auckland
2113,Pahurehure,Auckland,North Island,-37.0874,174.9409,,Auckland
2113,Papakura,Auckland,North Island,-37.0874,174.9409,,Auckland
2113,Rosehill,Auckland,North Island,-37.0874,174.9409,,Auckland
2120,Pukekohe,Auckland,North Island,-37.2088,174.8945,,Auckland
2121,Tuakau,Waikato,North Island,-37.2674,174.9395,,Waikato District
2122,Clarks Beach,Auckland,North Island,-37.1379,174.6979,,Auckland
2122,Waiau Pa,Auckland,North Island,-37.1379,174.6979,,Auckland
2123,Waiuku,Auckland,North Island,-37.2484,174.7359,,Auckland
2140,Pakuranga,Auckland,North Island,-36.9121,174.8708,,Auckland
2141,East Tamaki,Auckland,North Island,-36.9311,174.8971,,Auckland
2142,East Tamaki,Auckland,North Island,-36.9322,174.9122,,Auckland
2143,Botany Downs,Auckland,North Island,-36.8983,174.9069,,Auckland
2144,Eastern Beach,Auckland,North Island,-36.8681,174.904,,Auckland
2145,Shelly Park,Auckland,North Island,-36.8937,174.9315,,Auckland
2146,Shelly Park,Auckland,North Island,-36.9041,174.9392,,Auckland
2147,Beachlands,Auckland,North Island,-36.8825,174.9969,,Auckland
2148,Maraetai,Auckland,North Island,-36.8804,175.0343,,Auckland
2149,Whitford,Auckland,North Island,-36.9456,174.965,,Auckland
2150,Mangere,Auckland,North Island,-36.9986,174.7885,,Auckland
2151,Favona,Auckland,North Island,-36.9422,174.7875,,Auckland
2153,Mangere,Auckland,North Island,-36.9702,174.7993,,Auckland
2154,Mangere,Auckland,North Island,-36.9699,174.7856,,Auckland
2155,Papatoetoe,Auckland,North Island,-36.9714,174.8621,,Auckland
2156,Papatoetoe,Auckland,North Island,-36.9797,174.8541,,Auckland
2157,Wiri,Auckland,North Island,-36.9805,174.8767,,Auckland
2158,Mangere East,Auckland,North Island,-36.9665,174.8251,,Auckland
2159,Otara,Auckland,North Island,-36.9611,174.8732,,Auckland
2160,Wiri,Auckland,North Island,-36.9774,174.8968,,Auckland
2240,Homai,Auckland,North Island,-37.0068,174.875,,Auckland
2241,Wiri,Auckland,North Island,-36.992,174.8815,,Auckland
2242,Weymouth,Auckland,North Island,-37.0332,174.8692,,Auckland
2243,Manurewa East,Auckland,North Island,-37.022,174.8966,,Auckland
2244,Pahurehure,Auckland,North Island,-37.0616,174.9417,,Auckland
2245,Takanini,Auckland,North Island,-37.0392,174.9198,,Auckland
2246,Pahurehure,Auckland,North Island,-37.0486,174.9282,,Auckland
2247,Drury,Auckland,North Island,-37.1023,174.9514,,Auckland
2248,Clevedon,Auckland,North Island,-36.9927,175.0373,,Auckland
2340,Pukekohe,Auckland,North Island,-37.1999,174.9058,,Auckland
2341,Waiuku,Auckland,North Island,-37.251,174.7286,,Auckland
2342,Tuakau,Waikato,North Island,-37.258,174.9466,,Waikato District
2343,Bombay,Auckland,North Island,-37.1862,174.9912,,Auckland
2344,Patumahoe,Auckland,North Island,-37.1871,174.829,,Auckland
2345,Waiau Pa,Auckland,North Island,-37.1495,174.7647,,Auckland
2440,Pokeno,Waikato,North Island,-37.2457,175.0215,,Waikato District
2441,Meremere,Waikato,North Island,-37.3231,175.0694,,Waikato District
2471,Kopuku,Auckland,North Island,-37.2446,175.1648,,Auckland
2472,Pokeno,Waikato,North Island,-37.2224,175.0053,,Waikato District
2473,Kaiaua,Waikato,North Island,-37.1222,175.2316,,Waikato District
2474,Mercer,Waikato,North Island,-37.2798,175.0728,,Waikato District
2571,Waikopua,Auckland,North Island,-36.9162,174.991,,Auckland
2576,Whitford,Auckland,North Island,-36.9781,174.9855,,Auckland
2577,Drury,Auckland,North Island,-37.1147,174.9742,,Auckland
2578,Ramarama,Auckland,North Island,-37.1313,174.935,,Auckland
2579,Ararimu,Auckland,North Island,-37.1436,175.0191,,Auckland
2580,Weymouth,Auckland,North Island,-37.1032,174.8609,,Auckland
2582,Clevedon,Auckland,North Island,-36.9738,175.0179,,Auckland
2583,Paparimu,Auckland,North Island,-37.0996,175.1194,,Auckland
2584,Opaheke,Auckland,North Island,-37.1003,175.0012,,Auckland
2585,Whakatiri,Auckland,North Island,-36.9896,175.1648,,Auckland
2675,Ararimu,Auckland,North Island,-37.185,175.0338,,Auckland
2676,Paerata,Auckland,North Island,-37.1735,174.8913,,Auckland
2677,Pukekohe East,Waikato,North Island,-37.216,174.9333,,Waikato District
2678,Mauku,Auckland,North Island,-37.2305,174.8412,,Auckland
2679,Waiau Pa,Auckland,North Island,-37.1394,174.7893,,Auckland
2681,Glenbrook,Waikato,North Island,-37.2045,174.7562,,Waikato District
2682,Otaua,Auckland,North Island,-37.3092,174.7493,,Auckland
2683,Waipipi,Auckland,North Island,-37.2288,174.6664,,Auckland
2684,Pollok,Auckland,North Island,-37.1186,174.6161,,Auckland
2693,Te Kohanga,Waikato,North Island,-37.3001,174.8746,,Waikato District
2694,Tuakau,Waikato,North Island,-37.2626,174.9591,,Waikato District
2695,Kaawa,Waikato,North Island,-37.4521,174.8611,,Waikato District
2696,Opuatia,Waikato,North Island,-37.3556,175.0016,,Waikato District
2697,Te Kohanga,Waikato,North Island,-37.3909,174.871,,Waikato District
3010,Glenholme,Bay of Plenty,North Island,-38.1178,176.2514,,Rotorua
3010,Kawaha Point,Bay of Plenty,North Island,-38.1178,176.2514,,Rotorua
3010,Koutu,Bay of Plenty,North Island,-38.1178,176.2514,,Rotorua
3010,Lynmore,Bay of Plenty,North Island,-38.1178,176.2514,,Rotorua
3010,Ngapuna,Bay of Plenty,North Island,-38.1178,176.2514,,Rotorua
3010,Ngongotaha,Bay of Plenty,North Island,-38.1178,176.2514,,Rotorua
3010,Ohinemutu,Bay of Plenty,North Island,-38.1178,176.2514,,Rotorua District
3010,Owhata,Bay of Plenty,North Island,-38.1178,176.2514,,Rotorua
3010,Rotorua,Bay of Plenty,North Island,-38.1178,176.2514,,Rotorua
3010,Victoria,Bay of Plenty,North Island,-38.1178,176.2514,,Rotorua
3010,Whakarewarewa,Bay of Plenty,North Island,-38.1178,176.2514,,Rotorua
3015,Fairy Springs,Bay of Plenty,North Island,-38.1483,176.2067,,Rotorua
3015,Fordlands,Bay of Plenty,North Island,-38.1483,176.2067,,Rotorua
3015,Hillcrest,Bay of Plenty,North Island,-38.1483,176.2067,,Rotorua
3015,Mangakakahi,Bay of Plenty,North Island,-38.1483,176.2067,,Rotorua
3015,Ngongotaha Valley,Bay of Plenty,North Island,-38.1483,176.2067,,Rotorua
3015,Pukehangi,Bay of Plenty,North Island,-38.1483,176.2067,,Rotorua
3015,Rotorua,Bay of Plenty,North Island,-38.1483,176.2067,,Rotorua
3015,Selwyn Heights,Bay of Plenty,North Island,-38.1483,176.2067,,Rotorua
3015,Springfield,Bay of Plenty,North Island,-38.1483,176.2067,,Rotorua
3015,Sunnybrook,Bay of Plenty,North Island,-38.1483,176.2067,,Rotorua District
3015,Tihoitonga,Bay of Plenty,North Island,-38.1483,176.2067,,Rotorua
3015,West Brook,Bay of Plenty,North Island,-38.1483,176.2067,,Rotorua
3015,Western Heights,Bay of Plenty,North Island,-38.1483,176.2067,,Rotorua
3020,Mamaku,Bay of Plenty,North Island,-38.0956,176.0756,,Rotorua District
3025,Murupara,Bay of Plenty,North Island,-38.4571,176.709,,Whakatane District
3040,Ngapuna,Bay of Plenty,North Island,-38.1377,176.2507,,Rotorua District
3041,Ngongotaha,Bay of Plenty,North Island,-38.0805,176.2124,,Rotorua District
3042,Owhata,Bay of Plenty,North Island,-38.1345,176.2952,,Rotorua District
3043,Whakarewarewa,Bay of Plenty,North Island,-38.1592,176.2567,,Rotorua District
3044,Glenholme,Bay of Plenty,North Island,-38.1448,176.2375,,Rotorua District
3045,Ngapuna,Bay of Plenty,North Island,-38.14,176.2516,,Rotorua District
3046,Koutu,Bay of Plenty,North Island,-38.1294,176.2337,,Rotorua District
3047,Mangakakahi,Bay of Plenty,North Island,-38.1291,176.2195,,Rotorua District
3048,Tihiotonga,Bay of Plenty,North Island,-38.1602,176.2355,,Rotorua District
3049,Mamaku,Bay of Plenty,North Island,-38.0953,176.0768,,Rotorua District
3060,Reporoa,Waikato,North Island,-38.436,176.3411,,Rotorua District
3062,Murupara,Bay of Plenty,North Island,-38.4562,176.7041,,Whakatane District
3072,Tarukenga,Waikato,North Island,-38.062,176.1258,,South Waikato District
3073,Waimangu,Waikato,North Island,-38.2904,176.4731,,Rotorua District
3074,Tikitere,Bay of Plenty,North Island,-38.0913,176.4142,,Rotorua District
3076,Punaroma,Bay of Plenty,North Island,-38.1809,176.362,,Rotorua District
3077,Guthrie,Bay of Plenty,North Island,-38.32,176.2239,,Rotorua District
3078,Atiamuri,Waikato,North Island,-38.4262,175.9947,,South Waikato District
3079,Ruatahuna,Bay of Plenty,North Island,-38.5567,176.8892,,Whakatane District
3081,Tahorakui,Waikato,North Island,-38.6353,176.4422,,Taupo District
3083,Tahorakui,Waikato,North Island,-38.4805,176.2263,,Rotorua District
3110,Bellevue,Bay of Plenty,North Island,-37.6686,176.2664,,Tauranga
3110,Bethlehem,Bay of Plenty,North Island,-37.6686,176.2664,,Tauranga
3110,Brookfield,Bay of Plenty,North Island,-37.6686,176.2664,,Tauranga
3110,Judea,Bay of Plenty,North Island,-37.6686,176.2664,,Tauranga
3110,Matapihi,Bay of Plenty,North Island,-37.6686,176.2664,,Tauranga
3110,Matua,Bay of Plenty,North Island,-37.6686,176.2664,,Tauranga
3110,Motiti Island,Bay of Plenty,North Island,-37.6686,176.2664,,Tauranga
3110,Omanu Beach,Bay of Plenty,North Island,-37.6686,176.2664,,Tauranga City
3110,Otumoetai,Bay of Plenty,North Island,-37.6686,176.2664,,Tauranga
3110,Tauranga,Bay of Plenty,North Island,-37.6686,176.2664,,Tauranga
3110,Tauriko,Bay of Plenty,North Island,-37.6686,176.2664,,Tauranga
3112,Gate Pa,Bay of Plenty,North Island,-37.7273,176.1538,,Tauranga
3112,Greerton,Bay of Plenty,North Island,-37.7273,176.1538,,Tauranga
3112,Hairini,Bay of Plenty,North Island,-37.7273,176.1538,,Tauranga City
3112,Maungatapu,Bay of Plenty,North Island,-37.7273,176.1538,,Tauranga
3112,Parkvale,Bay of Plenty,North Island,-37.7273,176.1538,,Tauranga
3112,Poike,Bay of Plenty,North Island,-37.7273,176.1538,,Tauranga
3112,Pyes Pa,Bay of Plenty,North Island,-37.7273,176.1538,,Tauranga
3112,Tauranga South,Bay of Plenty,North Island,-37.7273,176.1538,,Tauranga
3112,Welcome Bay,Bay of Plenty,North Island,-37.7273,176.1538,,Tauranga
3114,Omokoroa,Bay of Plenty,North Island,-37.6348,176.0467,,Western Bay of Plenty
3114,Omokoroa Beach,Bay of Plenty,North Island,-37.6348,176.0467,,Western Bay of Plenty District
3116,Mt Maunganui,Bay of Plenty,North Island,-37.6536,176.2044,,Tauranga
3116,Omanu,Bay of Plenty,North Island,-37.6536,176.2044,,Tauranga City
3118,Kairua,Bay of Plenty,North Island,-37.7146,176.3294,,Tauranga
3118,Papamoa Beach,Bay of Plenty,North Island,-37.7146,176.3294,,Tauranga City
3119,Te Puke,Bay of Plenty,North Island,-37.7774,176.3267,,Western Bay of Plenty District
3120,Coastlands,Bay of Plenty,North Island,-37.9555,176.9225,,Whakatane
3120,Edgecumbe,Bay of Plenty,North Island,-37.9555,176.9225,,Whakatane
3120,Maraetotara,Bay of Plenty,North Island,-37.9555,176.9225,,Whakatane
3120,Poroporo,Bay of Plenty,North Island,-37.9555,176.9225,,Whakatane District
3120,Whakatane,Bay of Plenty,North Island,-37.9555,176.9225,,Whakatane
3121,Ohope,Bay of Plenty,North Island,-37.97,177.084,,Whakatane
3121,Ohope Beach,Bay of Plenty,North Island,-37.97,177.084,,Whakatane District
3122,Opotiki,Bay of Plenty,North Island,-38.0138,177.2788,,Opotiki District
3122,Otara,Bay of Plenty,North Island,-38.0138,177.2788,,Opotiki
3122,Tirohanga,Bay of Plenty,North Island,-38.0138,177.2788,,Opotiki
3122,Waiotahi,Bay of Plenty,North Island,-38.0138,177.2788,,Opotiki
3123,Taneatua,Bay of Plenty,North Island,-38.0646,177.0066,,Whakatane District
3127,Kawerau,Bay of Plenty,North Island,-38.0905,176.6964,,Kawerau District
3129,Katikati,Bay of Plenty,North Island,-37.5499,175.9175,,Western Bay of Plenty District
3140,Tauranga,Bay of Plenty,North Island,-37.6934,176.1622,,Western Bay of Plenty District
3141,Tauranga,Bay of Plenty,North Island,-37.685,176.1682,,Tauranga City
3142,Greerton,Bay of Plenty,North Island,-37.7267,176.1332,,Tauranga City
3143,Tauranga,Bay of Plenty,North Island,-37.6739,176.1649,,Tauranga City
3144,Tauranga,Bay of Plenty,North Island,-37.6982,176.1597,,Tauranga City
3145,Otumoetai,Bay of Plenty,North Island,-37.6684,176.1405,,Tauranga City
3146,Judea,Bay of Plenty,North Island,-37.6898,176.1352,,Tauranga City
3147,Bethlehem,Bay of Plenty,North Island,-37.6959,176.1094,,Tauranga City
3148,Hairini,Bay of Plenty,North Island,-37.7162,176.1793,,Tauranga City
3149,Omanu,Bay of Plenty,North Island,-37.6553,176.2004,,Tauranga City
3150,Mount Maunganui,Bay of Plenty,North Island,-37.6381,176.1836,,Tauranga City
3151,Kairua,Bay of Plenty,North Island,-37.7006,176.2838,,Tauranga City
3152,Omanu Beach,Bay of Plenty,North Island,-37.676,176.223,,Tauranga City
3153,Te Puke,Bay of Plenty,North Island,-37.7849,176.3275,,Western Bay of Plenty District
3154,Omokoroa Beach,Bay of Plenty,North Island,-37.6326,176.0523,,Western Bay of Plenty District
3158,Whakatane,Bay of Plenty,North Island,-37.9524,176.9959,,Whakatane District
3159,Poroporo,Bay of Plenty,North Island,-37.9621,176.9819,,Whakatane District
3160,Edgecumbe,Bay of Plenty,North Island,-37.9752,176.8264,,Whakatane District
3161,Ohope Beach,Bay of Plenty,North Island,-37.9642,177.0361,,Whakatane District
3162,Opotiki,Bay of Plenty,North Island,-38.0057,177.2847,,Opotiki District
3163,Taneatua,Bay of Plenty,North Island,-38.0653,177.0034,,Whakatane District
3164,Waimana,Bay of Plenty,North Island,-38.1431,177.0767,,Whakatane District
3166,Katikati,Bay of Plenty,North Island,-37.5528,175.9174,,Western Bay of Plenty District
3167,Te Teko,Bay of Plenty,North Island,-38.0362,176.7976,,Whakatane District
3168,Matata,Bay of Plenty,North Island,-37.8886,176.7586,,Whakatane District
3169,Kawerau,Bay of Plenty,North Island,-38.0867,176.7012,,Kawerau District
3171,Lower Kaimai,Bay of Plenty,North Island,-37.8097,176.025,,Tauranga City
3172,Omokoroa Beach,Bay of Plenty,North Island,-37.5886,176.0675,,Western Bay of Plenty District
3173,Oropi,Bay of Plenty,North Island,-37.8386,176.1706,,Western Bay of Plenty District
3175,Upper Papamoa,Bay of Plenty,North Island,-37.7412,176.2216,,Tauranga City
3176,Whakamarama,Bay of Plenty,North Island,-37.7138,176.0076,,Western Bay of Plenty District
3177,Athenree,Bay of Plenty,North Island,-37.4922,175.9169,,Western Bay of Plenty District
3178,Katikati,Bay of Plenty,North Island,-37.5826,175.8646,,Western Bay of Plenty District
3182,Te Puke,Bay of Plenty,North Island,-37.8464,176.2896,,Western Bay of Plenty District
3183,Upper Papamoa,Bay of Plenty,North Island,-37.8104,176.2666,,Western Bay of Plenty District
3186,Ohinepanea,Bay of Plenty,North Island,-37.8915,176.4704,,Western Bay of Plenty District
3187,Papamoa,Bay of Plenty,North Island,-37.74,176.3135,,Tauranga City
3188,Ngawaro,Bay of Plenty,North Island,-37.8957,176.1919,,Western Bay of Plenty District
3189,Paengaroa,Bay of Plenty,North Island,-37.8464,176.413,,Western Bay of Plenty District
3191,Otangihaku,Bay of Plenty,North Island,-38.0614,176.9708,,Whakatane District
3192,Kawerau,Bay of Plenty,North Island,-38.1218,176.7807,,Kawerau District
3193,Edgecumbe,Bay of Plenty,North Island,-37.963,176.8355,,Whakatane District
3194,Awakaponga,Bay of Plenty,North Island,-37.9481,176.7675,,Western Bay of Plenty District
3196,Waimana,Bay of Plenty,North Island,-38.2072,177.1206,,Whakatane District
3197,Toatoa,Bay of Plenty,North Island,-38.172,177.4113,,Opotiki District
3198,Waimana,Bay of Plenty,North Island,-38.1269,177.1553,,Opotiki District
3199,Omaio,Gisborne,North Island,-37.8634,177.8537,,Gisborne District
3200,Avalon Industrial,Waikato,North Island,-37.761,175.2474,,Hamilton
3200,Beerescourt,Waikato,North Island,-37.761,175.2474,,Hamilton
3200,Forest Lake,Waikato,North Island,-37.761,175.2474,,Hamilton
3200,Grandview Heights,Waikato,North Island,-37.761,175.2474,,Hamilton
3200,Maeroa,Waikato,North Island,-37.761,175.2474,,Hamilton
3200,Nawton,Waikato,North Island,-37.761,175.2474,,Hamilton
3200,Northgate Industrial,Waikato,North Island,-37.761,175.2474,,Hamilton
3200,Pukete,Waikato,North Island,-37.761,175.2474,,Hamilton
3200,Pukete Industrial,Waikato,North Island,-37.761,175.2474,,Hamilton
3200,St Andrews,Waikato,North Island,-37.761,175.2474,,Hamilton
3200,Te Rapa,Waikato,North Island,-37.761,175.2474,,Hamilton City
3200,Te Rapa Park,Waikato,North Island,-37.761,175.2474,,Hamilton
3200,Te Rapa Straight,Waikato,North Island,-37.761,175.2474,,Hamilton
3200,Western Heights,Waikato,North Island,-37.761,175.2474,,Hamilton
3200,Whitiora,Waikato,North Island,-37.761,175.2474,,Hamilton
3204,Dinsdale,Waikato,North Island,-37.7974,175.2604,,Hamilton
3204,Frankton,Waikato,North Island,-37.7974,175.2604,,Hamilton
3204,Frankton Junction,Waikato,North Island,-37.7974,175.2604,,Hamilton City
3204,Hamilton Central,Waikato,North Island,-37.7974,175.2604,,Hamilton
3204,Hamilton Lake,Waikato,North Island,-37.7974,175.2604,,Hamilton
3204,Waikato Hospital,Waikato,North Island,-37.7974,175.2604,,Hamilton
3206,Bader,Waikato,North Island,-37.8198,175.2865,,Hamilton
3206,Deanwell,Waikato,North Island,-37.8198,175.2865,,Hamilton
3206,Fitzroy,Waikato,North Island,-37.8198,175.2865,,Hamilton
3206,Glenview,Waikato,North Island,-37.8198,175.2865,,Hamilton
3206,Melville,Waikato,North Island,-37.8198,175.2865,,Hamilton City
3206,Tamahere,Waikato,North Island,-37.8198,175.2865,,Hamilton
3210,Beerescourt,Waikato,North Island,-37.7462,175.2707,,Waikato
3210,Chartwell,Waikato,North Island,-37.7462,175.2707,,Waikato
3210,Chedworth,Waikato,North Island,-37.7462,175.2707,,Waikato
3210,Claudelands,Waikato,North Island,-37.7462,175.2707,,Waikato District
3210,Flagstaff,Waikato,North Island,-37.7462,175.2707,,Waikato
3210,Harrowfield,Waikato,North Island,-37.7462,175.2707,,Waikato
3210,Huntingdon,Waikato,North Island,-37.7462,175.2707,,Waikato
3210,North Huntingdon,Waikato,North Island,-37.7462,175.2707,,Waikato
3210,Puketaha,Waikato,North Island,-37.7462,175.2707,,Waikato
3210,Queenwood,Waikato,North Island,-37.7462,175.2707,,Waikato
3210,Rototuna,Waikato,North Island,-37.7462,175.2707,,Waikato
3210,Rototuna North,Waikato,North Island,-37.7462,175.2707,,Waikato
3210,St Andrews,Waikato,North Island,-37.7462,175.2707,,Waikato
3214,Claudelands,Waikato,North Island,-37.7708,175.2985,,Hamilton
3214,Enderley,Waikato,North Island,-37.7708,175.2985,,Hamilton
3214,Fairfield,Waikato,North Island,-37.7708,175.2985,,Hamilton
3214,Fairview Downs,Waikato,North Island,-37.7708,175.2985,,Hamilton
3214,Hamilton,Waikato,North Island,-37.7708,175.2985,,Hamilton City
3214,Hillcrest,Waikato,North Island,-37.7708,175.2985,,Hamilton
3216,Hamilton East,Waikato,North Island,-37.7961,175.3088,,Hamilton City
3216,Hillcrest,Waikato,North Island,-37.7961,175.3088,,Hamilton
3216,Riverlea,Waikato,North Island,-37.7961,175.3088,,Hamilton
3216,Silverdale,Waikato,North Island,-37.7961,175.3088,,Hamilton
3216,Tamahere,Waikato,North Island,-37.7961,175.3088,,Hamilton
3218,Temple View,Waikato,North Island,-37.8198,175.2282,,Hamilton City
3225,Raglan,Waikato,North Island,-37.8109,174.8709,,Waikato District
3240,Hamilton West,Waikato,North Island,-37.7849,175.276,,Hamilton City
3241,Te Rapa,Waikato,North Island,-37.7571,175.2475,,Hamilton City
3242,Hamilton West,Waikato,North Island,-37.7881,175.2644,,Hamilton City
3243,Frankton Junction,Waikato,North Island,-37.7955,175.2458,,Hamilton City
3244,Hamilton,Waikato,North Island,-37.7852,175.2802,,Hamilton City
3245,Melville,Waikato,North Island,-37.8175,175.2824,,Hamilton City
3246,Melville,Waikato,North Island,-37.8224,175.2876,,Hamilton City
3247,Hamilton East,Waikato,North Island,-37.7914,175.2944,,Hamilton City
3248,Claudelands,Waikato,North Island,-37.7514,175.2799,,Hamilton City
3249,Te Rapa,Waikato,North Island,-37.738,175.253,,Hamilton City
3251,Hamilton East,Waikato,North Island,-37.7985,175.3157,,Hamilton City
3252,Claudelands,Waikato,North Island,-37.7723,175.2934,,Hamilton City
3253,Newstead,Waikato,North Island,-37.8017,175.3223,,Hamilton City
3254,Newstead,Waikato,North Island,-37.7899,175.3261,,Hamilton City
3255,Hamilton East,Waikato,North Island,-37.7876,175.3166,,Hamilton City
3256,Claudelands,Waikato,North Island,-37.729,175.2734,,Hamilton City
3257,Claudelands,Waikato,North Island,-37.7651,175.2534,,Hamilton City
3260,Matangi,Waikato,North Island,-37.8043,175.395,,Waikato District
3261,Whatawhata,Waikato,North Island,-37.7974,175.1535,,Waikato District
3262,Horotiu,Waikato,North Island,-37.6941,175.19,,Waikato District
3263,Te Kowhai,Waikato,North Island,-37.7432,175.1526,,Waikato District
3264,Gordonton,Waikato,North Island,-37.6696,175.3041,,Waikato District
3265,Raglan,Waikato,North Island,-37.8003,174.87,,Waikato District
3266,Te Uku,Waikato,North Island,-37.8289,174.957,,Waikato District
3281,Gordonton,Waikato,North Island,-37.6905,175.3075,,Waikato District
3282,Rukuhia,Waikato,North Island,-37.843,175.2852,,Waipa District
3283,Tamahere,Waikato,North Island,-37.8514,175.3865,,Waikato District
3284,Eureka,Waikato,North Island,-37.7576,175.3961,,Waikato District
3285,Aramiro,Waikato,North Island,-37.905,175.0829,,Waikato District
3288,Te Kowhai,Waikato,North Island,-37.7355,175.174,,Waikato District
3289,Whatawhata,Waikato,North Island,-37.7794,175.136,,Waikato District
3290,Temple View,Waikato,North Island,-37.8461,175.1942,,Hamilton City
3293,Waitetuna,Waikato,North Island,-37.8177,175.0743,,Waikato District
3295,Te Uku,Waikato,North Island,-37.8322,174.9795,,Waikato District
3296,Ruapuke,Waikato,North Island,-37.8766,174.8145,,Waikato District
3297,Raglan,Waikato,North Island,-37.8324,174.8054,,Waikato District
3300,Morrinsville,Waikato,North Island,-37.652,175.5293,,Matamata-Piako District
3310,Waitoa,Waikato,North Island,-37.6,175.6334,,Matamata-Piako District
3320,Te Aroha,Waikato,North Island,-37.5391,175.7098,,Matamata-Piako District
3330,Acacia Bay,Waikato,North Island,-38.7037,176.0588,,Taupo
3330,Nukuhau,Waikato,North Island,-38.7037,176.0588,,Taupo
3330,Taupo,Waikato,North Island,-38.7037,176.0588,,Taupo
3330,Wharewaka,Waikato,North Island,-38.7037,176.0588,,Taupo District
3332,Wairakei,Waikato,North Island,-38.6195,176.103,,Taupo District
3334,Tokaanu,Waikato,North Island,-39.0028,175.8069,,Taupo
3334,Turangi,Waikato,North Island,-39.0028,175.8069,,Taupo District
3340,Morrinsville,Waikato,North Island,-37.6577,175.5275,,Matamata-Piako District
3341,Waitoa,Waikato,North Island,-37.6015,175.6281,,Matamata-Piako District
3342,Te Aroha,Waikato,North Island,-37.5429,175.7124,,Matamata-Piako District
3343,Te Aroha,Waikato,North Island,-37.5523,175.7039,,Matamata-Piako District
3351,Taupo,Waikato,North Island,-38.6868,176.0718,,Taupo District
3352,Taupo,Waikato,North Island,-38.6828,176.0709,,Taupo District
3353,Turangi,Waikato,North Island,-38.9887,175.8087,,Taupo District
3360,Tarawera,Waikato,North Island,-39.0266,176.5734,,Taupo District
3371,Kiwitahi,Waikato,North Island,-37.7378,175.5598,,Matamata-Piako District
3372,Motumaoho,Waikato,North Island,-37.6875,175.4797,,Matamata-Piako District
3373,Tahuna,Waikato,North Island,-37.4989,175.4546,,Matamata-Piako District
3374,Te Puninga,Waikato,North Island,-37.5777,175.5857,,Matamata-Piako District
3375,Morrinsville,Waikato,North Island,-37.602,175.445,,Waikato District
3377,Oruanui,Waikato,North Island,-38.6226,176.0015,,Taupo District
3378,Waipahihi,Waikato,North Island,-38.7041,176.1355,,Taupo District
3379,Rangitaiki,Hawke's Bay,North Island,-38.887,176.3747,,Taupo District
3380,Waitoa,Waikato,North Island,-37.5909,175.6224,,Matamata-Piako District
3381,Kuratau,Waikato,North Island,-38.8184,175.7096,,Taupo District
3382,Turangi,Waikato,North Island,-39.0284,175.9471,,Taupo District
3391,Manawaru,Waikato,North Island,-37.6407,175.7962,,Matamata-Piako District
3392,Mangaiti,Waikato,North Island,-37.5085,175.6909,,Matamata-Piako District
3393,Mangaiti,Waikato,North Island,-37.4947,175.6061,,Matamata-Piako District
3400,Matamata,Waikato,North Island,-37.8152,175.7832,,Matamata-Piako District
3401,Tamihana,Waikato,North Island,-37.759,175.7491,,Matamata-Piako
3401,Waharoa,Waikato,North Island,-37.759,175.7491,,Matamata-Piako District
3410,North Putaruru,Waikato,North Island,-37.9878,175.7524,,South Waikato
3410,Okoroire,Waikato,North Island,-37.9878,175.7524,,South Waikato
3410,Piarere,Waikato,North Island,-37.9878,175.7524,,South Waikato
3410,Tirau,Waikato,North Island,-37.9878,175.7524,,South Waikato District
3411,Lichfield,Waikato,North Island,-38.0505,175.7793,,South Waikato
3411,Putaruru,Waikato,North Island,-38.0505,175.7793,,South Waikato District
3415,Arapuni,Waikato,North Island,-38.0715,175.6498,,South Waikato District
3420,Tokoroa,Waikato,North Island,-38.2229,175.8685,,South Waikato District
3421,Mangakino,Waikato,North Island,-38.3696,175.7737,,Taupo District
3432,Leamington,Waikato,North Island,-37.9096,175.4781,,Waipa District
3434,Cambridge,Waikato,North Island,-37.8866,175.469,,Waipa
3434,Leamington,Waikato,North Island,-37.8866,175.469,,Waipa District
3434,Tamahere,Waikato,North Island,-37.8866,175.469,,Waipa
3440,Matamata,Waikato,North Island,-37.8111,175.7725,,Matamata-Piako District
3441,Waharoa,Waikato,North Island,-37.7591,175.7525,,Matamata-Piako District
3442,Tirau,Waikato,North Island,-37.9782,175.7568,,South Waikato District
3443,Putaruru,Waikato,North Island,-38.0516,175.7788,,South Waikato District
3444,Tokoroa,Waikato,North Island,-38.2176,175.8717,,South Waikato District
3445,Mangakino,Waikato,North Island,-38.3704,175.774,,Taupo District
3450,Leamington,Waikato,North Island,-37.895,175.4719,,Waipa District
3451,Hautapu,Waikato,North Island,-37.8605,175.4531,,Waipa District
3471,Okauia,Waikato,North Island,-37.7686,175.8421,,Matamata-Piako District
3472,Hinuera,Waikato,North Island,-37.8526,175.6993,,Matamata-Piako District
3473,Kaimai,Waikato,North Island,-37.8507,175.8962,,Matamata-Piako District
3474,Waharoa,Waikato,North Island,-37.7272,175.7514,,Matamata-Piako District
3475,Walton,Waikato,North Island,-37.7656,175.6598,,Matamata-Piako District
3481,Te Waotu,Waikato,North Island,-38.1162,175.6938,,South Waikato District
3482,Ngatira,Waikato,North Island,-38.1275,175.8195,,South Waikato District
3483,Putaruru,Waikato,North Island,-38.0474,175.8289,,South Waikato District
3484,Tirau,Waikato,North Island,-37.9592,175.7208,,Matamata-Piako District
3485,Okoroire,Waikato,North Island,-37.9758,175.8676,,Matamata-Piako District
3491,Kinleith,Waikato,North Island,-38.2644,175.9126,,South Waikato District
3492,Mangakino,Waikato,North Island,-38.5067,175.696,,Otorohanga District
3493,Bruntwood,Waikato,North Island,-37.8344,175.4448,,Waikato District
3494,Pukeatua,Waikato,North Island,-37.9944,175.5804,,Waipa District
3495,Leamington,Waikato,North Island,-37.9615,175.4494,,Waipa District
3496,Whitehall,Waikato,North Island,-37.8541,175.5666,,Matamata-Piako District
3500,Thames,Waikato,North Island,-37.1355,175.5456,,Thames-Coromandel District
3503,Ngatea,Waikato,North Island,-37.2735,175.4893,,Hauraki District
3503,Turua,Waikato,North Island,-37.2735,175.4893,,Hauraki
3506,Coromandel,Waikato,North Island,-36.6993,175.6601,,Thames-Coromandel
3506,Preece Point,Waikato,North Island,-36.6993,175.6601,,Thames-Coromandel
3506,Te Rerenga,Waikato,North Island,-36.6993,175.6601,,Thames-Coromandel
3506,Whangapoua,Waikato,North Island,-36.6993,175.6601,,Thames-Coromandel District
3508,Tairua,Waikato,North Island,-36.9977,175.848,,Thames-Coromandel District
3510,Whitianga,Waikato,North Island,-36.817,175.6913,,Thames-Coromandel District
3540,Thames,Waikato,North Island,-37.139,175.542,,Thames-Coromandel District
3541,Ngatea,Waikato,North Island,-37.2763,175.4971,,Hauraki District
3542,Whitianga,Waikato,North Island,-36.8358,175.7045,,Thames-Coromandel District
3543,Coromandel,Waikato,North Island,-36.7586,175.4984,,Thames-Coromandel District
3544,Tairua,Waikato,North Island,-37.002,175.8482,,Thames-Coromandel District
3545,Turua,Waikato,North Island,-37.2378,175.5664,,Hauraki District
3546,Pauanui,Waikato,North Island,-37.0206,175.8587,,Thames-Coromandel District
3547,Colville,Waikato,North Island,-36.6344,175.4767,,Thames-Coromandel District
3574,Turua,Waikato,North Island,-37.2269,175.5535,,Hauraki District
3575,Tapu,Waikato,North Island,-36.9856,175.4922,,Thames-Coromandel District
3576,Waitakaruru,Waikato,North Island,-37.2732,175.3863,,Hauraki District
3577,Parawai,Waikato,North Island,-37.131,175.6008,,Thames-Coromandel District
3578,Nevesville,Waikato,North Island,-37.1958,175.6659,,Thames-Coromandel District
3579,Hikuai,Waikato,North Island,-37.0865,175.8125,,Thames-Coromandel District
3581,Ahimia,Waikato,North Island,-36.8134,175.4844,,Thames-Coromandel District
3582,Te Rerenga,Waikato,North Island,-36.7533,175.6141,,Thames-Coromandel District
3583,Kennedys Bay,Waikato,North Island,-36.6805,175.5537,,Thames-Coromandel District
3584,Colville,Waikato,North Island,-36.6061,175.4532,,Area Outside Territorial Authority
3591,Coroglen,Waikato,North Island,-36.8959,175.7144,,Thames-Coromandel District
3592,Coroglen,Waikato,North Island,-36.9317,175.6572,,Thames-Coromandel District
3597,Ngatea,Waikato,North Island,-37.2926,175.4673,,Hauraki District
3600,Karangahake,Waikato,North Island,-37.3735,175.6712,,Hauraki
3600,Paeroa,Waikato,North Island,-37.3735,175.6712,,Hauraki District
3610,Waihi,Waikato,North Island,-37.3865,175.8446,,Hauraki District
3611,Athenree,Bay of Plenty,North Island,-37.4039,175.9432,,Western Bay of Plenty
3611,Waihi Beach,Bay of Plenty,North Island,-37.4039,175.9432,,Western Bay of Plenty District
3620,Whangamata,Waikato,North Island,-37.1974,175.869,,Thames-Coromandel District
3640,Paeroa,Waikato,North Island,-37.381,175.671,,Hauraki District
3641,Waihi,Waikato,North Island,-37.3923,175.8413,,Hauraki District
3642,Waihi Beach,Bay of Plenty,North Island,-37.4117,175.9424,,Western Bay of Plenty District
3643,Whangamata,Waikato,North Island,-37.2071,175.8715,,Thames-Coromandel District
3671,Netherton,Waikato,North Island,-37.3374,175.585,,Hauraki District
3672,Netherton,Waikato,North Island,-37.3715,175.6157,,Hauraki District
3673,Tirohia,Waikato,North Island,-37.4191,175.6648,,Matamata-Piako District
3674,Komata,Waikato,North Island,-37.3376,175.7408,,Hauraki District
3681,Waihi,Waikato,North Island,-37.3714,175.8798,,Hauraki District
3682,Waihi,Waikato,North Island,-37.4057,175.8178,,Hauraki District
3691,Whangamata,Waikato,North Island,-37.1833,175.8231,,Hauraki District
3700,Huntly,Waikato,North Island,-37.5596,175.1583,,Waikato
3700,Starrtown,Waikato,North Island,-37.5596,175.1583,,Waikato District
3710,Te Kauwhata,Waikato,North Island,-37.4039,175.1466,,Waikato District
3720,Ngaruawahia,Waikato,North Island,-37.6691,175.1522,,Waikato District
3721,Taupiri,Waikato,North Island,-37.6191,175.1894,,Waikato District
3740,Starrtown,Waikato,North Island,-37.558,175.1589,,Waikato District
3741,Te Kauwhata,Waikato,North Island,-37.4039,175.144,,Waikato District
3742,Ngaruawahia,Waikato,North Island,-37.6659,175.1482,,Waikato District
3771,Pukekapia,Waikato,North Island,-37.5358,175.1096,,Waikato District
3772,Ruawaro,Waikato,North Island,-37.5172,175.0108,,Waikato District
3781,Waerenga,Waikato,North Island,-37.3573,175.2623,,Waikato District
3782,Whangamarino,Waikato,North Island,-37.3589,175.1326,,Waikato District
3784,Waiterimu,Waikato,North Island,-37.4617,175.2925,,Matamata-Piako District
3791,Komakorau,Waikato,North Island,-37.6355,175.2398,,Waikato District
3792,Orini,Waikato,North Island,-37.5777,175.2696,,Waikato District
3793,Waingaro,Waikato,North Island,-37.7088,174.9803,,Waikato District
3794,Pepepe,Waikato,North Island,-37.6266,174.9202,,Waikato District
3800,Kihikihi,Waikato,North Island,-38.0195,175.3305,,Waipa
3800,Te Awamutu,Waikato,North Island,-38.0195,175.3305,,Waipa District
3802,Pirongia,Waikato,North Island,-37.9914,175.2051,,Waipa District
3803,Ohaupo,Waikato,North Island,-37.9178,175.3066,,Waipa District
3840,Te Awamutu,Waikato,North Island,-38.0104,175.3237,,Waipa District
3841,Kihikihi,Waikato,North Island,-38.0377,175.3454,,Waipa District
3843,Kawhia,Waikato,North Island,-38.0639,174.8229,,Otorohanga District
3872,Wharepuhunga,Waikato,North Island,-38.0733,175.4515,,Waipa District
3873,Te Kawa,Waikato,North Island,-38.138,175.3534,,Waipa District
3874,Matapara,Waikato,North Island,-38.2716,175.5108,,Otorohanga District
3875,Te Mawhai,Waikato,North Island,-38.0405,175.29,,Waipa District
3876,Pirongia,Waikato,North Island,-38.0036,175.1763,,Waipa District
3877,Matapara,Waikato,North Island,-38.1874,175.538,,Waipa District
3878,Hauturu,Waikato,North Island,-38.0811,174.9754,,Otorohanga District
3879,Kihikihi,Waikato,North Island,-38.0134,175.4174,,Waipa District
3880,Pukeatua,Waikato,North Island,-38.1016,175.5796,,Waipa District
3881,Ohaupo,Waikato,North Island,-37.9081,175.3486,,Waipa District
3882,Rukuhia,Waikato,North Island,-37.8832,175.2463,,Waipa District
3883,Ngaroto,Waikato,North Island,-37.9539,175.2812,,Waipa District
3885,Oparau,Waikato,North Island,-38.0142,174.9774,,Otorohanga District
3886,Owhiro,Waikato,North Island,-38.153,174.9098,,Otorohanga District
3889,Kawhia,Waikato,North Island,-38.0416,174.8314,,Otorohanga District
3894,Te Papatapu,Waikato,North Island,-37.9576,174.8386,,Waikato District
3895,Moerangi,Waikato,North Island,-37.9508,174.9124,,Waikato District
3900,Otorohanga,Waikato,North Island,-38.1807,175.223,,Otorohanga District
3910,Te Kuiti,Waikato,North Island,-38.3353,175.1654,,Waitomo District
3912,Piopio,Waikato,North Island,-38.4671,175.0126,,Waitomo District
3920,Taumarunui,Manawatu-Wanganui,North Island,-38.8765,175.2729,,Ruapehu District
3924,Manunui,Manawatu-Wanganui,North Island,-38.8965,175.3202,,Ruapehu District
3926,Ohura,Manawatu-Wanganui,North Island,-38.8467,174.9669,,Ruapehu District
3940,Otorohanga,Waikato,North Island,-38.1864,175.2115,,Otorohanga District
3941,Te Kuiti,Waikato,North Island,-38.3344,175.1656,,Waitomo District
3942,Piopio,Waikato,North Island,-38.4665,175.016,,Waitomo District
3943,Hangatiki,Waikato,North Island,-38.2521,175.1787,,Waitomo District
3944,Benneydale,Waikato,North Island,-38.5204,175.3638,,Waitomo District
3945,Mahoenui,Waikato,North Island,-38.5784,174.8403,,Waitomo District
3946,Taumarunui,Manawatu-Wanganui,North Island,-38.8844,175.2639,,Ruapehu District
3947,Ohura,Manawatu-Wanganui,North Island,-38.8418,174.9827,,Ruapehu District
3948,National Park,Manawatu-Wanganui,North Island,-39.177,175.4022,,Ruapehu District
3949,Tongariro,Manawatu-Wanganui,North Island,-39.046,175.6038,,Ruapehu District
3970,Wairere Falls,Waikato,North Island,-38.5064,174.971,,Waitomo District
3971,Waitanguru,Waikato,North Island,-38.402,174.9066,,Waitomo District
3972,Maihiihi,Waikato,North Island,-38.2227,175.3551,,Otorohanga District
3973,Honikiwi,Waikato,North Island,-38.1305,175.1012,,Otorohanga District
3974,Te Kawa,Waikato,North Island,-38.1444,175.2717,,Otorohanga District
3975,Maihiihi,Waikato,North Island,-38.2977,175.3482,,Otorohanga District
3976,Hangatiki,Waikato,North Island,-38.2536,175.2194,,Otorohanga District
3977,Hangatiki,Waikato,North Island,-38.2342,175.1494,,Waitomo District
3978,Mahoenui,Waikato,North Island,-38.5532,174.8526,,Waitomo District
3979,Waitewhenua,Manawatu-Wanganui,North Island,-38.6529,174.9724,,Ruapehu District
3980,Tatu,Manawatu-Wanganui,North Island,-38.8981,174.9306,,Stratford District
3981,Arapae,Waikato,North Island,-38.4221,175.1026,,Waitomo District
3982,Puketutu,Waikato,North Island,-38.3574,175.2779,,Waitomo District
3983,Kopaki,Waikato,North Island,-38.4905,175.2096,,Waitomo District
3985,Waitanguru,Waikato,North Island,-38.4444,174.901,,Waitomo District
3986,Te Kuiti,Waikato,North Island,-38.2923,175.1961,,Otorohanga District
3987,Benneydale,Waikato,North Island,-38.4993,175.512,,Waitomo District
3988,Owhiro,Waikato,North Island,-38.2017,174.8979,,Waitomo District
3989,Oio,Manawatu-Wanganui,North Island,-39.0775,175.4805,,Ruapehu District
3990,Upper Ruatiti,Manawatu-Wanganui,North Island,-39.1517,175.2283,,Ruapehu District
3991,Aukopae,Manawatu-Wanganui,North Island,-38.9138,175.1103,,Ruapehu District
3992,Hikumutu,Manawatu-Wanganui,North Island,-38.9432,175.2684,,Ruapehu District
3993,Kirikau,Manawatu-Wanganui,North Island,-39.0204,175.1751,,Ruapehu District
3994,Ngapuke,Manawatu-Wanganui,North Island,-38.8637,175.4107,,Ruapehu District
3995,Matiere,Manawatu-Wanganui,North Island,-38.7469,175.0987,,Ruapehu District
3996,Okahukura,Manawatu-Wanganui,North Island,-38.8026,175.2329,,Ruapehu District
3997,Ongarue,Manawatu-Wanganui,North Island,-38.7362,175.3731,,Ruapehu District
3998,Waimiha,Manawatu-Wanganui,North Island,-38.6202,175.3978,,Ruapehu District
4010,Awapuni,Gisborne,North Island,-38.6673,178.0286,,Gisborne
4010,Elgin,Gisborne,North Island,-38.6673,178.0286,,Gisborne
4010,Gisborne,Gisborne,North Island,-38.6673,178.0286,,Gisborne
4010,Inner Kati,Gisborne,North Island,-38.6673,178.0286,,Gisborne
4010,Kaiti,Gisborne,North Island,-38.6673,178.0286,,Gisborne District
4010,Makaraka,Gisborne,North Island,-38.6673,178.0286,,Gisborne
4010,Mangapapa,Gisborne,North Island,-38.6673,178.0286,,Gisborne
4010,Matokitoki,Gisborne,North Island,-38.6673,178.0286,,Gisborne
4010,Okitu,Gisborne,North Island,-38.6673,178.0286,,Gisborne
4010,Outer Kaiti,Gisborne,North Island,-38.6673,178.0286,,Gisborne
4010,Riverdale,Gisborne,North Island,-38.6673,178.0286,,Gisborne
4010,Tamarau,Gisborne,North Island,-38.6673,178.0286,,Gisborne
4010,Te Hapara,Gisborne,North Island,-38.6673,178.0286,,Gisborne
4010,Wainui,Gisborne,North Island,-38.6673,178.0286,,Gisborne
4010,Whataupoko,Gisborne,North Island,-38.6673,178.0286,,Gisborne
4022,Te Karaka,Gisborne,North Island,-38.4678,177.866,,Gisborne District
4032,Ruatoria,Gisborne,North Island,-37.8926,178.32,,Gisborne District
4040,Kaiti,Gisborne,North Island,-38.6641,178.025,,Gisborne District
4041,Tamarau,Gisborne,North Island,-38.6751,178.0449,,Gisborne District
4042,Te Karaka,Gisborne,North Island,-38.4695,177.8638,,Gisborne District
4043,Ruatoria,Gisborne,North Island,-37.8902,178.3191,,Gisborne District
4044,Tiniroto,Gisborne,North Island,-38.7742,177.5665,,Gisborne District
4045,Patutahi,Gisborne,North Island,-38.624,177.8904,,Gisborne District
4046,Tolaga Bay,Gisborne,North Island,-38.3727,178.2971,,Gisborne District
4047,Tokomaru,Gisborne,North Island,-38.1303,178.315,,Gisborne District
4048,Te Puia,Gisborne,North Island,-38.0558,178.3065,,Gisborne District
4049,Rangitukia,Gisborne,North Island,-37.7963,178.4107,,Gisborne District
4050,Te Araroa,Gisborne,North Island,-37.6336,178.3694,,Gisborne District
4051,Matawai,Gisborne,North Island,-38.3576,177.5345,,Gisborne District
4052,Motu,Gisborne,North Island,-38.2569,177.548,,Gisborne District
4071,Waerengaahika,Gisborne,North Island,-38.576,177.9556,,Gisborne District
4072,Pehiri,Gisborne,North Island,-38.66,177.623,,Gisborne District
4073,Whangara,Gisborne,North Island,-38.5389,178.1478,,Gisborne District
4075,Rakauroa,Gisborne,North Island,-38.426,177.4494,,Gisborne District
4077,Tolaga Bay,Gisborne,North Island,-38.2809,178.1521,,Gisborne District
4078,Tiniroto,Gisborne,North Island,-38.8266,177.6647,,Gisborne District
4079,Tokomaru,Gisborne,North Island,-38.1207,178.1236,,Gisborne District
4081,Waitakaro,Gisborne,North Island,-37.9512,178.2583,,Gisborne District
4082,Ruatoria,Gisborne,North Island,-37.863,178.3902,,Gisborne District
4083,Pakihiroa,Gisborne,North Island,-37.8432,178.165,,Gisborne District
4086,Whakaangiangi,Gisborne,North Island,-37.7749,178.355,,Gisborne District
4087,Te Araroa,Gisborne,North Island,-37.6653,178.3229,,Gisborne District
4091,Ahititi,Gisborne,North Island,-38.365,177.9638,,Gisborne District
4092,Otoko,Gisborne,North Island,-38.3389,177.6316,,Gisborne District
4093,Te Karaka,Gisborne,North Island,-38.4817,177.8868,,Gisborne District
4094,Whatatutu,Gisborne,North Island,-38.3066,177.8006,,Gisborne District
4102,Clive,Hawke's Bay,North Island,-39.613,176.9451,,Hastings
4102,Haumoana,Hawke's Bay,North Island,-39.613,176.9451,,Hastings District
4102,Te Awanga,Hawke's Bay,North Island,-39.613,176.9451,,Hastings
4104,Bay View,Hawke's Bay,North Island,-39.4185,176.8765,,Napier
4104,Petane,Hawke's Bay,North Island,-39.4185,176.8765,,Napier City
4108,Frasertown,Hawke's Bay,North Island,-39.0278,177.4054,,Wairoa
4108,North Clyde,Hawke's Bay,North Island,-39.0278,177.4054,,Wairoa District
4108,Wairoa,Hawke's Bay,North Island,-39.0278,177.4054,,Wairoa
4110,Ahuriri,Hawke's Bay,North Island,-39.498,176.8799,,Napier
4110,Awatoto,Hawke's Bay,North Island,-39.498,176.8799,,Napier
4110,Bay View,Hawke's Bay,North Island,-39.498,176.8799,,Napier
4110,Bluff Hill,Hawke's Bay,North Island,-39.498,176.8799,,Napier
4110,Hospital Hill,Hawke's Bay,North Island,-39.498,176.8799,,Napier
4110,Maraenui,Hawke's Bay,North Island,-39.498,176.8799,,Napier
4110,Marewa,Hawke's Bay,North Island,-39.498,176.8799,,Napier
4110,Meeanee,Hawke's Bay,North Island,-39.498,176.8799,,Napier
4110,Napier South,Hawke's Bay,North Island,-39.498,176.8799,,Napier
4110,Onekawa,Hawke's Bay,North Island,-39.498,176.8799,,Napier City
4110,Onekawa Industrial,Hawke's Bay,North Island,-39.498,176.8799,,Napier
4110,Pandora,Hawke's Bay,North Island,-39.498,176.8799,,Napier
4110,Te Awa,Hawke's Bay,North Island,-39.498,176.8799,,Napier
4110,Westshore,Hawke's Bay,North Island,-39.498,176.8799,,Napier
4112,Greenmeadows,Hawke's Bay,North Island,-39.5268,176.8511,,Napier
4112,Jervoistown,Hawke's Bay,North Island,-39.5268,176.8511,,Napier
4112,Meeanee,Hawke's Bay,North Island,-39.5268,176.8511,,Napier
4112,Pirimai,Hawke's Bay,North Island,-39.5268,176.8511,,Napier
4112,Poraiti,Hawke's Bay,North Island,-39.5268,176.8511,,Napier
4112,Puk-kura,Hawke's Bay,North Island,-39.5268,176.8511,,Napier City
4112,Tamatea,Hawke's Bay,North Island,-39.5268,176.8511,,Napier
4112,Taradale,Hawke's Bay,North Island,-39.5268,176.8511,,Napier
4112,Waiohiki,Hawke's Bay,North Island,-39.5268,176.8511,,Napier
4120,Bridge Pa,Hawke's Bay,North Island,-39.6279,176.8137,,Hastings
4120,Camberley,Hawke's Bay,North Island,-39.6279,176.8137,,Hastings
4120,Flaxmere,Hawke's Bay,North Island,-39.6279,176.8137,,Hastings
4120,Frimley,Hawke's Bay,North Island,-39.6279,176.8137,,Hastings
4120,HASTINGS,Hawke's Bay,North Island,-39.6279,176.8137,,Hastings District
4120,Longlands,Hawke's Bay,North Island,-39.6279,176.8137,,Hastings
4120,Mahora,Hawke's Bay,North Island,-39.6279,176.8137,,Hastings
4120,Raureka,Hawke's Bay,North Island,-39.6279,176.8137,,Hastings
4120,St Leonards,Hawke's Bay,North Island,-39.6279,176.8137,,Hastings
4120,Tomoana,Hawke's Bay,North Island,-39.6279,176.8137,,Hastings
4120,Woolwich,Hawke's Bay,North Island,-39.6279,176.8137,,Hastings
4122,Akina,Hawke's Bay,North Island,-39.6462,176.8502,,Hastings District
4122,Hastings Central,Hawke's Bay,North Island,-39.6462,176.8502,,Hastings
4122,Longlands,Hawke's Bay,North Island,-39.6462,176.8502,,Hastings
4122,Mayfair,Hawke's Bay,North Island,-39.6462,176.8502,,Hastings
4122,Parkvale,Hawke's Bay,North Island,-39.6462,176.8502,,Hastings
4122,Waipatu,Hawke's Bay,North Island,-39.6462,176.8502,,Hastings
4130,Havelock North,Hawke's Bay,North Island,-39.6806,176.8867,,Hastings District
4140,Onekawa,Hawke's Bay,North Island,-39.4909,176.9182,,Napier City
4141,Taradale,Hawke's Bay,North Island,-39.5357,176.8487,,Napier City
4142,Pirimai,Hawke's Bay,North Island,-39.5073,176.8821,,Napier City
4143,Napier South,Hawke's Bay,North Island,-39.5002,176.9031,,Napier City
4144,Ahuriri,Hawke's Bay,North Island,-39.4809,176.8981,,Napier City
4145,Greenmeadows,Hawke's Bay,North Island,-39.5264,176.8614,,Napier City
4146,Pirimai,Hawke's Bay,North Island,-39.5081,176.8868,,Napier City
4147,Tamatea,Hawke's Bay,North Island,-39.5106,176.8696,,Napier City
4148,Clive,Hawke's Bay,North Island,-39.5839,176.9148,,Hastings District
4149,Petane,Hawke's Bay,North Island,-39.419,176.8665,,Napier City
4153,Saint Leonards,Hawke's Bay,North Island,-39.6312,176.8314,,Hastings District
4154,Flaxmere,Hawke's Bay,North Island,-39.6254,176.7866,,Hastings District
4155,Parkvale,Hawke's Bay,North Island,-39.6284,176.8498,,Hastings District
4156,Parkvale,Hawke's Bay,North Island,-39.6408,176.8425,,Hastings District
4157,Havelock North,Hawke's Bay,North Island,-39.6694,176.8783,,Hastings District
4158,Parkvale,Hawke's Bay,North Island,-39.6396,176.8466,,Hastings District
4159,Mayfair,Hawke's Bay,North Island,-39.6378,176.8527,,Hastings District
4160,Wairoa,Hawke's Bay,North Island,-39.0333,177.419,,Wairoa District
4161,Pahowai,Hawke's Bay,North Island,-39.6038,176.8928,,Hastings District
4162,Tutira,Hawke's Bay,North Island,-39.204,176.8815,,Hastings District
4163,Frasertown,Hawke's Bay,North Island,-38.9666,177.4102,,Wairoa District
4164,Tuai,Hawke's Bay,North Island,-38.8194,177.1439,,Wairoa District
4165,Nuhaka,Hawke's Bay,North Island,-39.0425,177.7403,,Wairoa District
4166,Mahia,Hawke's Bay,North Island,-39.0869,177.9185,,Wairoa District
4171,Blackburn,Hawke's Bay,North Island,-39.8865,176.292,,Hastings District
4172,Te Awanga,Hawke's Bay,North Island,-39.6588,176.9405,,Hastings District
4174,Te Hauke,Hawke's Bay,North Island,-39.7357,176.6463,,Hastings District
4175,Flaxmere,Hawke's Bay,North Island,-39.6232,176.7618,,Hastings District
4178,Poukawa,Hawke's Bay,North Island,-39.772,176.7544,,Central Hawke's Bay District
4179,Puketitiri,Hawke's Bay,North Island,-39.3382,176.3562,,Hastings District
4181,Tutira,Hawke's Bay,North Island,-39.2293,176.9144,,Hastings District
4182,Te Pohue,Hawke's Bay,North Island,-39.1869,176.6716,,Hastings District
4183,Taradale,Hawke's Bay,North Island,-39.5439,176.8176,,Napier City
4184,Puketitiri,Hawke's Bay,North Island,-39.3052,176.5916,,Hastings District
4186,Patoka,Hawke's Bay,North Island,-39.3916,176.631,,Hastings District
4188,Kotemaori,Hawke's Bay,North Island,-39.0869,177.0019,,Hastings District
4189,Kotemaori,Hawke's Bay,North Island,-38.9813,176.9956,,Wairoa District
4191,Raupunga,Hawke's Bay,North Island,-38.9822,177.2238,,Wairoa District
4193,Wairoa,Hawke's Bay,North Island,-39.0076,177.343,,Wairoa District
4195,Tuai,Hawke's Bay,North Island,-38.7742,177.2002,,Wairoa District
4196,Opoiti,Hawke's Bay,North Island,-38.9559,177.5408,,Wairoa District
4197,Raupunga,Hawke's Bay,North Island,-39.063,177.2422,,Wairoa District
4198,Waitaniwha,Hawke's Bay,North Island,-39.0721,177.8021,,Wairoa District
4200,Waipukurau,Hawke's Bay,North Island,-39.9973,176.5591,,Central Hawke's Bay District
4202,Otane,Hawke's Bay,North Island,-39.898,176.6275,,Central Hawke's Bay District
4203,Clinton,Hawke's Bay,North Island,-40.0222,176.3499,,Central Hawke's Bay
4203,Takapau,Hawke's Bay,North Island,-40.0222,176.3499,,Central Hawke's Bay District
4210,Waipawa,Hawke's Bay,North Island,-39.9289,176.5855,,Central Hawke's Bay District
4240,Waipawa,Hawke's Bay,North Island,-39.9442,176.5868,,Central Hawke's Bay District
4241,Otane,Hawke's Bay,North Island,-39.8966,176.6287,,Central Hawke's Bay District
4242,Waipukurau,Hawke's Bay,North Island,-39.9954,176.5563,,Central Hawke's Bay District
4243,Takapau,Hawke's Bay,North Island,-40.0282,176.3484,,Central Hawke's Bay District
4244,Onga Onga,Hawke's Bay,North Island,-39.913,176.4185,,Central Hawke's Bay District
4245,Porangahau,Hawke's Bay,North Island,-40.3024,176.6101,,Central Hawke's Bay District
4271,Patangata,Hawke's Bay,North Island,-40.0457,176.7528,,Central Hawke's Bay District
4272,Ruataniwha,Hawke's Bay,North Island,-39.9184,176.5078,,Central Hawke's Bay District
4273,Argyll East,Hawke's Bay,North Island,-39.8672,176.5055,,Central Hawke's Bay District
4274,Tikokino,Hawke's Bay,North Island,-39.7684,176.3925,,Central Hawke's Bay District
4275,Waipawa,Hawke's Bay,North Island,-39.9644,176.5872,,Central Hawke's Bay District
4276,Pukehou,Hawke's Bay,North Island,-39.8517,176.5974,,Hastings District
4277,Patangata,Hawke's Bay,North Island,-39.8817,176.7075,,Central Hawke's Bay District
4278,Blackburn,Hawke's Bay,North Island,-39.8701,176.3054,,Central Hawke's Bay District
4279,Blackburn,Hawke's Bay,North Island,-39.8275,176.332,,Central Hawke's Bay District
4281,Maharakeke,Hawke's Bay,North Island,-40.0431,176.4391,,Central Hawke's Bay District
4282,Wanstead,Hawke's Bay,North Island,-40.1206,176.4449,,Central Hawke's Bay District
4283,Ruataniwha,Hawke's Bay,North Island,-39.9519,176.4761,,Central Hawke's Bay District
4284,Wallingford,Hawke's Bay,North Island,-40.1509,176.6552,,Central Hawke's Bay District
4285,Waipukurau,Hawke's Bay,North Island,-40.007,176.623,,Central Hawke's Bay District
4286,Ashley Clinton,Hawke's Bay,North Island,-39.9488,176.2699,,Central Hawke's Bay District
4287,Norsewood,Hawke's Bay,North Island,-40.0526,176.2563,,Central Hawke's Bay District
4288,Maharakeke,Hawke's Bay,North Island,-39.9737,176.402,,Central Hawke's Bay District
4291,Porangahau,Hawke's Bay,North Island,-40.3086,176.5164,,Central Hawke's Bay District
4292,Porangahau,Hawke's Bay,North Island,-40.3623,176.5533,,Central Hawke's Bay District
4293,Porangahau,Hawke's Bay,North Island,-40.3501,176.6208,,Central Hawke's Bay District
4294,Waimarama,Hawke's Bay,North Island,-39.7714,176.9602,,Hastings District
4295,Elsthorpe,Hawke's Bay,North Island,-39.8729,176.8721,,Central Hawke's Bay District
4310,Blagdon,Taranaki,North Island,-39.0724,174.0554,,New Plymouth
4310,Brooklands,Taranaki,North Island,-39.0724,174.0554,,New Plymouth
4310,Ferndale,Taranaki,North Island,-39.0724,174.0554,,New Plymouth
4310,Frankleigh Park,Taranaki,North Island,-39.0724,174.0554,,New Plymouth
4310,Hurdon,Taranaki,North Island,-39.0724,174.0554,,New Plymouth
4310,Lower Vogeltown,Taranaki,North Island,-39.0724,174.0554,,New Plymouth
4310,Lynmouth,Taranaki,North Island,-39.0724,174.0554,,New Plymouth
4310,Marfell,Taranaki,North Island,-39.0724,174.0554,,New Plymouth
4310,Moturoa,Taranaki,North Island,-39.0724,174.0554,,New Plymouth
4310,New Plymouth Central,Taranaki,North Island,-39.0724,174.0554,,New Plymouth
4310,Port Taranaki,Taranaki,North Island,-39.0724,174.0554,,New Plymouth
4310,Spotswood,Taranaki,North Island,-39.0724,174.0554,,New Plymouth
4310,Upper Vogeltown,Taranaki,North Island,-39.0724,174.0554,,New Plymouth
4310,Vogeltown,Taranaki,North Island,-39.0724,174.0554,,New Plymouth
4310,Welbourn,Taranaki,North Island,-39.0724,174.0554,,New Plymouth
4310,Westown,Taranaki,North Island,-39.0724,174.0554,,New Plymouth District
4310,Whalers Gate,Taranaki,North Island,-39.0724,174.0554,,New Plymouth
4312,Bell Block,Taranaki,North Island,-39.052,174.1192,,New Plymouth
4312,Fitzroy,Taranaki,North Island,-39.052,174.1192,,New Plymouth District
4312,Glen Avon,Taranaki,North Island,-39.052,174.1192,,New Plymouth
4312,Highlands Park,Taranaki,North Island,-39.052,174.1192,,New Plymouth
4312,Merrilands,Taranaki,North Island,-39.052,174.1192,,New Plymouth
4312,New Plymouth Central,Taranaki,North Island,-39.052,174.1192,,New Plymouth
4312,Strandon,Taranaki,North Island,-39.052,174.1192,,New Plymouth
4312,Waiwhakaiho,Taranaki,North Island,-39.052,174.1192,,New Plymouth
4312,Welbourn,Taranaki,North Island,-39.052,174.1192,,New Plymouth
4314,Oakura,Taranaki,North Island,-39.115,173.9504,,New Plymouth District
4320,Waitara,Taranaki,North Island,-38.9976,174.2367,,New Plymouth District
4322,Eltham,Taranaki,North Island,-39.429,174.2996,,South Taranaki District
4330,Inglewood,Taranaki,North Island,-39.157,174.2029,,New Plymouth District
4332,Stratford,Taranaki,North Island,-39.3378,174.2802,,Stratford District
4335,Okato,Taranaki,North Island,-39.1936,173.8777,,New Plymouth District
4340,Brooklands,Taranaki,North Island,-39.0586,174.0682,,New Plymouth District
4341,Fitzroy,Taranaki,North Island,-39.05,174.1017,,New Plymouth District
4342,New Plymouth,Taranaki,North Island,-39.0572,174.0741,,New Plymouth District
4343,Frankleigh Park,Taranaki,North Island,-39.0708,174.0628,,New Plymouth District
4344,Moturoa,Taranaki,North Island,-39.0628,174.0452,,New Plymouth District
4345,Oakura,Taranaki,North Island,-39.1156,173.9574,,New Plymouth District
4346,Waitara,Taranaki,North Island,-39.0021,174.2361,,New Plymouth District
4347,Inglewood,Taranaki,North Island,-39.1568,174.2072,,New Plymouth District
4348,Okato,Taranaki,North Island,-39.191,173.8794,,New Plymouth District
4349,Urenui,Taranaki,North Island,-38.9979,174.3907,,New Plymouth District
4350,Mokau,Waikato,North Island,-38.6991,174.621,,Waitomo District
4351,Bell Block,Taranaki,North Island,-39.0355,174.1432,,New Plymouth District
4352,Stratford,Taranaki,North Island,-39.3393,174.283,,Stratford District
4353,Eltham,Taranaki,North Island,-39.4298,174.2994,,South Taranaki District
4360,Merrilands,Taranaki,North Island,-39.0666,174.1028,,New Plymouth District
4371,Mangorei,Taranaki,North Island,-39.1487,174.0832,,New Plymouth District
4372,Hillsborough,Taranaki,North Island,-39.0917,174.1506,,New Plymouth District
4373,Lepperton,Taranaki,North Island,-39.0487,174.2197,,New Plymouth District
4374,Oakura,Taranaki,North Island,-39.1464,173.9507,,New Plymouth District
4375,Okoki,Taranaki,North Island,-39.0529,174.5077,,New Plymouth District
4376,Awakino,Waikato,North Island,-38.6827,174.7513,,Waitomo District
4377,Uruti,Taranaki,North Island,-38.9421,174.4819,,New Plymouth District
4378,Okau,Taranaki,North Island,-38.9105,174.6847,,New Plymouth District
4379,Uruti,Taranaki,North Island,-38.9415,174.5497,,New Plymouth District
4381,Okato,Taranaki,North Island,-39.2227,173.8774,,New Plymouth District
4382,Sentry Hill,Taranaki,North Island,-39.0139,174.2171,,New Plymouth District
4383,Tikorangi,Taranaki,North Island,-39.0507,174.3067,,New Plymouth District
4386,Kaimiro,Taranaki,North Island,-39.2077,174.1435,,New Plymouth District
4387,Tarata,Taranaki,North Island,-39.155,174.3796,,Stratford District
4388,Te Tawa,Taranaki,North Island,-39.179,174.2446,,New Plymouth District
4389,Waiongona,Taranaki,North Island,-39.1194,174.2335,,New Plymouth District
4390,Ratapiko,Taranaki,North Island,-39.207,174.3078,,Stratford District
4391,Dawson Falls,Taranaki,North Island,-39.3216,174.1399,,South Taranaki District
4392,Puniwhakau,Manawatu-Wanganui,North Island,-39.3023,174.7213,,Stratford District
4393,Huinga,Taranaki,North Island,-39.3746,174.3671,,Stratford District
4394,Tuna,Taranaki,North Island,-39.2797,174.2974,,New Plymouth District
4395,Matau,Taranaki,North Island,-39.1747,174.6005,,Stratford District
4396,Tahora,Manawatu-Wanganui,North Island,-39.0278,174.7836,,Stratford District
4397,Tahora,Taranaki,North Island,-38.973,174.7784,,Stratford District
4398,Eltham,Taranaki,North Island,-39.4578,174.3421,,South Taranaki District
4399,Moeroa,Taranaki,North Island,-39.4309,174.6351,,South Taranaki District
4410,Fitzherbert,Manawatu-Wanganui,North Island,-40.3691,175.6288,,Palmerston North
4410,Hokowhitu,Manawatu-Wanganui,North Island,-40.3691,175.6288,,Palmerston North
4410,Palmerston North,Manawatu-Wanganui,North Island,-40.3691,175.6288,,Palmerston North
4410,Summerhill,Manawatu-Wanganui,North Island,-40.3691,175.6288,,Palmerston North City
4410,Terrace End,Manawatu-Wanganui,North Island,-40.3691,175.6288,,Palmerston North
4412,Awapuni,Manawatu-Wanganui,North Island,-40.3658,175.5885,,Manawatu District
4412,Cloverlea,Manawatu-Wanganui,North Island,-40.3658,175.5885,,Manawatu
4412,Highbury,Manawatu-Wanganui,North Island,-40.3658,175.5885,,Manawatu
4412,Takaro,Manawatu-Wanganui,North Island,-40.3658,175.5885,,Manawatu
4412,West End,Manawatu-Wanganui,North Island,-40.3658,175.5885,,Manawatu
4414,Kelvin Grove,Manawatu-Wanganui,North Island,-40.3326,175.63,,Palmerston North City
4414,Milson,Manawatu-Wanganui,North Island,-40.3326,175.63,,Palmerston North
4414,Roslyn,Manawatu-Wanganui,North Island,-40.3326,175.63,,Palmerston North
4440,Hokowhitu,Manawatu-Wanganui,North Island,-40.3581,175.6107,,Palmerston North City
4441,Terrace End,Manawatu-Wanganui,North Island,-40.3476,175.6277,,Palmerston North City
4442,Takaro,Manawatu-Wanganui,North Island,-40.3454,175.5952,,Palmerston North City
4443,West End,Manawatu-Wanganui,North Island,-40.3622,175.5984,,Palmerston North City
4444,Terrace End,Manawatu-Wanganui,North Island,-40.3555,175.6123,,Palmerston North City
4445,Awapuni,Manawatu-Wanganui,North Island,-40.3726,175.593,,Palmerston North City
4446,Hokowhitu,Manawatu-Wanganui,North Island,-40.3632,175.6338,,Palmerston North City
4448,Summerhill,Manawatu-Wanganui,North Island,-40.3874,175.6393,,Palmerston North City
4470,Ashhurst,Manawatu-Wanganui,North Island,-40.2905,175.7028,,Manawatu District
4471,Aokautere,Manawatu-Wanganui,North Island,-40.3626,175.7135,,Tararua District
4473,Carnarvon,Manawatu-Wanganui,North Island,-40.3156,175.3396,,Manawatu District
4474,Tokomaru,Manawatu-Wanganui,North Island,-40.5035,175.5456,,Horowhenua District
4475,Kairanga,Manawatu-Wanganui,North Island,-40.3307,175.5202,,Palmerston North City
4476,Rongotea,Manawatu-Wanganui,North Island,-40.2862,175.4393,,Manawatu District
4477,Mangawhata,Manawatu-Wanganui,North Island,-40.3989,175.4478,,Horowhenua District
4478,Milson,Manawatu-Wanganui,North Island,-40.2979,175.5922,,Manawatu District
4479,Sanson,Manawatu-Wanganui,North Island,-40.2317,175.4358,,Manawatu District
4481,Bunnythorpe,Manawatu-Wanganui,North Island,-40.2755,175.6657,,Manawatu District
4500,Aramoho,Manawatu-Wanganui,North Island,-39.9146,175.0546,,Whanganui District
4500,College Estate,Manawatu-Wanganui,North Island,-39.9146,175.0546,,Whanganui
4500,Durie Hill,Manawatu-Wanganui,North Island,-39.9146,175.0546,,Whanganui
4500,Gonville,Manawatu-Wanganui,North Island,-39.9146,175.0546,,Whanganui
4500,Kowhai Park,Manawatu-Wanganui,North Island,-39.9146,175.0546,,Whanganui
4500,Okoia,Manawatu-Wanganui,North Island,-39.9146,175.0546,,Whanganui
4500,Otamatea,Manawatu-Wanganui,North Island,-39.9146,175.0546,,Whanganui
4500,Putiki,Manawatu-Wanganui,North Island,-39.9146,175.0546,,Whanganui
4500,St Johns Hill,Manawatu-Wanganui,North Island,-39.9146,175.0546,,Whanganui
4500,Wanganui Central,Manawatu-Wanganui,North Island,-39.9146,175.0546,,Whanganui
4500,Wanganui East,Manawatu-Wanganui,North Island,-39.9146,175.0546,,Whanganui
4501,Balgownie,Manawatu-Wanganui,North Island,-39.9401,175.0133,,Whanganui
4501,Castlecliff,Manawatu-Wanganui,North Island,-39.9401,175.0133,,Whanganui
4501,College Estate,Manawatu-Wanganui,North Island,-39.9401,175.0133,,Whanganui
4501,Gonville,Manawatu-Wanganui,North Island,-39.9401,175.0133,,Whanganui District
4501,Otamatea,Manawatu-Wanganui,North Island,-39.9401,175.0133,,Whanganui
4501,Putiki,Manawatu-Wanganui,North Island,-39.9401,175.0133,,Whanganui
4501,Springvale,Manawatu-Wanganui,North Island,-39.9401,175.0133,,Whanganui
4501,St Johns Hill,Manawatu-Wanganui,North Island,-39.9401,175.0133,,Whanganui
4501,Tawhero,Manawatu-Wanganui,North Island,-39.9401,175.0133,,Whanganui
4501,Wanganui Airport,Manawatu-Wanganui,North Island,-39.9401,175.0133,,Whanganui
4501,Westmere,Manawatu-Wanganui,North Island,-39.9401,175.0133,,Whanganui
4510,Waverley,Taranaki,North Island,-39.7628,174.6317,,South Taranaki District
4520,Patea,Taranaki,North Island,-39.7584,174.4695,,South Taranaki
4520,White Tank,Taranaki,North Island,-39.7584,174.4695,,South Taranaki District
4540,Wanganui,Taranaki,North Island,-39.9344,175.0532,,South Taranaki District
4541,Wanganui,Manawatu-Wanganui,North Island,-39.9295,175.0466,,Whanganui District
4542,Wanganui East,Manawatu-Wanganui,North Island,-39.9096,175.0533,,Whanganui District
4543,Gonville,Manawatu-Wanganui,North Island,-39.9428,175.0226,,Whanganui District
4544,Waverley,Taranaki,North Island,-39.7637,174.6343,,South Taranaki District
4545,White Tank,Taranaki,North Island,-39.756,174.4737,,South Taranaki District
4547,Turakina South,Manawatu-Wanganui,North Island,-40.0467,175.2138,,Rangitikei District
4548,Ratana,Manawatu-Wanganui,North Island,-40.0394,175.1756,,Rangitikei District
4549,Waitotara,Taranaki,North Island,-39.8069,174.734,,South Taranaki District
4571,Brunswick,Manawatu-Wanganui,North Island,-39.8193,175.0206,,Whanganui District
4572,Wiritoa,Manawatu-Wanganui,North Island,-39.9823,175.1162,,Whanganui District
4573,Kakatahi,Manawatu-Wanganui,North Island,-39.674,175.2513,,Ruapehu District
4574,Mowhanau,Manawatu-Wanganui,North Island,-39.8531,174.8924,,Whanganui District
4575,Upokonui,Manawatu-Wanganui,North Island,-39.7918,175.1865,,Whanganui District
4576,Matahiwi,Manawatu-Wanganui,North Island,-39.6251,175.1175,,Ruapehu District
4577,Kauangaroa,Manawatu-Wanganui,North Island,-39.8951,175.3413,,Whanganui District
4578,Ahuiti,Taranaki,North Island,-39.6577,175.0021,,South Taranaki District
4581,Turakina,Manawatu-Wanganui,North Island,-40.0084,175.2327,,Rangitikei District
4582,Okoia,Manawatu-Wanganui,North Island,-39.9118,175.1679,,Whanganui District
4584,Whakaihuwaka,Manawatu-Wanganui,North Island,-39.7719,175.0626,,Whanganui District
4585,Kakatahi,Manawatu-Wanganui,North Island,-39.599,175.4148,,Whanganui District
4586,Kakatahi,Manawatu-Wanganui,North Island,-39.7307,175.4134,,Whanganui District
4587,Nukumaru,Manawatu-Wanganui,North Island,-39.8064,174.8084,,Whanganui District
4588,Tawhiwhi,Taranaki,North Island,-39.6228,174.8503,,South Taranaki District
4591,Nukuhau,Taranaki,North Island,-39.6418,174.6316,,South Taranaki District
4592,Mangawhio,Taranaki,North Island,-39.7201,174.7245,,South Taranaki District
4597,Matukuroa,Taranaki,North Island,-39.7038,174.5409,,South Taranaki District
4598,Hurleyville,Taranaki,North Island,-39.6331,174.4858,,South Taranaki District
4610,Hawera,Taranaki,North Island,-39.5854,174.2825,,South Taranaki District
4612,Manaia,Taranaki,North Island,-39.5512,174.1251,,South Taranaki District
4614,Normanby,Taranaki,North Island,-39.5417,174.2726,,South Taranaki District
4616,Opunake,Taranaki,North Island,-39.4523,173.8572,,South Taranaki District
4625,Ohakune,Manawatu-Wanganui,North Island,-39.4103,175.4031,,Ruapehu District
4632,Raetihi,Manawatu-Wanganui,North Island,-39.4286,175.2878,,Ruapehu District
4640,Hawera,Taranaki,North Island,-39.59,174.2837,,South Taranaki District
4641,Manaia,Taranaki,North Island,-39.5515,174.125,,South Taranaki District
4642,Kaponga,Taranaki,North Island,-39.4293,174.1506,,South Taranaki District
4645,Opunake,Taranaki,North Island,-39.4539,173.8585,,South Taranaki District
4646,Raetihi,Manawatu-Wanganui,North Island,-39.4259,175.2765,,Ruapehu District
4660,Ohakune,Manawatu-Wanganui,North Island,-39.4176,175.3987,,Ruapehu District
4671,Okaiawa,Taranaki,North Island,-39.5534,174.1949,,South Taranaki District
4672,Meremere,Taranaki,North Island,-39.5673,174.3894,,South Taranaki District
4673,Te Roti,Taranaki,North Island,-39.4856,174.2924,,South Taranaki District
4674,Ararata,Taranaki,North Island,-39.528,174.3533,,South Taranaki District
4675,Matapu,Taranaki,North Island,-39.5066,174.2201,,South Taranaki District
4678,Kaupokonui,Taranaki,North Island,-39.5139,174.079,,South Taranaki District
4679,Riverlea,Taranaki,North Island,-39.4256,174.0879,,South Taranaki District
4681,Oaonui,Taranaki,North Island,-39.3861,173.8804,,South Taranaki District
4682,Waiteika,Taranaki,North Island,-39.4564,173.9364,,South Taranaki District
4684,Upper Kahui,Taranaki,North Island,-39.3292,173.8783,,South Taranaki District
4685,Parihaka Pa,Taranaki,North Island,-39.2896,173.825,,South Taranaki District
4691,Rangataua,Manawatu-Wanganui,North Island,-39.3296,175.5524,,Ruapehu District
4694,Raetihi,Manawatu-Wanganui,North Island,-39.477,175.1922,,Ruapehu District
4696,Te Ranga,Manawatu-Wanganui,North Island,-39.2854,175.1762,,Ruapehu District
4702,FEILDING,Manawatu-Wanganui,North Island,-40.2171,175.5663,,Manawatu District
4710,Marton,Manawatu-Wanganui,North Island,-40.0724,175.3798,,Rangitikei District
4720,Taihape,Manawatu-Wanganui,North Island,-39.6828,175.7899,,Rangitikei District
4730,Hunterville,Manawatu-Wanganui,North Island,-39.9337,175.5688,,Rangitikei District
4740,FEILDING,Manawatu-Wanganui,North Island,-40.2267,175.5654,,Manawatu District
4741,Marton,Manawatu-Wanganui,North Island,-40.0668,175.3787,,Rangitikei District
4742,Taihape,Manawatu-Wanganui,North Island,-39.6773,175.7982,,Rangitikei District
4744,Kimbolton,Manawatu-Wanganui,North Island,-40.0574,175.7794,,Manawatu District
4745,Hunterville,Manawatu-Wanganui,North Island,-39.9371,175.5685,,Rangitikei District
4746,Mangaweka,Manawatu-Wanganui,North Island,-39.8096,175.7887,,Rangitikei District
4771,Umutoi,Manawatu-Wanganui,North Island,-39.9989,175.9452,,Manawatu District
4774,Apiti,Manawatu-Wanganui,North Island,-39.9336,175.8575,,Rangitikei District
4775,Colyton,Manawatu-Wanganui,North Island,-40.213,175.6339,,Palmerston North City
4777,Kiwitea,Manawatu-Wanganui,North Island,-40.0927,175.7361,,Manawatu District
4779,Waituna West,Manawatu-Wanganui,North Island,-40.0865,175.5853,,Manawatu District
4780,Rewa,Manawatu-Wanganui,North Island,-39.9915,175.6314,,Manawatu District
4781,Silverhope,Manawatu-Wanganui,North Island,-39.9088,175.4387,,Rangitikei District
4782,Pukeroa,Manawatu-Wanganui,North Island,-39.8123,175.5464,,Rangitikei District
4783,Pakihikura,Manawatu-Wanganui,North Island,-39.9228,175.7,,Rangitikei District
4784,Silverhope,Manawatu-Wanganui,North Island,-39.9478,175.5212,,Rangitikei District
4785,Poukiore,Manawatu-Wanganui,North Island,-39.8467,175.6335,,Rangitikei District
4786,Rewa,Manawatu-Wanganui,North Island,-39.956,175.6052,,Rangitikei District
4787,Cliff Road,Manawatu-Wanganui,North Island,-40.0513,175.4852,,Rangitikei District
4788,Marton,Manawatu-Wanganui,North Island,-40.0079,175.3642,,Rangitikei District
4789,Marton,Manawatu-Wanganui,North Island,-40.0996,175.3098,,Rangitikei District
4791,Raketapauma,Manawatu-Wanganui,North Island,-39.6042,175.5897,,Rangitikei District
4792,Erehwon,Hawke's Bay,North Island,-39.5457,175.9477,,Rangitikei District
4793,Ohotu,Manawatu-Wanganui,North Island,-39.6785,175.9334,,Rangitikei District
4794,Utiku,Manawatu-Wanganui,North Island,-39.7556,175.8942,,Rangitikei District
4795,Waiouru Military Camp,Manawatu-Wanganui,North Island,-39.471,175.8029,,Rangitikei District
4796,Taihape,Manawatu-Wanganui,North Island,-39.7189,175.7107,,Rangitikei District
4797,Ruahine,Manawatu-Wanganui,North Island,-39.8068,175.8736,,Manawatu District
4810,Ashhurst,Manawatu-Wanganui,North Island,-40.2927,175.7565,,Palmerston North City
4814,Foxton,Manawatu-Wanganui,North Island,-40.4708,175.2874,,Horowhenua District
4815,Foxton Beach,Manawatu-Wanganui,North Island,-40.464,175.2318,,Horowhenua District
4816,Ohakea,Manawatu-Wanganui,North Island,-40.2026,175.3808,,Manawatu District
4817,Sanson,Manawatu-Wanganui,North Island,-40.2188,175.4228,,Manawatu District
4818,Bulls,Manawatu-Wanganui,North Island,-40.1775,175.3863,,Rangitikei District
4820,Linton Military Camp,Manawatu-Wanganui,North Island,-40.4054,175.5855,,Palmerston North
4820,Longburn,Manawatu-Wanganui,North Island,-40.4054,175.5855,,Palmerston North City
4821,Shannon,Manawatu-Wanganui,North Island,-40.5426,175.4182,,Horowhenua District
4822,Tangimoana,Manawatu-Wanganui,North Island,-40.2929,175.2564,,Manawatu District
4825,Waiouru,Manawatu-Wanganui,North Island,-39.4009,175.6798,,Ruapehu
4825,Waiouru Military Area,Manawatu-Wanganui,North Island,-39.4009,175.6798,,Ruapehu
4825,Waiouru Military Camp,Manawatu-Wanganui,North Island,-39.4009,175.6798,,Ruapehu District
4826,Waiouru,Manawatu-Wanganui,North Island,-39.4712,175.6851,,Ruapehu
4826,Waiouru Military Camp,Manawatu-Wanganui,North Island,-39.4712,175.6851,,Ruapehu District
4847,Ashhurst,Manawatu-Wanganui,North Island,-40.2902,175.7552,,Palmerston North City
4848,Foxton,Manawatu-Wanganui,North Island,-40.4749,175.2812,,Horowhenua District
4849,Foxton Beach,Manawatu-Wanganui,North Island,-40.4683,175.2382,,Horowhenua District
4860,Shannon,Manawatu-Wanganui,North Island,-40.5496,175.4138,,Horowhenua District
4861,Waiouru,Manawatu-Wanganui,North Island,-39.4759,175.6686,,Ruapehu District
4862,Sanson,Manawatu-Wanganui,North Island,-40.2198,175.4242,,Manawatu District
4863,Bulls,Manawatu-Wanganui,North Island,-40.174,175.3864,,Rangitikei District
4864,Tokomaru,Manawatu-Wanganui,North Island,-40.4745,175.5097,,Horowhenua District
4865,Rongotea,Manawatu-Wanganui,North Island,-40.293,175.4249,,Manawatu District
4866,Longburn,Manawatu-Wanganui,North Island,-40.383,175.5453,,Palmerston North City
4867,Bunnythorpe,Manawatu-Wanganui,North Island,-40.2825,175.6311,,Palmerston North City
4884,Pohangina,Manawatu-Wanganui,North Island,-40.1382,175.8664,,Manawatu District
4891,Himatangi,Manawatu-Wanganui,North Island,-40.3928,175.2974,,Horowhenua District
4893,Marotiri,Manawatu-Wanganui,North Island,-40.485,175.3291,,Horowhenua District
4894,Bulls,Manawatu-Wanganui,North Island,-40.1941,175.293,,Rangitikei District
4900,Eketahuna,Manawatu-Wanganui,North Island,-40.6497,175.7023,,Tararua District
4910,Pahiatua,Manawatu-Wanganui,North Island,-40.4548,175.8395,,Tararua District
4920,Woodville,Manawatu-Wanganui,North Island,-40.3337,175.8663,,Tararua District
4930,Dannevirke,Manawatu-Wanganui,North Island,-40.209,176.1022,,Tararua District
4940,Eketahuna,Manawatu-Wanganui,North Island,-40.6454,175.7031,,Tararua District
4941,Pahiatua,Manawatu-Wanganui,North Island,-40.4521,175.8422,,Tararua District
4942,Dannevirke,Manawatu-Wanganui,North Island,-40.2098,176.0966,,Tararua District
4943,Norsewood,Manawatu-Wanganui,North Island,-40.0694,176.2163,,Tararua District
4944,Pongaroa,Manawatu-Wanganui,North Island,-40.5426,176.1906,,Tararua District
4945,Woodville,Manawatu-Wanganui,North Island,-40.3378,175.8689,,Tararua District
4970,Ti-tree Point,Hawke's Bay,North Island,-40.3934,176.4123,,Central Hawke's Bay District
4971,Waipatiki,Manawatu-Wanganui,North Island,-40.355,176.1816,,Tararua District
4972,Kiritaki,Manawatu-Wanganui,North Island,-40.2398,176.006,,Tararua District
4973,Waipatiki,Manawatu-Wanganui,North Island,-40.2554,176.2901,,Tararua District
4974,Ngamoko,Manawatu-Wanganui,North Island,-40.0491,176.1951,,Tararua District
4975,Tahoraiti,Manawatu-Wanganui,North Island,-40.3018,176.0999,,Tararua District
4976,Raumati,Manawatu-Wanganui,North Island,-40.1995,176.1673,,Tararua District
4977,Makotuku,Manawatu-Wanganui,North Island,-40.124,176.2232,,Tararua District
4978,Piripiri,Manawatu-Wanganui,North Island,-40.141,176.0556,,Tararua District
4979,Waione,Manawatu-Wanganui,North Island,-40.4364,176.301,,Tararua District
4981,Kaitawa,Manawatu-Wanganui,North Island,-40.5303,175.8807,,Tararua District
4982,Ngaturi,Manawatu-Wanganui,North Island,-40.4288,175.9762,,Tararua District
4983,Ballance,Manawatu-Wanganui,North Island,-40.3984,175.767,,Tararua District
4984,Konini,Manawatu-Wanganui,North Island,-40.5081,175.7673,,Tararua District
4985,Makuri,Manawatu-Wanganui,North Island,-40.4982,176.0472,,Tararua District
4986,Haunui,Manawatu-Wanganui,North Island,-40.5926,175.958,,Tararua District
4987,Konini,Manawatu-Wanganui,North Island,-40.522,175.7835,,Tararua District
4988,Mangamaire,Manawatu-Wanganui,North Island,-40.5086,175.6967,,Tararua District
4989,Makuri,Manawatu-Wanganui,North Island,-40.5302,176.0492,,Tararua District
4990,Waimiro,Manawatu-Wanganui,North Island,-40.4787,176.1541,,Tararua District
4991,Aohanga,Manawatu-Wanganui,North Island,-40.6126,176.3283,,Tararua District
4992,Waione,Manawatu-Wanganui,North Island,-40.5133,176.2536,,Tararua District
4993,Tane,Manawatu-Wanganui,North Island,-40.5785,175.791,,Tararua District
4994,Eketahuna,Wellington,North Island,-40.6634,175.6726,,Masterton District
4995,Nireaha,Manawatu-Wanganui,North Island,-40.5863,175.6436,,Tararua District
4996,Tiraumea,Wellington,North Island,-40.6679,175.9936,,Masterton District
4997,Hopelands,Manawatu-Wanganui,North Island,-40.3626,175.9944,,Tararua District
4998,Papatawa,Manawatu-Wanganui,North Island,-40.2855,175.9108,,Tararua District
4999,Woodville,Manawatu-Wanganui,North Island,-40.3205,175.834,,Tararua District
5010,Alicetown,Wellington,North Island,-41.1971,174.9198,,Lower Hutt
5010,Avalon,Wellington,North Island,-41.1971,174.9198,,Lower Hutt City
5010,Belmont,Wellington,North Island,-41.1971,174.9198,,Lower Hutt
5010,Belmont Regional Park,Wellington,North Island,-41.1971,174.9198,,Lower Hutt
5010,Boulcott,Wellington,North Island,-41.1971,174.9198,,Lower Hutt
5010,Gracefield,Wellington,North Island,-41.1971,174.9198,,Lower Hutt
5010,Harbour View,Wellington,North Island,-41.1971,174.9198,,Lower Hutt
5010,Kelson,Wellington,North Island,-41.1971,174.9198,,Lower Hutt
5010,Lower Hutt Central,Wellington,North Island,-41.1971,174.9198,,Lower Hutt
5010,Maungaraki,Wellington,North Island,-41.1971,174.9198,,Lower Hutt
5010,Melling,Wellington,North Island,-41.1971,174.9198,,Lower Hutt
5010,Moera,Wellington,North Island,-41.1971,174.9198,,Lower Hutt
5010,Normandale,Wellington,North Island,-41.1971,174.9198,,Lower Hutt
5010,Seaview,Wellington,North Island,-41.1971,174.9198,,Lower Hutt
5010,Tirohanga,Wellington,North Island,-41.1971,174.9198,,Lower Hutt
5010,Waiwhetu,Wellington,North Island,-41.1971,174.9198,,Lower Hutt
5010,Woburn,Wellington,North Island,-41.1971,174.9198,,Lower Hutt
5011,Avalon,Wellington,North Island,-41.1943,174.9522,,Lower Hutt
5011,Epuni,Wellington,North Island,-41.1943,174.9522,,Lower Hutt
5011,Fairfield,Wellington,North Island,-41.1943,174.9522,,Lower Hutt
5011,Naenae,Wellington,North Island,-41.1943,174.9522,,Lower Hutt
5011,Taita,Wellington,North Island,-41.1943,174.9522,,Lower Hutt City
5011,Waterloo,Wellington,North Island,-41.1943,174.9522,,Lower Hutt
5012,Korokoro,Wellington,North Island,-41.2338,174.8757,,Lower Hutt
5012,Petone,Wellington,North Island,-41.2338,174.8757,,Lower Hutt City
5013,Days Bay,Wellington,North Island,-41.3154,174.8854,,Lower Hutt
5013,Eastbourne,Wellington,North Island,-41.3154,174.8854,,Lower Hutt
5013,Lowry Bay,Wellington,North Island,-41.3154,174.8854,,Lower Hutt
5013,Mahina Bay,Wellington,North Island,-41.3154,174.8854,,Lower Hutt
5013,Muritai,Wellington,North Island,-41.3154,174.8854,,Lower Hutt City
5013,Point Howard,Wellington,North Island,-41.3154,174.8854,,Lower Hutt
5013,Sunshine Bay,Wellington,North Island,-41.3154,174.8854,,Lower Hutt
5013,York Bay,Wellington,North Island,-41.3154,174.8854,,Lower Hutt
5014,Wainuiomata,Wellington,North Island,-41.2634,174.9483,,Lower Hutt City
5016,Horokiwi,Wellington,North Island,-41.2128,174.8499,,Wellington
5016,Korokoro,Wellington,North Island,-41.2128,174.8499,,Wellington City
5018,Birchville,Wellington,North Island,-41.1195,175.0935,,Upper Hutt
5018,Brown Owl,Wellington,North Island,-41.1195,175.0935,,Upper Hutt
5018,Clouston Park,Wellington,North Island,-41.1195,175.0935,,Upper Hutt
5018,Ebdentown,Wellington,North Island,-41.1195,175.0935,,Upper Hutt
5018,Elderslea,Wellington,North Island,-41.1195,175.0935,,Upper Hutt
5018,Haywards,Wellington,North Island,-41.1195,175.0935,,Upper Hutt
5018,Heretaunga,Wellington,North Island,-41.1195,175.0935,,Upper Hutt
5018,Kingsley Heights,Wellington,North Island,-41.1195,175.0935,,Upper Hutt
5018,Maidstone,Wellington,North Island,-41.1195,175.0935,,Upper Hutt
5018,Maoribank,Wellington,North Island,-41.1195,175.0935,,Upper Hutt City
5018,Riverstone Terraces,Wellington,North Island,-41.1195,175.0935,,Upper Hutt
5018,Te Marua,Wellington,North Island,-41.1195,175.0935,,Upper Hutt
5018,Timberlea,Wellington,North Island,-41.1195,175.0935,,Upper Hutt
5018,Totara Park,Wellington,North Island,-41.1195,175.0935,,Upper Hutt
5018,Trentham,Wellington,North Island,-41.1195,175.0935,,Upper Hutt
5018,Trentham Military Camp,Wellington,North Island,-41.1195,175.0935,,Upper Hutt
5018,Upper Hutt Central,Wellington,North Island,-41.1195,175.0935,,Upper Hutt
5018,Wallaceville,Wellington,North Island,-41.1195,175.0935,,Upper Hutt
5019,Manor Park,Wellington,North Island,-41.1703,174.9949,,Upper Hutt
5019,Pinehaven,Wellington,North Island,-41.1703,174.9949,,Upper Hutt City
5019,Silverstream,Wellington,North Island,-41.1703,174.9949,,Upper Hutt
5019,Stokes Valley,Wellington,North Island,-41.1703,174.9949,,Upper Hutt
5019,Taita,Wellington,North Island,-41.1703,174.9949,,Upper Hutt
5022,Elsdon,Wellington,North Island,-41.1245,174.8198,,Porirua City
5022,Porirua,Wellington,North Island,-41.1245,174.8198,,Porirua
5022,Tawa,Wellington,North Island,-41.1245,174.8198,,Porirua
5022,Titahi Bay,Wellington,North Island,-41.1245,174.8198,,Porirua
5024,Aotea,Wellington,North Island,-41.1304,174.8788,,Porirua
5024,Ascot Park,Wellington,North Island,-41.1304,174.8788,,Porirua
5024,Cannons Creek,Wellington,North Island,-41.1304,174.8788,,Porirua
5024,Papakowhai,Wellington,North Island,-41.1304,174.8788,,Porirua
5024,Paremata,Wellington,North Island,-41.1304,174.8788,,Porirua
5024,Porirua,Wellington,North Island,-41.1304,174.8788,,Porirua
5024,Porirua East,Wellington,North Island,-41.1304,174.8788,,Porirua
5024,Ranui Heights,Wellington,North Island,-41.1304,174.8788,,Porirua
5024,Waitangirua,Wellington,North Island,-41.1304,174.8788,,Porirua City
5024,Whitby,Wellington,North Island,-41.1304,174.8788,,Porirua
5026,Camborne,Wellington,North Island,-41.0629,174.8705,,Porirua
5026,Karehana Bay,Wellington,North Island,-41.0629,174.8705,,Porirua City
5026,Mana,Wellington,North Island,-41.0629,174.8705,,Porirua
5026,Plimmerton,Wellington,North Island,-41.0629,174.8705,,Porirua
5026,Pukerua Bay,Wellington,North Island,-41.0629,174.8705,,Porirua
5028,Glenside,Wellington,North Island,-41.175,174.8503,,Wellington
5028,Grenada North,Wellington,North Island,-41.175,174.8503,,Wellington City
5028,Takapu Valley,Wellington,North Island,-41.175,174.8503,,Wellington
5028,Tawa,Wellington,North Island,-41.175,174.8503,,Wellington
5032,Maungakotukutuku,Wellington,North Island,-40.8948,174.9695,,Kapiti Coast
5032,Nikau Valley,Wellington,North Island,-40.8948,174.9695,,Kapiti Coast
5032,Paraparaumu,Wellington,North Island,-40.8948,174.9695,,Kapiti Coast
5032,Paraparaumu Beach,Wellington,North Island,-40.8948,174.9695,,Kapiti Coast District
5032,Raumati Beach,Wellington,North Island,-40.8948,174.9695,,Kapiti Coast
5032,Raumati South,Wellington,North Island,-40.8948,174.9695,,Kapiti Coast
5034,Maunganui,Wellington,North Island,-40.9769,174.9682,,Kapiti Coast
5034,Paekakariki,Wellington,North Island,-40.9769,174.9682,,Kapiti Coast District
5034,Queen Elizabeth Park,Wellington,North Island,-40.9769,174.9682,,Kapiti Coast
5036,Otaihanga,Wellington,North Island,-40.8733,175.0507,,Kapiti Coast
5036,Waikanae,Wellington,North Island,-40.8733,175.0507,,Kapiti Coast District
5036,Waikanae Beach,Wellington,North Island,-40.8733,175.0507,,Kapiti Coast
5036,Waikanae Park,Wellington,North Island,-40.8733,175.0507,,Kapiti Coast
5040,Alicetown,Wellington,North Island,-41.2095,174.9015,,Lower Hutt City
5041,Taita,Wellington,North Island,-41.1986,174.9476,,Lower Hutt City
5042,Lower Hutt,Wellington,North Island,-41.2148,174.922,,Lower Hutt City
5043,Gracefield,Wellington,North Island,-41.2271,174.9053,,Lower Hutt City
5044,Naenae,Wellington,North Island,-41.1988,174.9358,,Lower Hutt City
5045,Petone,Wellington,North Island,-41.2253,174.8662,,Lower Hutt City
5046,Petone,Wellington,North Island,-41.2255,174.8795,,Lower Hutt City
5047,Eastbourne,Wellington,North Island,-41.2906,174.8985,,Lower Hutt City
5048,Wainuiomata,Wellington,North Island,-41.2608,174.9457,,Lower Hutt City
5049,Homedale,Wellington,North Island,-41.2725,174.9546,,Lower Hutt City
5050,Maungaraki,Wellington,North Island,-41.209,174.8783,,Lower Hutt City
5140,Kingsley Heights,Wellington,North Island,-41.124,175.0737,,Upper Hutt City
5141,Stokes Valley,Wellington,North Island,-41.1745,174.9816,,Lower Hutt City
5142,Silverstream,Wellington,North Island,-41.148,175.012,,Upper Hutt City
5143,Trentham,Wellington,North Island,-41.138,175.0342,,Upper Hutt City
5240,Ranui Heights,Wellington,North Island,-41.1349,174.8403,,Porirua City
5242,Onepoto,Wellington,North Island,-41.1086,174.838,,Porirua City
5243,Cannons Creek,Wellington,North Island,-41.1416,174.8654,,Porirua City
5245,Whitby,Wellington,North Island,-41.1178,174.8933,,Porirua City
5247,Paremata,Wellington,North Island,-41.0933,174.8686,,Porirua City
5249,Linden,Wellington,North Island,-41.1703,174.8247,,Wellington City
5250,Waikanae,Wellington,North Island,-40.8767,175.0642,,Kapiti Coast District
5252,Paraparaumu Beach,Wellington,North Island,-40.8939,174.9811,,Kapiti Coast District
5254,Paraparaumu,Wellington,North Island,-40.9165,175.0055,,Kapiti Coast District
5255,Raumati Beach,Wellington,North Island,-40.9189,174.9822,,Kapiti Coast District
5258,Paekakariki,Wellington,North Island,-40.9884,174.9515,,Kapiti Coast District
5371,Upper Hutt,Wellington,North Island,-41.1669,175.088,,Upper Hutt City
5372,Kaitoke,Wellington,North Island,-41.0519,175.1665,,Upper Hutt City
5373,Homedale,Wellington,North Island,-41.277,175.0608,,Lower Hutt City
5381,Pukerua Bay,Wellington,North Island,-41.0521,174.9695,,Porirua City
5391,Reikorangi,Wellington,North Island,-40.9005,175.1072,,Kapiti Coast District
5510,Levin,Manawatu-Wanganui,North Island,-40.5963,175.2511,,Horowhenua District
5510,Waitarere,Manawatu-Wanganui,North Island,-40.5963,175.2511,,Horowhenua
5510,Waitarere Beach,Manawatu-Wanganui,North Island,-40.5963,175.2511,,Horowhenua
5512,Otaki,Wellington,North Island,-40.7402,175.1404,,Kapiti Coast District
5512,Otaki Beach,Wellington,North Island,-40.7402,175.1404,,Kapiti Coast
5540,Levin,Manawatu-Wanganui,North Island,-40.6222,175.2866,,Horowhenua District
5541,Manakau,Manawatu-Wanganui,North Island,-40.7124,175.2168,,Horowhenua District
5542,Otaki,Wellington,North Island,-40.7526,175.1389,,Kapiti Coast District
5543,Otaki,Wellington,North Island,-40.7621,175.156,,Kapiti Coast District
5544,Te Horo,Wellington,North Island,-40.804,175.1192,,Kapiti Coast District
5570,Ohau,Manawatu-Wanganui,North Island,-40.6766,175.2619,,Horowhenua District
5571,Levin,Manawatu-Wanganui,North Island,-40.621,175.3004,,Horowhenua District
5572,Waitarere,Manawatu-Wanganui,North Island,-40.5336,175.2628,,Horowhenua District
5573,Manakau,Wellington,North Island,-40.7072,175.2017,,Kapiti Coast District
5574,Waitarere,Manawatu-Wanganui,North Island,-40.5584,175.2388,,Horowhenua District
5575,Koputaroa,Manawatu-Wanganui,North Island,-40.5666,175.3219,,Horowhenua District
5581,Manakau,Wellington,North Island,-40.7911,175.3732,,Kapiti Coast District
5710,Featherston,Wellington,North Island,-41.1169,175.2937,,South Wairarapa District
5710,Rimutaka Hill,Wellington,North Island,-41.1169,175.2937,,South Wairarapa
5711,Martinborough,Wellington,North Island,-41.2205,175.4593,,South Wairarapa District
5712,Greytown,Wellington,North Island,-41.0824,175.4599,,South Wairarapa District
5713,Carterton,Wellington,North Island,-41.0281,175.5229,,Carterton District
5713,Clareville,Wellington,North Island,-41.0281,175.5229,,Carterton
5740,Featherston,Wellington,North Island,-41.117,175.3248,,South Wairarapa District
5741,Martinborough,Wellington,North Island,-41.2191,175.4583,,South Wairarapa District
5742,Greytown,Wellington,North Island,-41.0802,175.4603,,South Wairarapa District
5743,Carterton,Wellington,North Island,-41.0251,175.5276,,Carterton District
5771,Kahutara,Wellington,North Island,-41.1711,175.3549,,South Wairarapa District
5772,Pirinoa,Wellington,North Island,-41.4073,175.2716,,South Wairarapa District
5773,Cross Creek,Wellington,North Island,-41.2346,175.2043,,South Wairarapa District
5781,Pahautea,Wellington,North Island,-41.3133,175.3866,,South Wairarapa District
5782,Waipawa,Wellington,North Island,-41.4322,175.5092,,South Wairarapa District
5783,Martinborough,Wellington,North Island,-41.1866,175.432,,South Wairarapa District
5784,Hinakura,Wellington,North Island,-41.3109,175.6286,,South Wairarapa District
5791,Carterton,Wellington,North Island,-40.9664,175.5024,,Carterton District
5792,Parkvale,Wellington,North Island,-41.1168,175.5423,,South Wairarapa District
5794,Greytown,Wellington,North Island,-41.1065,175.4291,,South Wairarapa District
5810,Homebush,Wellington,North Island,-40.9516,175.6535,,Masterton
5810,Lansdowne,Wellington,North Island,-40.9516,175.6535,,Masterton
5810,Masterton,Wellington,North Island,-40.9516,175.6535,,Masterton District
5810,Solway,Wellington,North Island,-40.9516,175.6535,,Masterton
5810,Te Ore Ore,Wellington,North Island,-40.9516,175.6535,,Masterton
5840,Masterton,Wellington,North Island,-40.9497,175.6614,,Masterton District
5842,Masterton,Wellington,North Island,-40.9581,175.6487,,Masterton District
5871,Bideford,Wellington,North Island,-40.8459,175.8391,,Masterton District
5872,Riversdale Beach,Wellington,North Island,-41.0602,176.0402,,Carterton District
5881,Kopuaranga,Wellington,North Island,-40.8215,175.5948,,Masterton District
5882,Mauriceville,Wellington,North Island,-40.7872,175.7584,,Masterton District
5883,Homewood,Wellington,North Island,-41.215,175.8129,,Carterton District
5884,Gladstone,Wellington,North Island,-41.116,175.6531,,Masterton District
5885,Masterton,Wellington,North Island,-40.983,175.6525,,Masterton District
5886,Upper Tauheru,Wellington,North Island,-40.8768,175.7476,,Masterton District
5887,Clareville,Wellington,North Island,-41.0162,175.6125,,Carterton District
5888,Solway,Wellington,North Island,-40.9051,175.5684,,Masterton District
5889,Tinui,Wellington,North Island,-40.8671,176.0156,,Masterton District
5890,Tauweru,Wellington,North Island,-41.0722,175.8675,,Masterton District
5894,Tinui,Wellington,North Island,-40.7768,176.0837,,Masterton District
6011,Aro Valley,Wellington,North Island,-41.2829,174.7842,,Wellington
6011,Mount Victoria,Wellington,North Island,-41.2829,174.7842,,Wellington City
6011,Mt Cook,Wellington,North Island,-41.2829,174.7842,,Wellington
6011,Mt Victoria,Wellington,North Island,-41.2829,174.7842,,Wellington
6011,Oriental Bay,Wellington,North Island,-41.2829,174.7842,,Wellington
6011,Pipitea,Wellington,North Island,-41.2829,174.7842,,Wellington
6011,Roseneath,Wellington,North Island,-41.2829,174.7842,,Wellington
6011,Te Aro,Wellington,North Island,-41.2829,174.7842,,Wellington
6011,Thorndon,Wellington,North Island,-41.2829,174.7842,,Wellington
6011,Wellington Central,Wellington,North Island,-41.2829,174.7842,,Wellington
6012,Aro Valley,Wellington,North Island,-41.2869,174.7405,,Wellington
6012,Highbury,Wellington,North Island,-41.2869,174.7405,,Wellington
6012,Karori,Wellington,North Island,-41.2869,174.7405,,Wellington City
6012,Kelburn,Wellington,North Island,-41.2869,174.7405,,Wellington
6012,Northland,Wellington,North Island,-41.2869,174.7405,,Wellington
6012,Wadestown,Wellington,North Island,-41.2869,174.7405,,Wellington
6012,Wilton,Wellington,North Island,-41.2869,174.7405,,Wellington
6021,Aro Valley,Wellington,North Island,-41.3052,174.779,,Wellington
6021,Brooklyn,Wellington,North Island,-41.3052,174.779,,Wellington
6021,Hataitai,Wellington,North Island,-41.3052,174.779,,Wellington
6021,Kelburn,Wellington,North Island,-41.3052,174.779,,Wellington
6021,Kilbirnie,Wellington,North Island,-41.3052,174.779,,Wellington
6021,Kingston,Wellington,North Island,-41.3052,174.779,,Wellington
6021,Mornington,Wellington,North Island,-41.3052,174.779,,Wellington
6021,Mt Cook,Wellington,North Island,-41.3052,174.779,,Wellington
6021,Newtown,Wellington,North Island,-41.3052,174.779,,Wellington
6021,Roseneath,Wellington,North Island,-41.3052,174.779,,Wellington
6021,Vogeltown,Wellington,North Island,-41.3052,174.779,,Wellington
6021,Wellington,Wellington,North Island,-41.3052,174.779,,Wellington City
6022,Breaker Bay,Wellington,North Island,-41.3155,174.8166,,Wellington
6022,Karaka Bays,Wellington,North Island,-41.3155,174.8166,,Wellington
6022,Kilbirnie,Wellington,North Island,-41.3155,174.8166,,Wellington
6022,Lyall Bay,Wellington,North Island,-41.3155,174.8166,,Wellington
6022,Maupuia,Wellington,North Island,-41.3155,174.8166,,Wellington
6022,Miramar,Wellington,North Island,-41.3155,174.8166,,Wellington City
6022,Moa Point,Wellington,North Island,-41.3155,174.8166,,Wellington
6022,Rongotai,Wellington,North Island,-41.3155,174.8166,,Wellington
6022,Seatoun,Wellington,North Island,-41.3155,174.8166,,Wellington
6022,Strathmore Park,Wellington,North Island,-41.3155,174.8166,,Wellington
6023,Berhampore,Wellington,North Island,-41.3375,174.7506,,Wellington
6023,Houghton Bay,Wellington,North Island,-41.3375,174.7506,,Wellington
6023,Island Bay,Wellington,North Island,-41.3375,174.7506,,Wellington
6023,Melrose,Wellington,North Island,-41.3375,174.7506,,Wellington
6023,Owhiro Bay,Wellington,North Island,-41.3375,174.7506,,Wellington City
6023,Southgate,Wellington,North Island,-41.3375,174.7506,,Wellington
6035,Broadmeadows,Wellington,North Island,-41.2466,174.7942,,Wellington
6035,Crofton Downs,Wellington,North Island,-41.2466,174.7942,,Wellington
6035,Kaiwharawhara,Wellington,North Island,-41.2466,174.7942,,Wellington
6035,Khandallah,Wellington,North Island,-41.2466,174.7942,,Wellington City
6035,Ngaio,Wellington,North Island,-41.2466,174.7942,,Wellington
6035,Ngauranga,Wellington,North Island,-41.2466,174.7942,,Wellington
6035,Pipitea,Wellington,North Island,-41.2466,174.7942,,Wellington
6037,Churton Park,Wellington,North Island,-41.1951,174.7805,,Wellington
6037,Glenside,Wellington,North Island,-41.1951,174.7805,,Wellington
6037,Grenada Village,Wellington,North Island,-41.1951,174.7805,,Wellington
6037,Johnsonville,Wellington,North Island,-41.1951,174.7805,,Wellington
6037,Newlands,Wellington,North Island,-41.1951,174.7805,,Wellington
6037,Ohariu,Wellington,North Island,-41.1951,174.7805,,Wellington City
6037,Paparangi,Wellington,North Island,-41.1951,174.7805,,Wellington
6037,Woodridge,Wellington,North Island,-41.1951,174.7805,,Wellington
6140,Mount Victoria,Wellington,North Island,-41.2809,174.7794,,Wellington City
6141,Mount Victoria,Wellington,North Island,-41.2942,174.7762,,Wellington City
6142,Mount Victoria,Wellington,North Island,-41.2902,174.7757,,Wellington City
6143,Kelburn,Wellington,North Island,-41.2825,174.775,,Wellington City
6144,Kaiwharawhara,Wellington,North Island,-41.2759,174.778,,Wellington City
6145,Kelburn,Wellington,North Island,-41.2798,174.7761,,Wellington City
6146,Mount Victoria,Wellington,North Island,-41.2838,174.7763,,Wellington City
6147,Karori,Wellington,North Island,-41.2851,174.7368,,Wellington City
6148,Mount Victoria,Wellington,North Island,-41.2842,174.7752,,Wellington City
6149,Wellington,Wellington,North Island,-41.2942,174.7831,,Wellington City
6150,Kelburn,Wellington,North Island,-41.289,174.7618,,Wellington City
6160,Kelburn,Wellington,North Island,-41.2776,174.7775,,Wellington City
6241,Rongotai,Wellington,North Island,-41.3194,174.7942,,Wellington City
6242,Berhampore,Wellington,North Island,-41.3133,174.7795,,Wellington City
6243,Miramar,Wellington,North Island,-41.316,174.8159,,Wellington City
6244,Strathmore Park,Wellington,North Island,-41.3331,174.8103,,Wellington City
6440,Newlands,Wellington,North Island,-41.223,174.807,,Wellington City
6441,Ngaio,Wellington,North Island,-41.2464,174.7909,,Wellington City
6442,Newlands,Wellington,North Island,-41.2227,174.8229,,Wellington City
6443,Ngaio,Wellington,North Island,-41.2512,174.773,,Wellington City
6972,Karori West,Wellington,North Island,-41.2839,174.6811,,Wellington City
7005,Mapua,Tasman,South Island,-41.2456,173.0951,,Tasman District
7005,Ruby Bay,Tasman,South Island,-41.2456,173.0951,,Tasman
7007,Murchison,Tasman,South Island,-41.8066,172.3292,,Tasman District
7010,Atawhai,Nelson,South Island,-41.2881,173.3357,,Nelson
7010,Beachville,Nelson,South Island,-41.2881,173.3357,,Nelson
7010,Britannia Heights,Nelson,South Island,-41.2881,173.3357,,Nelson
7010,Maitai,Nelson,South Island,-41.2881,173.3357,,Nelson
7010,Marybank,Nelson,South Island,-41.2881,173.3357,,Nelson
7010,Nelson Central,Nelson,South Island,-41.2881,173.3357,,Nelson
7010,Nelson East,Nelson,South Island,-41.2881,173.3357,,Nelson City
7010,Nelson South,Nelson,South Island,-41.2881,173.3357,,Nelson
7010,Port Nelson,Nelson,South Island,-41.2881,173.3357,,Nelson
7010,Stepheyville,Nelson,South Island,-41.2881,173.3357,,Nelson
7010,The Brook,Nelson,South Island,-41.2881,173.3357,,Nelson
7010,The Wood,Nelson,South Island,-41.2881,173.3357,,Nelson
7010,Toi Toi,Nelson,South Island,-41.2881,173.3357,,Nelson
7010,Wakapuaka,Nelson,South Island,-41.2881,173.3357,,Nelson
7010,Washington Valley,Nelson,South Island,-41.2881,173.3357,,Nelson
7011,Annesbrook,Nelson,South Island,-41.3097,173.2432,,Nelson
7011,Bishopdale,Nelson,South Island,-41.3097,173.2432,,Nelson
7011,Enner Glynn,Nelson,South Island,-41.3097,173.2432,,Nelson
7011,Moana,Nelson,South Island,-41.3097,173.2432,,Nelson
7011,Monaco,Nelson,South Island,-41.3097,173.2432,,Nelson
7011,Nelson Airport,Nelson,South Island,-41.3097,173.2432,,Nelson
7011,Stoke,Nelson,South Island,-41.3097,173.2432,,Nelson City
7011,Tahunanui,Nelson,South Island,-41.3097,173.2432,,Nelson
7011,Wakatu,Nelson,South Island,-41.3097,173.2432,,Nelson
7020,Hope,Nelson,South Island,-41.3437,173.185,,Nelson
7020,Richmond,Nelson,South Island,-41.3437,173.185,,Nelson City
7022,Brightwater,Tasman,South Island,-41.3743,173.1066,,Tasman District
7025,Pigeon Valley,Tasman,South Island,-41.406,173.0398,,Tasman
7025,Wai-iti,Tasman,South Island,-41.406,173.0398,,Tasman
7025,Wakefield,Tasman,South Island,-41.406,173.0398,,Tasman District
7040,Nelson East,Nelson,South Island,-41.271,173.2837,,Nelson City
7041,Stoke,Nelson,South Island,-41.3146,173.2328,,Nelson City
7042,Nelson South,Nelson,South Island,-41.2744,173.2766,,Nelson City
7043,Port Nelson,Nelson,South Island,-41.265,173.2774,,Nelson City
7044,Wakatu,Nelson,South Island,-41.301,173.2426,,Nelson City
7045,Nelson,Nelson,South Island,-41.2832,173.2772,,Nelson City
7046,Nelson South,Nelson,South Island,-41.281,173.2699,,
7047,Nelson East,Nelson,South Island,-41.269,173.2944,,Nelson City
7048,Mapua,Tasman,South Island,-41.2532,173.0958,,Tasman District
7049,Murchison,Tasman,South Island,-41.8003,172.3257,,Tasman District
7050,Richmond,Tasman,South Island,-41.3385,173.1848,,Tasman District
7051,Brightwater,Tasman,South Island,-41.3765,173.11,,Tasman District
7052,Wakefield,Tasman,South Island,-41.4062,173.0428,,Tasman District
7053,Saint Arnaud,Tasman,South Island,-41.8025,172.8462,,Tasman District
7054,Collingwood,Tasman,South Island,-40.6764,172.6823,,Tasman District
7055,Tapawera,Tasman,South Island,-41.389,172.8237,,Tasman District
7071,Hira,Nelson,South Island,-41.1983,173.4167,,Nelson City
7072,Lake Rotoroa,Tasman,South Island,-41.8618,172.678,,Tasman District
7073,Baton,Tasman,South Island,-41.1442,172.5673,,Tasman District
7077,Matakitaki,Tasman,South Island,-41.941,172.433,,Tasman District
7081,Richmond,Nelson,South Island,-41.3498,173.1862,,Nelson City
7091,Brightwater,Tasman,South Island,-41.4317,173.1111,,Tasman District
7095,Hiwipango,Tasman,South Island,-41.5222,172.9526,,Tasman District
7096,Motupiko,Tasman,South Island,-41.4449,172.8166,,Tasman District
7100,Havelock,Marlborough,South Island,-41.2818,173.7574,,Marlborough District
7110,Takaka,Tasman,South Island,-40.8562,172.8102,,Tasman District
7120,Lower Moutere,Tasman,South Island,-41.1188,173.0119,,Tasman
7120,Motueka,Tasman,South Island,-41.1188,173.0119,,Tasman
7120,Port Motueka,Tasman,South Island,-41.1188,173.0119,,Tasman District
7142,Takaka,Tasman,South Island,-40.8595,172.8059,,Tasman District
7143,Port Motueka,Tasman,South Island,-41.1127,173.0112,,Tasman District
7144,Upper Moutere,Tasman,South Island,-41.2696,173.0061,,Tasman District
7145,Rai Valley,Marlborough,South Island,-41.228,173.5831,,Marlborough District
7146,Riwaka,Tasman,South Island,-41.085,172.9971,,Tasman District
7150,Havelock,Marlborough,South Island,-41.2786,173.767,,Marlborough District
7173,Mahana,Tasman,South Island,-41.2375,173.0318,,Tasman District
7175,Braeburn,Tasman,South Island,-41.2153,172.9868,,Tasman District
7178,Havelock,Marlborough,South Island,-41.3084,173.7316,,Marlborough District
7182,Onekaka,Tasman,South Island,-40.7728,172.737,,Tasman District
7183,East Takaka,Tasman,South Island,-40.9481,172.8863,,Tasman District
7192,Tinline,Marlborough,South Island,-41.2755,173.5246,,Marlborough District
7193,Kapowai,Marlborough,South Island,-40.9131,173.8039,,Marlborough District
7194,Rai Valley,Marlborough,South Island,-41.1742,173.6329,,Marlborough District
7195,Tira-ora,Marlborough,South Island,-41.1272,173.8206,,Marlborough District
7196,Ngatimoti,Tasman,South Island,-41.2123,172.8726,,Tasman District
7197,Sandy Bay,Tasman,South Island,-41.0172,172.9848,,Tasman District
7198,Kairuru,Tasman,South Island,-41.0302,172.9351,,Tasman District
7201,Blenheim Central,Marlborough,South Island,-41.5456,173.9572,,Marlborough
7201,Islington,Marlborough,South Island,-41.5456,173.9572,,Marlborough
7201,Mayfield,Marlborough,South Island,-41.5456,173.9572,,Marlborough
7201,Omaka,Marlborough,South Island,-41.5456,173.9572,,Marlborough
7201,Redwoodtown,Marlborough,South Island,-41.5456,173.9572,,Marlborough
7201,Riversdale,Marlborough,South Island,-41.5456,173.9572,,Marlborough
7201,Springlands,Marlborough,South Island,-41.5456,173.9572,,Marlborough
7201,Taylor Pass,Marlborough,South Island,-41.5456,173.9572,,Marlborough
7201,Thomsons Ford,Marlborough,South Island,-41.5456,173.9572,,Marlborough
7201,Witherlea,Marlborough,South Island,-41.5456,173.9572,,Marlborough District
7201,Yelverton,Marlborough,South Island,-41.5456,173.9572,,Marlborough
7202,Grovetown,Marlborough,South Island,-41.4767,173.9648,,Marlborough District
7202,Spring Creek,Marlborough,South Island,-41.4767,173.9648,,Marlborough
7204,Hawkesbury,Marlborough,South Island,-41.5056,173.8293,,Marlborough
7204,Renwick,Marlborough,South Island,-41.5056,173.8293,,Marlborough District
7206,Renwick,Marlborough,South Island,-41.5149,173.8649,,Marlborough District
7206,Woodbourne,Marlborough,South Island,-41.5149,173.8649,,Marlborough
7210,Seddon,Marlborough,South Island,-41.6695,174.071,,Marlborough District
7220,Picton,Marlborough,South Island,-41.2933,174.0192,,Marlborough District
7220,Waikawa,Marlborough,South Island,-41.2933,174.0192,,Marlborough
7240,Witherlea,Marlborough,South Island,-41.5137,173.9573,,Marlborough District
7241,Blenheim,Marlborough,South Island,-41.5093,173.9353,,Marlborough District
7242,Witherlea,Marlborough,South Island,-41.5301,173.9552,,Marlborough District
7243,Renwick,Marlborough,South Island,-41.5077,173.8276,,Marlborough District
7244,Spring Creek,Marlborough,South Island,-41.4611,173.9618,,Marlborough District
7246,Tuamarina,Marlborough,South Island,-41.4301,173.9632,,Marlborough District
7247,Seddon,Marlborough,South Island,-41.6736,174.076,,Marlborough District
7248,Ward,Marlborough,South Island,-41.8292,174.1308,,Marlborough District
7250,Picton,Marlborough,South Island,-41.2913,174.007,,Marlborough District
7251,Waikawa,Marlborough,South Island,-41.2669,174.0483,,Marlborough District
7260,Kekerengu,Canterbury,South Island,-42.0033,174.0105,,Kaikoura District
7271,Hillersden,Marlborough,South Island,-41.7462,173.4386,,Marlborough District
7272,Renwick,Marlborough,South Island,-41.5682,173.8533,,Marlborough District
7273,Tuamarina,Marlborough,South Island,-41.4053,173.9266,,Marlborough District
7274,Upcot,Marlborough,South Island,-41.9176,173.5384,,Marlborough District
7275,Te Rou,Marlborough,South Island,-41.467,173.3532,,Marlborough District
7276,Avondale,Marlborough,South Island,-41.7268,173.509,,Marlborough District
7281,Waikawa,Marlborough,South Island,-41.2286,174.0824,,Marlborough District
7282,Manaroa,Marlborough,South Island,-41.1392,174.0599,,Marlborough District
7284,Whakatahuri,Marlborough,South Island,-41.0251,174.083,,Marlborough District
7285,Taimate,Marlborough,South Island,-41.7703,174.0725,,Marlborough District
7300,Kaikoura,Canterbury,South Island,-42.4066,173.6889,,Kaikoura
7300,Kaikoura Flat,Canterbury,South Island,-42.4066,173.6889,,Kaikoura
7300,Kaikoura Peninsula,Canterbury,South Island,-42.4066,173.6889,,Kaikoura
7300,South Bay,Canterbury,South Island,-42.4066,173.6889,,Kaikoura
7300,Waioruarangi,Canterbury,South Island,-42.4066,173.6889,,Kaikoura District
7310,Cheviot,Canterbury,South Island,-42.8133,173.2755,,Hurunui District
7332,Waiau,Canterbury,South Island,-42.6533,173.0461,,Hurunui District
7334,Hanmer Forest Park,Canterbury,South Island,-42.5167,172.8222,,Hurunui
7334,Hanmer Springs,Canterbury,South Island,-42.5167,172.8222,,Hurunui District
7340,Kaikoura Suburban,Canterbury,South Island,-42.3891,173.6637,,Kaikoura District
7341,Cheviot,Canterbury,South Island,-42.8123,173.2738,,Hurunui District
7343,Waiau,Canterbury,South Island,-42.6555,173.0396,,Hurunui District
7345,Culverden,Canterbury,South Island,-42.7747,172.8473,,Hurunui District
7348,Hawarden,Canterbury,South Island,-42.9236,172.6428,,Hurunui District
7360,Hanmer Springs,Canterbury,South Island,-42.5213,172.8294,,Hurunui District
7371,Langridge,Canterbury,South Island,-42.1653,173.5325,,Kaikoura District
7373,Charwell Forks,Canterbury,South Island,-42.4375,173.3735,,Hurunui District
7374,Goose Bay,Canterbury,South Island,-42.4831,173.5086,,Kaikoura District
7379,Waiau,Canterbury,South Island,-42.6926,173.0303,,Hurunui District
7381,Spotswood,Canterbury,South Island,-42.7774,173.2882,,Hurunui District
7382,Ethelton,Canterbury,South Island,-42.7904,173.1121,,Hurunui District
7383,Domett,Canterbury,South Island,-42.885,173.2276,,Hurunui District
7384,Hawkeswood,Canterbury,South Island,-42.6505,173.3387,,Hurunui District
7385,Masons Flat,Canterbury,South Island,-42.7342,172.4233,,Hurunui District
7387,Tormore,Canterbury,South Island,-42.9805,173.0928,,Hurunui District
7391,Rotherham,Canterbury,South Island,-42.76,172.9548,,Hurunui District
7392,Hanmer Springs,Canterbury,South Island,-42.5739,172.5659,,Hurunui District
7395,Hanmer Springs,Canterbury,South Island,-42.4038,172.8612,,Hurunui District
7400,Bells,Canterbury,South Island,-43.3058,172.5992,,Waimakariri District
7400,Fernside,Canterbury,South Island,-43.3058,172.5992,,Waimakariri
7400,Rangiora,Canterbury,South Island,-43.3058,172.5992,,Waimakariri
7400,Tuahiwi,Canterbury,South Island,-43.3058,172.5992,,Waimakariri
7400,Waikuku,Canterbury,South Island,-43.3058,172.5992,,Waimakariri
7402,Waikuku,Canterbury,South Island,-43.2838,172.7162,,Waimakariri
7402,Waikuku Beach,Canterbury,South Island,-43.2838,172.7162,,Waimakariri District
7410,Amberley,Canterbury,South Island,-43.1451,172.7382,,Hurunui District
7420,Waikari,Canterbury,South Island,-42.9673,172.692,,Hurunui District
7430,Oxford,Canterbury,South Island,-43.2993,172.1896,,Waimakariri District
7430,Starvation Hill,Canterbury,South Island,-43.2993,172.1896,,Waimakariri
7440,Bells,Canterbury,South Island,-43.3035,172.5954,,Waimakariri District
7441,Amberley,Canterbury,South Island,-43.1546,172.7302,,Hurunui District
7442,Waikari,Canterbury,South Island,-42.9672,172.6851,,Hurunui District
7443,Oxford,Canterbury,South Island,-43.2977,172.194,,Waimakariri District
7444,Cust,Canterbury,South Island,-43.3114,172.3793,,Waimakariri District
7445,Sefton,Canterbury,South Island,-43.2486,172.6683,,Waimakariri District
7446,Leithfield,Canterbury,South Island,-43.2104,172.7539,,Hurunui District
7447,Waipara,Canterbury,South Island,-43.0598,172.7558,,Hurunui District
7448,Waikuku Beach,Canterbury,South Island,-43.2867,172.7164,,Waimakariri District
7471,West Eyreton,Canterbury,South Island,-43.356,172.3985,,Waimakariri District
7472,North Loburn,Canterbury,South Island,-43.1561,172.5438,,Waimakariri District
7473,Waikuku,Canterbury,South Island,-43.2928,172.6558,,Waimakariri District
7474,North Loburn,Canterbury,South Island,-43.2203,172.3884,,Waimakariri District
7481,Amberley,Canterbury,South Island,-43.1628,172.7248,,Waimakariri District
7482,Waipara,Canterbury,South Island,-43.101,172.6438,,Hurunui District
7483,Omihi,Canterbury,South Island,-43.0041,172.8703,,Hurunui District
7491,Waikari,Canterbury,South Island,-42.973,172.6468,,Hurunui District
7495,Oxford,Canterbury,South Island,-43.2101,172.1779,,Waimakariri District
7500,Sheffield,Canterbury,South Island,-43.3895,172.0202,,Selwyn District
7510,Darfield,Canterbury,South Island,-43.4859,172.1154,,Selwyn District
7520,Akaroa,Canterbury,South Island,-43.8126,172.9632,,Christchurch City
7540,Sheffield,Canterbury,South Island,-43.3872,172.0163,,Christchurch City
7541,Darfield,Canterbury,South Island,-43.4898,172.1106,,Selwyn District
7542,Akaroa,Canterbury,South Island,-43.8053,172.9668,,Christchurch City
7543,Kirwee,Canterbury,South Island,-43.5009,172.2168,,Selwyn District
7544,Hororata,Canterbury,South Island,-43.5436,171.9775,,Selwyn District
7545,Duvauchelle,Canterbury,South Island,-43.7503,172.9324,,Christchurch City
7546,Little River,Canterbury,South Island,-43.7703,172.791,,Christchurch City
7548,Doyleston,Canterbury,South Island,-43.748,172.3276,,Selwyn District
7571,Hawkins,Canterbury,South Island,-43.4717,172.0706,,Selwyn District
7572,Lake Coleridge,Canterbury,South Island,-43.2868,171.6068,,Selwyn District
7580,Craigieburn,Canterbury,South Island,-43.1316,171.8273,,Selwyn District
7581,Akaroa,Canterbury,South Island,-43.8041,172.9815,,Christchurch City
7582,Wainui,Canterbury,South Island,-43.8233,172.9051,,Christchurch City
7583,Robinsons Bay,Canterbury,South Island,-43.7354,172.9876,,Christchurch City
7591,Ataahua,Canterbury,South Island,-43.7998,172.6341,,Christchurch City
7600,Burnham,Canterbury,South Island,-43.6162,172.2987,,Selwyn District
7602,Southbridge,Canterbury,South Island,-43.804,172.2416,,Selwyn District
7604,Prebbleton,Canterbury,South Island,-43.583,172.5143,,Selwyn District
7608,Lincoln,Canterbury,South Island,-43.6416,172.4835,,Selwyn District
7610,Tuahiwi,Canterbury,South Island,-43.3206,172.6648,,Waimakariri
7610,Woodend,Canterbury,South Island,-43.3206,172.6648,,Waimakariri District
7610,Woodend Beach,Canterbury,South Island,-43.3206,172.6648,,Waimakariri
7614,Rolleston,Canterbury,South Island,-43.6013,172.377,,Selwyn District
7616,Springston,Canterbury,South Island,-43.6444,172.4224,,Selwyn District
7630,Camside,Canterbury,South Island,-43.3848,172.6766,,Waimakariri
7630,Kaiapoi,Canterbury,South Island,-43.3848,172.6766,,Waimakariri District
7630,Kairaki Beach,Canterbury,South Island,-43.3848,172.6766,,Waimakariri
7630,Pines Beach,Canterbury,South Island,-43.3848,172.6766,,Waimakariri
7632,Leeston,Canterbury,South Island,-43.7612,172.2977,,Selwyn District
7640,Lincoln,Canterbury,South Island,-43.6405,172.4841,,Selwyn District
7641,Woodend,Canterbury,South Island,-43.3224,172.6659,,Waimakariri District
7642,Southbridge,Canterbury,South Island,-43.8115,172.2516,,Selwyn District
7643,Rolleston,Canterbury,South Island,-43.5927,172.376,,Selwyn District
7644,Kaiapoi,Canterbury,South Island,-43.3825,172.6588,,Waimakariri District
7645,Tai Tapu,Canterbury,South Island,-43.6618,172.5484,,Selwyn District
7646,Coalgate,Canterbury,South Island,-43.4833,171.9644,,Selwyn District
7647,Lincoln,Canterbury,South Island,-43.643,172.4691,,Selwyn District
7649,Springfield,Canterbury,South Island,-43.3371,171.9272,,Selwyn District
7656,Leeston,Canterbury,South Island,-43.7636,172.296,,Selwyn District
7657,Dunsandel,Canterbury,South Island,-43.6591,172.1964,,Selwyn District
7670,Coutts Island,Canterbury,South Island,-43.4325,172.589,,Christchurch City
7671,Aylesbury,Canterbury,South Island,-43.5419,172.213,,Christchurch City
7672,Motukarara,Canterbury,South Island,-43.7012,172.6222,,Christchurch City
7673,Whitecliffs,Canterbury,South Island,-43.4603,171.8825,,Selwyn District
7674,Springston South,Canterbury,South Island,-43.7046,172.4643,,Christchurch City
7675,Rolleston,Canterbury,South Island,-43.5966,172.3476,,Selwyn District
7676,Templeton,Canterbury,South Island,-43.5524,172.4438,,Selwyn District
7681,Springfield,Canterbury,South Island,-43.3295,171.9412,,Selwyn District
7682,Dunsandel,Canterbury,South Island,-43.6886,172.1913,,Selwyn District
7683,Southbridge,Canterbury,South Island,-43.7963,172.2491,,Selwyn District
7691,Flaxton,Canterbury,South Island,-43.3547,172.6477,,Waimakariri District
7692,Wetheral,Canterbury,South Island,-43.3948,172.5762,,Waimakariri District
7700,Allenton,Canterbury,South Island,-43.898,171.745,,Ashburton District
7700,Elgin,Canterbury,South Island,-43.898,171.745,,Ashburton
7700,Hampstead,Canterbury,South Island,-43.898,171.745,,Ashburton
7700,Netherby,Canterbury,South Island,-43.898,171.745,,Ashburton
7700,Tinwald,Canterbury,South Island,-43.898,171.745,,Ashburton
7710,Rakaia,Canterbury,South Island,-43.7547,172.0272,,Ashburton District
7730,Methven,Canterbury,South Island,-43.6323,171.6437,,Ashburton District
7740,Hampstead,Canterbury,South Island,-43.903,171.7503,,Ashburton District
7741,Tinwald,Canterbury,South Island,-43.92,171.7206,,Ashburton District
7742,Allenton,Canterbury,South Island,-43.8874,171.7427,,Ashburton District
7743,Rakaia,Canterbury,South Island,-43.7551,172.0207,,Ashburton District
7745,Methven,Canterbury,South Island,-43.6332,171.6468,,Ashburton District
7746,Mount Somers,Canterbury,South Island,-43.7058,171.402,,Ashburton District
7747,Hinds,Canterbury,South Island,-44.0032,171.5687,,Ashburton District
7748,Mayfield,Canterbury,South Island,-43.8208,171.4225,,Ashburton District
7771,Staveley,Canterbury,South Island,-43.5078,171.1763,,Ashburton District
7772,Mitcham,Canterbury,South Island,-43.7966,171.8593,,Ashburton District
7773,Hinds,Canterbury,South Island,-44.0609,171.5171,,Ashburton District
7774,Flemington,Canterbury,South Island,-44.0196,171.7093,,Ashburton District
7775,Lismore,Canterbury,South Island,-43.9232,171.471,,Ashburton District
7776,Lyndhurst,Canterbury,South Island,-43.7501,171.6736,,Ashburton District
7777,Seafield,Canterbury,South Island,-43.9445,171.9202,,Ashburton District
7778,Mayfield,Canterbury,South Island,-43.8003,171.4252,,Ashburton District
7781,Dorie,Canterbury,South Island,-43.8524,172.0759,,Ashburton District
7782,Highbank,Canterbury,South Island,-43.5682,171.7097,,Selwyn District
7783,Te Pirita,Canterbury,South Island,-43.677,171.9801,,Selwyn District
7784,Somerton,Canterbury,South Island,-43.7301,171.9081,,Ashburton District
7791,Lake Coleridge,Canterbury,South Island,-43.3864,171.332,,Ashburton District
7802,Coal Creek,West Coast,South Island,-42.4169,171.2586,,Grey
7802,Cobden,West Coast,South Island,-42.4169,171.2586,,Grey
7802,Point Elizabeth,West Coast,South Island,-42.4169,171.2586,,Grey
7802,Runanga,West Coast,South Island,-42.4169,171.2586,,Grey District
7803,Nine Mile,West Coast,South Island,-42.3888,171.2964,,Grey
7803,Rapahoe,West Coast,South Island,-42.3888,171.2964,,Grey
7803,Rewanui,West Coast,South Island,-42.3888,171.2964,,Grey District
7803,Runanga,West Coast,South Island,-42.3888,171.2964,,Grey
7804,Blackball,West Coast,South Island,-42.382,171.372,,Grey
7804,Coal Creek,West Coast,South Island,-42.382,171.372,,Grey
7804,Roa,West Coast,South Island,-42.382,171.372,,Grey District
7805,Blaketown,West Coast,South Island,-42.5254,171.2455,,Grey
7805,Camerons,West Coast,South Island,-42.5254,171.2455,,Grey
7805,Dobson,West Coast,South Island,-42.5254,171.2455,,Grey
7805,Dunganville,West Coast,South Island,-42.5254,171.2455,,Grey
7805,Greymouth,West Coast,South Island,-42.5254,171.2455,,Grey
7805,Hohonu,West Coast,South Island,-42.5254,171.2455,,Grey
7805,Kaiata,West Coast,South Island,-42.5254,171.2455,,Grey
7805,Karoro,West Coast,South Island,-42.5254,171.2455,,Grey
7805,Marsden,West Coast,South Island,-42.5254,171.2455,,Grey District
7805,Rutherglen,West Coast,South Island,-42.5254,171.2455,,Grey
7805,South Beach,West Coast,South Island,-42.5254,171.2455,,Grey
7805,Taylorville,West Coast,South Island,-42.5254,171.2455,,Grey
7810,Hokitika,West Coast,South Island,-42.7183,170.9651,,Westland District
7811,Kaniere,West Coast,South Island,-42.7416,171.0127,,Westland District
7811,Kokatahi,West Coast,South Island,-42.7416,171.0127,,Westland
7812,Ross,West Coast,South Island,-42.9461,170.8147,,Westland District
7822,Hector,West Coast,South Island,-41.6077,171.8763,,Buller District
7822,Ngakawau,West Coast,South Island,-41.6077,171.8763,,Buller
7823,Granity,West Coast,South Island,-41.6302,171.8502,,Buller District
7823,Waimangaroa,West Coast,South Island,-41.6302,171.8502,,Buller
7825,Cape Foulwind,West Coast,South Island,-41.7486,171.5903,,Buller
7825,Carters Beach,West Coast,South Island,-41.7486,171.5903,,Buller District
7825,Westport,West Coast,South Island,-41.7486,171.5903,,Buller
7830,Reefton,West Coast,South Island,-42.1122,171.8582,,Buller District
7832,Awatuna,West Coast,South Island,-42.6217,171.1725,,Westland
7832,Kumara,West Coast,South Island,-42.6217,171.1725,,Westland District
7832,Kumara Junction,West Coast,South Island,-42.6217,171.1725,,Westland
7840,Cobden,West Coast,South Island,-42.4491,171.2108,,Grey District
7841,Runanga,West Coast,South Island,-42.402,171.2522,,Grey District
7842,Hokitika,West Coast,South Island,-42.7172,170.9614,,Westland District
7843,Ahaura,West Coast,South Island,-42.3486,171.5407,,Grey District
7844,Haast,West Coast,South Island,-43.862,169.0035,,Westland District
7845,Moana,West Coast,South Island,-42.5722,171.483,,Grey District
7846,Ikamatua,West Coast,South Island,-42.2712,171.6849,,Buller District
7847,Springs Junction,West Coast,South Island,-42.3351,172.182,,Buller District
7848,Waimangaroa,West Coast,South Island,-41.714,171.763,,Buller District
7851,Reefton,West Coast,South Island,-42.1194,171.8648,,Buller District
7856,Franz Josef/Waiau,West Coast,South Island,-43.3888,170.182,,Westland District
7857,Whataroa,West Coast,South Island,-43.262,170.3604,,Westland District
7859,Weheka,West Coast,South Island,-43.4655,170.0172,,Westland District
7860,Ross,West Coast,South Island,-42.8988,170.8167,,Westland District
7861,Kumara,West Coast,South Island,-42.63,171.1859,,Westland District
7862,Maruia,West Coast,South Island,-42.1885,172.2204,,Westland District
7863,Harihari,West Coast,South Island,-43.1491,170.5572,,Westland District
7864,Market Cross,West Coast,South Island,-41.2514,172.1284,,Buller District
7865,Charleston,West Coast,South Island,-41.9073,171.4381,,Buller District
7866,Carters Beach,West Coast,South Island,-41.7557,171.599,,Buller District
7867,Hector,West Coast,South Island,-41.6068,171.8779,,Buller District
7871,Ikamatua,West Coast,South Island,-42.2476,171.6635,,Buller District
7872,Bell Hill,West Coast,South Island,-42.5384,171.717,,Grey District
7873,Barrytown,West Coast,South Island,-42.2469,171.3227,,Grey District
7875,Aickens,West Coast,South Island,-42.8109,171.6001,,Grey District
7881,Kowhitirangi,West Coast,South Island,-42.907,171.138,,Westland District
7882,Goldsborough,West Coast,South Island,-42.6852,171.1127,,Westland District
7883,Kowhitirangi,West Coast,South Island,-42.886,170.9152,,Westland District
7884,Harihari,West Coast,South Island,-43.1353,170.6262,,Westland District
7885,Fergusons,West Coast,South Island,-43.0658,170.8442,,Westland District
7886,Mahitahi,West Coast,South Island,-43.7673,169.3817,,Westland District
7891,Mokihinui Mine,West Coast,South Island,-41.5514,172.0406,,Buller District
7892,Te Kuha,West Coast,South Island,-41.8946,171.5678,,Buller District
7893,Oparara,West Coast,South Island,-41.2059,172.1609,,Buller District
7895,Crushington,West Coast,South Island,-42.1053,172.0272,,Buller District
7901,Ben Ohau,Canterbury,South Island,-44.262,170.0746,,Mackenzie
7901,Ohau,Canterbury,South Island,-44.262,170.0746,,Mackenzie
7901,Twizel,Canterbury,South Island,-44.262,170.0746,,Mackenzie District
7903,Pleasant Point,Canterbury,South Island,-44.2585,171.1305,,Timaru District
7903,Totara Valley,Canterbury,South Island,-44.2585,171.1305,,Timaru
7910,Fairview,Canterbury,South Island,-44.3864,171.2285,,Timaru
7910,Gleniti,Canterbury,South Island,-44.3864,171.2285,,Timaru
7910,Glenwood,Canterbury,South Island,-44.3864,171.2285,,Timaru
7910,Highfield,Canterbury,South Island,-44.3864,171.2285,,Timaru
7910,Kensington,Canterbury,South Island,-44.3864,171.2285,,Timaru
7910,Maori Park,Canterbury,South Island,-44.3864,171.2285,,Timaru
7910,Marchwiel,Canterbury,South Island,-44.3864,171.2285,,Timaru
7910,Oceanview,Canterbury,South Island,-44.3864,171.2285,,Timaru
7910,Otipua Creek,Canterbury,South Island,-44.3864,171.2285,,Timaru
7910,Parkside,Canterbury,South Island,-44.3864,171.2285,,Timaru
7910,Redruth,Canterbury,South Island,-44.3864,171.2285,,Timaru
7910,Scarborough,Canterbury,South Island,-44.3864,171.2285,,Timaru
7910,Seaview,Canterbury,South Island,-44.3864,171.2285,,Timaru District
7910,Timaru Central,Canterbury,South Island,-44.3864,171.2285,,Timaru
7910,Timaru Port,Canterbury,South Island,-44.3864,171.2285,,Timaru
7910,Waimataitai,Canterbury,South Island,-44.3864,171.2285,,Timaru
7910,Washdyke,Canterbury,South Island,-44.3864,171.2285,,Timaru
7910,Washdyke Flat,Canterbury,South Island,-44.3864,171.2285,,Timaru
7910,Watlington,Canterbury,South Island,-44.3864,171.2285,,Timaru
7910,West End,Canterbury,South Island,-44.3864,171.2285,,Timaru
7912,Kingsdown,Canterbury,South Island,-44.4875,171.2097,,Timaru
7912,Pareora,Canterbury,South Island,-44.4875,171.2097,,Timaru District
7920,Temuka,Canterbury,South Island,-44.2374,171.2852,,Timaru District
7924,Waimate,Canterbury,South Island,-44.7318,171.0476,,Waimate District
7925,Fairlie,Canterbury,South Island,-44.0947,170.8289,,Mackenzie District
7930,Denfield,Canterbury,South Island,-44.0934,171.242,,Timaru
7930,Geraldine,Canterbury,South Island,-44.0934,171.242,,Timaru District
7940,Timaru,Canterbury,South Island,-44.395,171.2532,,Timaru District
7941,Puhuka,Canterbury,South Island,-44.3563,171.238,,Timaru District
7942,Parkside,Canterbury,South Island,-44.3906,171.2445,,Timaru District
7943,Kensington,Canterbury,South Island,-44.4053,171.2344,,Timaru District
7944,Twizel,Canterbury,South Island,-44.258,170.1,,Mackenzie District
7945,Lake Tekapo,Canterbury,South Island,-44.0043,170.4772,,Mackenzie District
7946,Glentanner,Canterbury,South Island,-43.7327,170.0938,,Mackenzie District
7947,Pleasant Point,Canterbury,South Island,-44.2601,171.1275,,Timaru District
7948,Temuka,Canterbury,South Island,-44.244,171.2773,,Timaru District
7949,Fairlie,Canterbury,South Island,-44.0984,170.8295,,Mackenzie District
7956,Geraldine,Canterbury,South Island,-44.0912,171.2436,,Timaru District
7957,Cave,Canterbury,South Island,-44.3103,170.9524,,Timaru District
7958,Winchester,Canterbury,South Island,-44.1851,171.2782,,Timaru District
7960,Waimate,Canterbury,South Island,-44.7334,171.0476,,Waimate District
7971,Esk Valley,Canterbury,South Island,-44.53,171.086,,Waimate District
7972,Southburn,Canterbury,South Island,-44.4575,171.0532,,Timaru District
7973,Seadown,Canterbury,South Island,-44.3175,171.2918,,Timaru District
7974,Claremont,Canterbury,South Island,-44.3314,171.124,,Timaru District
7977,Waihaorunga,Canterbury,South Island,-44.7324,170.8388,,Waimate District
7978,Waimate,Canterbury,South Island,-44.6945,171.0101,,Waimate District
7979,Waihao Forks,Canterbury,South Island,-44.8281,170.9906,,Waimate District
7980,Morven,Canterbury,South Island,-44.8219,171.1192,,Waimate District
7982,Hazelburn,Canterbury,South Island,-44.2151,170.9986,,Timaru District
7983,Sutherlands,Canterbury,South Island,-44.2887,171.0431,,Timaru District
7984,Mawaro,Canterbury,South Island,-44.3312,170.8526,,Waimate District
7985,Waitohi Flat,Canterbury,South Island,-44.204,171.1929,,Timaru District
7986,Orton,Canterbury,South Island,-44.1694,171.3866,,Timaru District
7987,Waikarua,Canterbury,South Island,-44.0577,170.8816,,Mackenzie District
7988,Esk Valley,Canterbury,South Island,-44.5216,171.0694,,Waimate District
7990,Sherwood Downs,Canterbury,South Island,-43.6686,170.9233,,Timaru District
7991,Te Moana,Canterbury,South Island,-44.0601,171.108,,Timaru District
7992,Arundel,Canterbury,South Island,-44.0184,171.2776,,Timaru District
7999,Ben Ohau,Canterbury,South Island,-43.9781,170.1682,,Timaru
7999,Burkes Pass,Canterbury,South Island,-43.9781,170.1682,,Timaru
7999,Cattle Creek,Canterbury,South Island,-43.9781,170.1682,,Timaru
7999,Glentanner,Canterbury,South Island,-43.9781,170.1682,,Timaru District
7999,Huxley Gorge,Canterbury,South Island,-43.9781,170.1682,,Timaru
7999,Mount Cook,Canterbury,South Island,-43.9781,170.1682,,Timaru
7999,Mount Cook National Park,Canterbury,South Island,-43.9781,170.1682,,Timaru
7999,Ohau,Canterbury,South Island,-43.9781,170.1682,,Timaru
7999,Tekapo,Canterbury,South Island,-43.9781,170.1682,,Timaru
7999,Totara Peak,Canterbury,South Island,-43.9781,170.1682,,Timaru
8011,Addington,Canterbury,South Island,-43.5341,172.637,,Christchurch
8011,Christchurch,Canterbury,South Island,-43.5341,172.637,,Christchurch City
8011,Christchurch Central,Canterbury,South Island,-43.5341,172.637,,Christchurch
8011,Linwood,Canterbury,South Island,-43.5341,172.637,,Christchurch
8011,Phillipstown,Canterbury,South Island,-43.5341,172.637,,Christchurch
8011,Riccarton,Canterbury,South Island,-43.5341,172.637,,Christchurch
8011,Sydenham,Canterbury,South Island,-43.5341,172.637,,Christchurch
8011,Waltham,Canterbury,South Island,-43.5341,172.637,,Christchurch
8013,Christchurch,Canterbury,South Island,-44.5772,175.5503,,Christchurch City
8013,Christchurch Central,Canterbury,South Island,-44.5772,175.5503,,Christchurch
8013,Edgeware,Canterbury,South Island,-44.5772,175.5503,,Christchurch
8013,Mairehau,Canterbury,South Island,-44.5772,175.5503,,Christchurch
8013,Richmond,Canterbury,South Island,-44.5772,175.5503,,Christchurch
8013,Shirley,Canterbury,South Island,-44.5772,175.5503,,Christchurch
8014,Christchurch Central,Canterbury,South Island,-43.5136,172.6204,,Christchurch
8014,Fendalton,Canterbury,South Island,-43.5136,172.6204,,Christchurch
8014,Merivale,Canterbury,South Island,-43.5136,172.6204,,Christchurch
8014,Saint Albans,Canterbury,South Island,-43.5136,172.6204,,Christchurch City
8014,St Albans,Canterbury,South Island,-43.5136,172.6204,,Christchurch
8014,Strowan,Canterbury,South Island,-43.5136,172.6204,,Christchurch
8022,Cashmere,Canterbury,South Island,-43.5831,172.6644,,Christchurch
8022,Cashmere Hills,Canterbury,South Island,-43.5831,172.6644,,Christchurch City
8022,Ferrymead,Canterbury,South Island,-43.5831,172.6644,,Christchurch
8022,Governors Bay,Canterbury,South Island,-43.5831,172.6644,,Christchurch
8022,Heathcote Valley,Canterbury,South Island,-43.5831,172.6644,,Christchurch
8022,Hillsborough,Canterbury,South Island,-43.5831,172.6644,,Christchurch
8022,St Martins,Canterbury,South Island,-43.5831,172.6644,,Christchurch
8023,Beckenham,Canterbury,South Island,-43.5559,172.669,,Christchurch
8023,Bromley,Canterbury,South Island,-43.5559,172.669,,Christchurch
8023,Ferrymead,Canterbury,South Island,-43.5559,172.669,,Christchurch
8023,Hillsborough,Canterbury,South Island,-43.5559,172.669,,Christchurch City
8023,Opawa,Canterbury,South Island,-43.5559,172.669,,Christchurch
8023,Sydenham,Canterbury,South Island,-43.5559,172.669,,Christchurch
8023,Waltham,Canterbury,South Island,-43.5559,172.669,,Christchurch
8023,Woolston,Canterbury,South Island,-43.5559,172.669,,Christchurch
8024,Addington,Canterbury,South Island,-43.5565,172.6024,,Christchurch
8024,Barrington,Canterbury,South Island,-43.5565,172.6024,,Christchurch
8024,Beckenham,Canterbury,South Island,-43.5565,172.6024,,Christchurch
8024,Middleton,Canterbury,South Island,-43.5565,172.6024,,Christchurch
8024,Riccarton,Canterbury,South Island,-43.5565,172.6024,,Christchurch
8024,Sockburn,Canterbury,South Island,-43.5565,172.6024,,Christchurch
8024,Somerfield,Canterbury,South Island,-43.5565,172.6024,,Christchurch
8024,Spreydon,Canterbury,South Island,-43.5565,172.6024,,Christchurch City
8024,Sydenham,Canterbury,South Island,-43.5565,172.6024,,Christchurch
8025,Halswell,Canterbury,South Island,-43.5884,172.579,,Selwyn District
8025,Hoon Hay,Canterbury,South Island,-43.5884,172.579,,Selwyn
8025,Kennedys Bush,Canterbury,South Island,-43.5884,172.579,,Selwyn
8025,Prebbleton,Canterbury,South Island,-43.5884,172.579,,Selwyn
8025,Taitapu,Canterbury,South Island,-43.5884,172.579,,Selwyn
8025,Westmorland,Canterbury,South Island,-43.5884,172.579,,Selwyn
8025,Wigram,Canterbury,South Island,-43.5884,172.579,,Selwyn
8041,Addington,Canterbury,South Island,-43.5225,172.5813,,Christchurch
8041,Burnside,Canterbury,South Island,-43.5225,172.5813,,Christchurch
8041,Fendalton,Canterbury,South Island,-43.5225,172.5813,,Christchurch City
8041,Ilam,Canterbury,South Island,-43.5225,172.5813,,Christchurch
8041,Middleton,Canterbury,South Island,-43.5225,172.5813,,Christchurch
8041,Riccarton,Canterbury,South Island,-43.5225,172.5813,,Christchurch
8041,Upper Riccarton,Canterbury,South Island,-43.5225,172.5813,,Christchurch
8042,Avonhead,Canterbury,South Island,-43.5294,172.5174,,Selwyn
8042,Broomfield,Canterbury,South Island,-43.5294,172.5174,,Selwyn
8042,Hei Hei,Canterbury,South Island,-43.5294,172.5174,,Selwyn District
8042,Hornby,Canterbury,South Island,-43.5294,172.5174,,Selwyn
8042,Hornby South,Canterbury,South Island,-43.5294,172.5174,,Selwyn
8042,Ilam,Canterbury,South Island,-43.5294,172.5174,,Selwyn
8042,Islington,Canterbury,South Island,-43.5294,172.5174,,Selwyn
8042,Riccarton,Canterbury,South Island,-43.5294,172.5174,,Selwyn
8042,Russley,Canterbury,South Island,-43.5294,172.5174,,Selwyn
8042,Sockburn,Canterbury,South Island,-43.5294,172.5174,,Selwyn
8042,Templeton,Canterbury,South Island,-43.5294,172.5174,,Selwyn
8042,Upper Riccarton,Canterbury,South Island,-43.5294,172.5174,,Selwyn
8042,Wigram,Canterbury,South Island,-43.5294,172.5174,,Selwyn
8042,Yaldhurst,Canterbury,South Island,-43.5294,172.5174,,Selwyn
8051,Belfast,Canterbury,South Island,-43.4611,172.5247,,Christchurch
8051,Casebrook,Canterbury,South Island,-43.4611,172.5247,,Christchurch
8051,Christchurch Airport,Canterbury,South Island,-43.4611,172.5247,,Christchurch
8051,Coutts Island,Canterbury,South Island,-43.4611,172.5247,,Christchurch
8051,Harewood,Canterbury,South Island,-43.4611,172.5247,,Christchurch City
8051,Marshland,Canterbury,South Island,-43.4611,172.5247,,Christchurch
8051,Mcleans Island,Canterbury,South Island,-43.4611,172.5247,,Christchurch
8051,Northwood,Canterbury,South Island,-43.4611,172.5247,,Christchurch
8051,Redwood,Canterbury,South Island,-43.4611,172.5247,,Christchurch
8051,West Melton,Canterbury,South Island,-43.4611,172.5247,,Christchurch
8052,Belfast,Canterbury,South Island,-43.5008,172.6257,,Christchurch
8052,Bishopdale,Canterbury,South Island,-43.5008,172.6257,,Christchurch
8052,Bryndwr,Canterbury,South Island,-43.5008,172.6257,,Christchurch
8052,Fendalton,Canterbury,South Island,-43.5008,172.6257,,Christchurch
8052,Mairehau,Canterbury,South Island,-43.5008,172.6257,,Christchurch
8052,Northcote,Canterbury,South Island,-43.5008,172.6257,,Christchurch
8052,Papanui,Canterbury,South Island,-43.5008,172.6257,,Christchurch City
8052,Shirley,Canterbury,South Island,-43.5008,172.6257,,Christchurch
8052,St Albans,Canterbury,South Island,-43.5008,172.6257,,Christchurch
8052,Strowan,Canterbury,South Island,-43.5008,172.6257,,Christchurch
8053,Bishopdale,Canterbury,South Island,-43.4957,172.568,,Christchurch
8053,Burnside,Canterbury,South Island,-43.4957,172.568,,Christchurch City
8053,Casebrook,Canterbury,South Island,-43.4957,172.568,,Christchurch
8053,Christchurch Airport,Canterbury,South Island,-43.4957,172.568,,Christchurch
8053,Harewood,Canterbury,South Island,-43.4957,172.568,,Christchurch
8053,Ilam,Canterbury,South Island,-43.4957,172.568,,Christchurch
8053,Mcleans Island,Canterbury,South Island,-43.4957,172.568,,Christchurch
8053,Northcote,Canterbury,South Island,-43.4957,172.568,,Christchurch
8053,Papanui,Canterbury,South Island,-43.4957,172.568,,Christchurch
8053,Russley,Canterbury,South Island,-43.4957,172.568,,Christchurch
8053,Yaldhurst,Canterbury,South Island,-43.4957,172.568,,Christchurch
8061,Aranui,Canterbury,South Island,-43.5079,172.7022,,Christchurch City
8061,Avondale,Canterbury,South Island,-43.5079,172.7022,,Christchurch
8061,Avonside,Canterbury,South Island,-43.5079,172.7022,,Christchurch
8061,Bexley,Canterbury,South Island,-43.5079,172.7022,,Christchurch
8061,Brighton,Canterbury,South Island,-43.5079,172.7022,,Christchurch
8061,Burwood,Canterbury,South Island,-43.5079,172.7022,,Christchurch
8061,Dallington,Canterbury,South Island,-43.5079,172.7022,,Christchurch
8061,New Brighton,Canterbury,South Island,-43.5079,172.7022,,Christchurch
8061,Shirley,Canterbury,South Island,-43.5079,172.7022,,Christchurch
8061,Wainoni,Canterbury,South Island,-43.5079,172.7022,,Christchurch
8062,Brighton,Canterbury,South Island,-43.541,172.71,,Christchurch
8062,Bromley,Canterbury,South Island,-43.541,172.71,,Christchurch City
8062,Linwood,Canterbury,South Island,-43.541,172.71,,Christchurch
8062,New Brighton,Canterbury,South Island,-43.541,172.71,,Christchurch
8062,Phillipstown,Canterbury,South Island,-43.541,172.71,,Christchurch
8062,South New Brighton,Canterbury,South Island,-43.541,172.71,,Christchurch
8062,Southshore,Canterbury,South Island,-43.541,172.71,,Christchurch
8062,Woolston,Canterbury,South Island,-43.541,172.71,,Christchurch
8081,Ferrymead,Canterbury,South Island,-43.5753,172.7589,,Christchurch
8081,Heathcote Valley,Canterbury,South Island,-43.5753,172.7589,,Christchurch
8081,Mt Pleasant,Canterbury,South Island,-43.5753,172.7589,,Christchurch
8081,Redcliffs,Canterbury,South Island,-43.5753,172.7589,,Christchurch
8081,Sumner,Canterbury,South Island,-43.5753,172.7589,,Christchurch City
8082,Cass Bay,Canterbury,South Island,-43.6024,172.7241,,Christchurch
8082,Corsair Bay,Canterbury,South Island,-43.6024,172.7241,,Christchurch
8082,Lyttelton,Canterbury,South Island,-43.6024,172.7241,,Christchurch City
8083,Belfast,Canterbury,South Island,-43.4492,172.6875,,Christchurch
8083,Bottle Lake,Canterbury,South Island,-43.4492,172.6875,,Christchurch
8083,Brighton,Canterbury,South Island,-43.4492,172.6875,,Christchurch
8083,Brooklands,Canterbury,South Island,-43.4492,172.6875,,Christchurch
8083,Burwood,Canterbury,South Island,-43.4492,172.6875,,Christchurch
8083,Kainga,Canterbury,South Island,-43.4492,172.6875,,Christchurch
8083,Marshland,Canterbury,South Island,-43.4492,172.6875,,Christchurch
8083,New Brighton,Canterbury,South Island,-43.4492,172.6875,,Christchurch
8083,North Beach,Canterbury,South Island,-43.4492,172.6875,,Christchurch
8083,Ouruhia,Canterbury,South Island,-43.4492,172.6875,,Christchurch City
8083,Parklands,Canterbury,South Island,-43.4492,172.6875,,Christchurch
8083,Shirley,Canterbury,South Island,-43.4492,172.6875,,Christchurch
8083,Styx,Canterbury,South Island,-43.4492,172.6875,,Christchurch
8083,Waimairi Beach,Canterbury,South Island,-43.4492,172.6875,,Christchurch
8140,Christchurch,Canterbury,South Island,-43.5319,172.6316,,Christchurch City
8141,Christchurch,Canterbury,South Island,-43.5286,172.6392,,Christchurch City
8142,Christchurch,Canterbury,South Island,-43.5352,172.6403,,Christchurch City
8143,Saint Albans,Canterbury,South Island,-43.5136,172.6377,,Christchurch City
8144,Christchurch,Canterbury,South Island,-43.5241,172.6307,,Christchurch City
8145,Opawa,Canterbury,South Island,-43.5404,172.6585,,Christchurch City
8146,Saint Albans,Canterbury,South Island,-43.5127,172.622,,Christchurch City
8147,Linwood,Canterbury,South Island,-43.5302,172.6573,,Christchurch City
8148,Avonside,Canterbury,South Island,-43.5177,172.6559,,Christchurch City
8149,Spreydon,Canterbury,South Island,-43.5451,172.6083,,Christchurch City
8240,Sydenham,Canterbury,South Island,-43.5452,172.6365,,Christchurch City
8241,Woolston,Canterbury,South Island,-43.5498,172.6842,,Christchurch City
8242,Beckenham,Canterbury,South Island,-43.5579,172.6366,,Christchurch City
8243,Spreydon,Canterbury,South Island,-43.5457,172.6085,,Christchurch City
8244,Somerfield,Canterbury,South Island,-43.5571,172.6189,,Christchurch City
8245,Halswell,Canterbury,South Island,-43.5802,172.567,,Christchurch City
8246,Hillsborough,Canterbury,South Island,-43.558,172.6542,,Christchurch City
8247,Mount Pleasant,Canterbury,South Island,-43.5574,172.7026,,Christchurch City
8440,Riccarton,Canterbury,South Island,-43.5298,172.6012,,Christchurch City
8441,Hornby,Canterbury,South Island,-43.5432,172.5252,,Christchurch City
8442,Upper Riccarton,Canterbury,South Island,-43.5318,172.5723,,Christchurch City
8443,Wigram,Canterbury,South Island,-43.5384,172.5559,,Christchurch City
8444,Ilam,Canterbury,South Island,-43.5167,172.5718,,Christchurch City
8445,Templeton,Canterbury,South Island,-43.5533,172.4732,,Christchurch City
8540,Fendalton,Canterbury,South Island,-43.5177,172.5884,,Christchurch City
8542,Papanui,Canterbury,South Island,-43.4952,172.6088,,Christchurch City
8543,Harewood,Canterbury,South Island,-43.489,172.5872,,Christchurch City
8544,Harewood,Canterbury,South Island,-43.4884,172.5388,,Christchurch City
8545,Burnside,Canterbury,South Island,-43.489,172.567,,Christchurch City
8546,Belfast,Canterbury,South Island,-43.4454,172.6324,,Christchurch City
8640,Dallington,Canterbury,South Island,-43.507,172.6631,,Christchurch City
8641,New Brighton,Canterbury,South Island,-43.5073,172.7287,,Christchurch City
8642,Bromley,Canterbury,South Island,-43.533,172.6735,,Christchurch City
8643,Aranui,Canterbury,South Island,-43.5178,172.7005,,Christchurch City
8840,Sumner,Canterbury,South Island,-43.569,172.7593,,Christchurch City
8841,Lyttelton,Canterbury,South Island,-43.603,172.7223,,Christchurch City
8842,North New Brighton,Canterbury,South Island,-43.4816,172.706,,Christchurch City
8941,Diamond Harbour,Canterbury,South Island,-43.6252,172.7402,,Christchurch City
8942,Diamond Harbour,Canterbury,South Island,-45.2397,178.0457,,Chatham Island
8971,Allandale,Canterbury,South Island,-43.6438,172.6814,,Christchurch City
8972,Pigeon Bay,Canterbury,South Island,-43.658,172.8054,,Christchurch City
9010,Dalmore,Otago,South Island,-45.8366,170.5074,,Dunedin
9010,Glenleith,Otago,South Island,-45.8366,170.5074,,Dunedin
9010,Halfway Bush,Otago,South Island,-45.8366,170.5074,,Dunedin
9010,Helensburgh,Otago,South Island,-45.8366,170.5074,,Dunedin
9010,Kaikorai,Otago,South Island,-45.8366,170.5074,,Dunedin
9010,Leith Valley,Otago,South Island,-45.8366,170.5074,,Dunedin
9010,Liberton,Otago,South Island,-45.8366,170.5074,,Dunedin City
9010,Maori Hill,Otago,South Island,-45.8366,170.5074,,Dunedin
9010,Normanby,Otago,South Island,-45.8366,170.5074,,Dunedin
9010,North East Valley,Otago,South Island,-45.8366,170.5074,,Dunedin
9010,Opoho,Otago,South Island,-45.8366,170.5074,,Dunedin
9010,Pine Hill,Otago,South Island,-45.8366,170.5074,,Dunedin
9010,Roslyn,Otago,South Island,-45.8366,170.5074,,Dunedin
9010,Upper Junction,Otago,South Island,-45.8366,170.5074,,Dunedin
9010,Wakari,Otago,South Island,-45.8366,170.5074,,Dunedin
9010,Woodhaugh,Otago,South Island,-45.8366,170.5074,,Dunedin
9011,Balaclava,Otago,South Island,-45.8792,170.472,,Dunedin
9011,Belleknowes,Otago,South Island,-45.8792,170.472,,Dunedin
9011,Bradford,Otago,South Island,-45.8792,170.472,,Dunedin
9011,Brockville,Otago,South Island,-45.8792,170.472,,Dunedin
9011,Calton Hill,Otago,South Island,-45.8792,170.472,,Dunedin
9011,Caversham,Otago,South Island,-45.8792,170.472,,Dunedin
9011,Clyde Hill,Otago,South Island,-45.8792,170.472,,Dunedin
9011,Glenross,Otago,South Island,-45.8792,170.472,,Dunedin
9011,Kenmure,Otago,South Island,-45.8792,170.472,,Dunedin
9011,Lookout Point,Otago,South Island,-45.8792,170.472,,Dunedin
9011,Maryhill,Otago,South Island,-45.8792,170.472,,Dunedin
9011,Mornington,Otago,South Island,-45.8792,170.472,,Dunedin City
9011,Mount Grand,Otago,South Island,-45.8792,170.472,,Dunedin
9011,The Glen,Otago,South Island,-45.8792,170.472,,Dunedin
9012,Calton Hill,Otago,South Island,-45.9059,170.4912,,Dunedin
9012,Caversham,Otago,South Island,-45.9059,170.4912,,Dunedin
9012,Concord,Otago,South Island,-45.9059,170.4912,,Dunedin
9012,Corstorphine,Otago,South Island,-45.9059,170.4912,,Dunedin
9012,Dunedin Central,Otago,South Island,-45.9059,170.4912,,Dunedin
9012,Dunedin South,Otago,South Island,-45.9059,170.4912,,Dunedin
9012,Forbury,Otago,South Island,-45.9059,170.4912,,Dunedin
9012,Kensington,Otago,South Island,-45.9059,170.4912,,Dunedin
9012,Kew,Otago,South Island,-45.9059,170.4912,,Dunedin
9012,Saint Clair,Otago,South Island,-45.9059,170.4912,,Dunedin
9012,Saint Kilda,Otago,South Island,-45.9059,170.4912,,Dunedin City
9013,Andersons Bay,Otago,South Island,-45.8962,170.5368,,Dunedin
9013,Highcliff,Otago,South Island,-45.8962,170.5368,,Dunedin
9013,Lawyers Head,Otago,South Island,-45.8962,170.5368,,Dunedin
9013,Musselburgh,Otago,South Island,-45.8962,170.5368,,Dunedin
9013,Ocean Grove,Otago,South Island,-45.8962,170.5368,,Dunedin City
9013,Saint Kilda,Otago,South Island,-45.8962,170.5368,,Dunedin
9013,Shiel Hill,Otago,South Island,-45.8962,170.5368,,Dunedin
9013,Tainui,Otago,South Island,-45.8962,170.5368,,Dunedin
9013,Vauxhall,Otago,South Island,-45.8962,170.5368,,Dunedin
9013,Waverley,Otago,South Island,-45.8962,170.5368,,Dunedin
9014,Broad Bay,Otago,South Island,-45.8447,170.6214,,Dunedin City
9014,Company Bay,Otago,South Island,-45.8447,170.6214,,Dunedin
9014,Macandrew Bay,Otago,South Island,-45.8447,170.6214,,Dunedin
9014,Portobello,Otago,South Island,-45.8447,170.6214,,Dunedin
9016,Belleknowes,Otago,South Island,-45.8714,170.5119,,Dunedin
9016,Dunedin Central,Otago,South Island,-45.8714,170.5119,,Dunedin
9016,Dunedin North,Otago,South Island,-45.8714,170.5119,,Dunedin
9016,Dunedin South,Otago,South Island,-45.8714,170.5119,,Dunedin
9016,Mornington,Otago,South Island,-45.8714,170.5119,,Dunedin
9016,Opoho,Otago,South Island,-45.8714,170.5119,,Dunedin
9016,Roslyn,Otago,South Island,-45.8714,170.5119,,Dunedin
9016,Waverley,Otago,South Island,-45.8714,170.5119,,Dunedin City
9018,Abbotsford,Otago,South Island,-45.9004,170.4259,,Dunedin
9018,Burnside,Otago,South Island,-45.9004,170.4259,,Dunedin
9018,Chain Hills,Otago,South Island,-45.9004,170.4259,,Dunedin
9018,Concord,Otago,South Island,-45.9004,170.4259,,Dunedin
9018,Corstorphine,Otago,South Island,-45.9004,170.4259,,Dunedin
9018,Fairfield,Otago,South Island,-45.9004,170.4259,,Dunedin
9018,Green Island,Otago,South Island,-45.9004,170.4259,,Dunedin
9018,Kenmure,Otago,South Island,-45.9004,170.4259,,Dunedin
9018,Mount Grand,Otago,South Island,-45.9004,170.4259,,Dunedin
9018,Sunnyvale,Otago,South Island,-45.9004,170.4259,,Dunedin City
9018,Waldronville,Otago,South Island,-45.9004,170.4259,,Dunedin
9019,Outram,Otago,South Island,-45.8603,170.2312,,Dunedin City
9022,Maia,Otago,South Island,-45.8534,170.5626,,Dunedin City
9022,Ravensbourne,Otago,South Island,-45.8534,170.5626,,Dunedin
9022,Saint Leonards,Otago,South Island,-45.8534,170.5626,,Dunedin
9022,Sawyers Bay,Otago,South Island,-45.8534,170.5626,,Dunedin
9023,Careys Bay,Otago,South Island,-45.8185,170.6084,,Dunedin
9023,Port Chalmers,Otago,South Island,-45.8185,170.6084,,Dunedin
9023,Roseneath,Otago,South Island,-45.8185,170.6084,,Dunedin
9023,Sawyers Bay,Otago,South Island,-45.8185,170.6084,,Dunedin City
9023,Upper Junction,Otago,South Island,-45.8185,170.6084,,Dunedin
9024,Chain Hills,Otago,South Island,-45.8839,170.3552,,Dunedin
9024,East Taieri,Otago,South Island,-45.8839,170.3552,,Dunedin
9024,Kinmont Park,Otago,South Island,-45.8839,170.3552,,Dunedin
9024,Mosgiel,Otago,South Island,-45.8839,170.3552,,Dunedin City
9035,Brighton,Otago,South Island,-45.9397,170.337,,Dunedin City
9035,Westwood,Otago,South Island,-45.9397,170.337,,Dunedin
9040,Maryhill,Otago,South Island,-45.881,170.4796,,Dunedin City
9041,Opoho,Otago,South Island,-45.855,170.5192,,Dunedin City
9042,Kaikorai,Otago,South Island,-45.8579,170.4783,,Dunedin City
9043,North Dunedin,Otago,South Island,-45.8584,170.501,,Dunedin City
9044,Saint Kilda,Otago,South Island,-45.8944,170.4994,,Dunedin City
9045,Caversham,Otago,South Island,-45.8964,170.4806,,Dunedin City
9046,Tainui,Otago,South Island,-45.9003,170.5041,,Dunedin City
9047,Saint Clair,Otago,South Island,-45.9062,170.4874,,Dunedin City
9048,Portobello,Otago,South Island,-45.8394,170.6511,,Dunedin City
9049,Saint Kilda,Otago,South Island,-45.8976,170.5154,,Dunedin City
9050,Port Chalmers,Otago,South Island,-45.8157,170.6218,,Dunedin City
9052,Green Island,Otago,South Island,-45.9017,170.4296,,Dunedin City
9053,Mosgiel,Otago,South Island,-45.8758,170.3489,,Dunedin City
9054,Dunedin,Otago,South Island,-45.8777,170.5018,,Dunedin City
9058,Dunedin,Otago,South Island,-45.8724,170.5036,,Dunedin City
9059,Dunedin,Otago,South Island,-45.8661,170.5096,,Dunedin City
9062,Outram,Otago,South Island,-45.8566,170.2312,,Dunedin City
9067,Middlemarch,Otago,South Island,-45.507,170.119,,Dunedin City
9069,Waitati,Otago,South Island,-45.7457,170.5681,,Dunedin City
9073,Berwick,Otago,South Island,-45.9556,170.0903,,Dunedin City
9074,Clarks,Otago,South Island,-45.7542,170.0897,,Clutha District
9076,Wingatui,Otago,South Island,-45.8904,170.3894,,Dunedin City
9077,Portobello,Otago,South Island,-45.8414,170.6419,,Dunedin City
9081,Mihiwaka,Otago,South Island,-45.7734,170.6412,,Dunedin City
9082,Aramoana,Otago,South Island,-45.7887,170.6719,,Dunedin City
9085,Mount Cargill,Otago,South Island,-45.7894,170.5412,,Dunedin City
9091,Kuri Bush,Otago,South Island,-46.0502,170.2184,,Dunedin City
9092,Mosgiel,Otago,South Island,-45.8778,170.3416,,Dunedin City
9210,Kaitangata,Otago,South Island,-46.2799,169.841,,Clutha District
9220,Milton,Otago,South Island,-46.1224,169.9704,,Clutha District
9230,Balclutha,Otago,South Island,-46.2388,169.7372,,Clutha District
9230,Finegand,Otago,South Island,-46.2388,169.7372,,Clutha
9231,Balclutha,Otago,South Island,-46.2489,169.7761,,Clutha
9231,Inch Clutha,Otago,South Island,-46.2489,169.7761,,Clutha
9231,Stirling,Otago,South Island,-46.2489,169.7761,,Clutha District
9240,Balclutha,Otago,South Island,-46.2388,169.7388,,Clutha District
9241,Milton,Otago,South Island,-46.1225,169.9577,,Clutha District
9242,Clydevale,Otago,South Island,-46.1006,169.5278,,Clutha District
9271,Glenomaru,Otago,South Island,-46.3681,169.6834,,Clutha District
9272,Hillend,Otago,South Island,-46.1549,169.711,,Clutha District
9273,Warepa,Otago,South Island,-46.2563,169.5825,,Clutha District
9274,Greenfield,Otago,South Island,-46.1034,169.5665,,Clutha District
9281,Kaitangata,Otago,South Island,-46.2711,169.8161,,Clutha District
9282,Wangaloa,Otago,South Island,-46.2844,169.9177,,Clutha District
9291,Milburn,Otago,South Island,-46.0511,169.9467,,Clutha District
9292,Tokoiti,Otago,South Island,-46.1673,169.9725,,Clutha District
9300,Fernhill,Otago,South Island,-45.0379,168.6879,,Queenstown-Lakes
9300,Frankton,Otago,South Island,-45.0379,168.6879,,Queenstown-Lakes District
9300,Kelvin Heights,Otago,South Island,-45.0379,168.6879,,Queenstown-Lakes
9300,Queenstown,Otago,South Island,-45.0379,168.6879,,Queenstown-Lakes
9300,Sunshine Bay,Otago,South Island,-45.0379,168.6879,,Queenstown-Lakes
9302,Arrowtown,Otago,South Island,-44.9446,168.83,,Queenstown-Lakes District
9304,Lower Shotover,Otago,South Island,-45.002,168.7928,,Queenstown-Lakes District
9305,Wanaka,Otago,South Island,-44.6862,169.1274,,Queenstown-Lakes District
9310,Cromwell,Otago,South Island,-45.042,169.1991,,Central Otago District
9320,Alexandra,Otago,South Island,-45.2502,169.3859,,Central Otago
9320,Bridge Hill,Otago,South Island,-45.2502,169.3859,,Central Otago District
9330,Clyde,Otago,South Island,-45.1907,169.3237,,Central Otago District
9332,Ranfurly,Otago,South Island,-45.1272,170.1027,,Central Otago District
9340,Bridge Hill,Otago,South Island,-45.2562,169.3928,,Central Otago District
9341,Clyde,Otago,South Island,-45.187,169.3169,,Central Otago District
9342,Cromwell,Otago,South Island,-45.037,169.1977,,Central Otago District
9343,Wanaka,Otago,South Island,-44.6943,169.1392,,Queenstown-Lakes District
9344,Albert Town,Otago,South Island,-44.6826,169.1886,,Queenstown-Lakes District
9345,Lake Hawea,Otago,South Island,-44.6108,169.2564,,Queenstown-Lakes District
9346,Makarora,Otago,South Island,-44.2315,169.2322,,Queenstown-Lakes District
9347,Tarras,Otago,South Island,-44.8376,169.4117,,Central Otago District
9348,Queenstown,Otago,South Island,-45.0319,168.6622,,Queenstown-Lakes District
9349,Frankton,Otago,South Island,-45.0159,168.731,,Queenstown-Lakes District
9350,Glenorchy,Otago,South Island,-44.8498,168.3841,,Queenstown-Lakes District
9351,Arrowtown,Otago,South Island,-44.9388,168.833,,Queenstown-Lakes District
9352,Omakau,Otago,South Island,-45.0939,169.6023,,Central Otago District
9353,Ranfurly,Otago,South Island,-45.1301,170.0998,,Central Otago District
9354,Naseby,Otago,South Island,-45.0232,170.1467,,Central Otago District
9355,Wedderburn,Otago,South Island,-45.0301,170.01,,Central Otago District
9356,Mataura,Southland,South Island,-46.1943,168.866,,Gore District
9371,Upper Shotover,Otago,South Island,-44.8414,168.7167,,Queenstown-Lakes District
9372,Glenorchy,Otago,South Island,-44.7968,168.3693,,Queenstown-Lakes District
9376,Matakanui,Otago,South Island,-45.0071,169.5416,,Central Otago District
9377,Becks,Otago,South Island,-44.9861,169.7227,,Central Otago District
9381,Glendhu,Otago,South Island,-44.767,168.9844,,Central Otago District
9382,Makarora Wharf,Otago,South Island,-44.4032,168.8713,,Queenstown-Lakes District
9383,Lindis Crossing,Otago,South Island,-44.9205,169.4594,,Queenstown-Lakes District
9384,Gibbston,Otago,South Island,-45.0464,169.0655,,Central Otago District
9386,Saint Bathans,Otago,South Island,-44.8322,169.8647,,Central Otago District
9387,Moa Creek,Otago,South Island,-45.2408,169.7576,,Central Otago District
9391,Clyde,Otago,South Island,-45.192,169.294,,Central Otago District
9392,Fruitlands,Otago,South Island,-45.3788,169.3764,,Central Otago District
9393,Chatto Creek,Otago,South Island,-45.1166,169.4805,,Central Otago District
9395,Gimmerburn,Otago,South Island,-45.1302,169.961,,Central Otago District
9396,Naseby,Otago,South Island,-44.9052,170.1778,,Central Otago District
9397,Kokonga,Otago,South Island,-45.2161,170.2615,,Dunedin City
9398,Paerau,Otago,South Island,-45.3578,169.9176,,Central Otago District
9400,Ardgowan,Otago,South Island,-45.0928,170.9784,,Waitaki
9400,Awamoa,Otago,South Island,-45.0928,170.9784,,Waitaki
9400,Oamaru,Otago,South Island,-45.0928,170.9784,,Waitaki District
9400,Oamaru Central,Otago,South Island,-45.0928,170.9784,,Waitaki
9400,Oamaru North,Otago,South Island,-45.0928,170.9784,,Waitaki
9400,South Hill,Otago,South Island,-45.0928,170.9784,,Waitaki
9401,Deborah,Otago,South Island,-45.0941,170.931,,Waitaki
9401,Holmes Hill,Otago,South Island,-45.0941,170.931,,Waitaki
9401,Waiareka Junction,Otago,South Island,-45.0941,170.931,,Waitaki District
9401,Weston,Otago,South Island,-45.0941,170.931,,Waitaki
9401,Whitstone,Otago,South Island,-45.0941,170.931,,Waitaki
9410,Ben Omar,Otago,South Island,-45.3318,170.7353,,Waitaki
9410,Birchwood,Otago,South Island,-45.3318,170.7353,,Waitaki
9410,Hampden,Otago,South Island,-45.3318,170.7353,,Waitaki District
9410,Hillgrove,Otago,South Island,-45.3318,170.7353,,Waitaki
9410,Makareao,Otago,South Island,-45.3318,170.7353,,Waitaki
9410,Waianakarua,Otago,South Island,-45.3318,170.7353,,Waitaki
9410,Waynes,Otago,South Island,-45.3318,170.7353,,Waitaki
9412,Berwen,Canterbury,South Island,-44.4715,169.8719,,Waitaki District
9412,Ohau,Canterbury,South Island,-44.4715,169.8719,,Waitaki
9412,Omarama,Canterbury,South Island,-44.4715,169.8719,,Waitaki
9412,Otematata,Canterbury,South Island,-44.4715,169.8719,,Waitaki
9412,Quailburn,Canterbury,South Island,-44.4715,169.8719,,Waitaki
9430,Palmerston,Otago,South Island,-45.4816,170.7112,,Waitaki District
9435,Aviemore,Canterbury,South Island,-44.7296,170.334,,Waitaki
9435,Hakataramea,Canterbury,South Island,-44.7296,170.334,,Waitaki
9435,Kurow,Canterbury,South Island,-44.7296,170.334,,Waitaki
9435,Otiake,Canterbury,South Island,-44.7296,170.334,,Waitaki
9435,Wharekuri,Canterbury,South Island,-44.7296,170.334,,Waitaki District
9441,Roxburgh,Otago,South Island,-45.5409,169.3153,,Central Otago District
9442,Hampden,Otago,South Island,-45.3238,170.8172,,Waitaki District
9443,Palmerston,Otago,South Island,-45.4854,170.7146,,Waitaki District
9444,Oamaru,Otago,South Island,-45.0976,170.9701,,Waitaki District
9445,Duntroon,Otago,South Island,-44.8538,170.6817,,Waitaki District
9446,Kurow,Canterbury,South Island,-44.733,170.4698,,Waitaki District
9447,Otematata,Canterbury,South Island,-44.6063,170.1929,,Waitaki District
9448,Omarama,Canterbury,South Island,-44.4883,169.966,,Waitaki District
9471,Seacliff,Otago,South Island,-45.6302,170.5342,,Dunedin City
9472,Waikouaiti,Otago,South Island,-45.552,170.646,,Dunedin City
9481,Stoneburn,Otago,South Island,-45.4719,170.605,,Waitaki District
9482,Katiki,Otago,South Island,-45.4259,170.7892,,Waitaki District
9483,Macraes Flat,Otago,South Island,-45.3444,170.4595,,Waitaki District
9491,Tokarahi,Canterbury,South Island,-45.017,170.6487,,Waitaki District
9492,Kauru Hill,Otago,South Island,-45.1101,170.7251,,Waitaki District
9493,Hilderthorpe,Otago,South Island,-44.9948,171.0596,,Waitaki District
9494,Island Cliff,Otago,South Island,-44.9141,170.7018,,Waitaki District
9495,Herbert,Otago,South Island,-45.2071,170.795,,Waitaki District
9498,Kaingapai,Canterbury,South Island,-44.6013,170.5476,,Waimate District
9500,Dumbarton,Otago,South Island,-45.5421,169.2875,,Central Otago
9500,Roxburgh,Otago,South Island,-45.5421,169.2875,,Central Otago District
9500,Roxburgh East,Otago,South Island,-45.5421,169.2875,,Central Otago
9510,Waikouaiti,Otago,South Island,-45.5923,170.6938,,Dunedin City
9522,Tapanui,Otago,South Island,-45.9434,169.2597,,Clutha District
9532,Gabriels Gully,Otago,South Island,-45.9189,169.6862,,Clutha
9532,Lawrence,Otago,South Island,-45.9189,169.6862,,Clutha District
9534,Clinton,Otago,South Island,-46.202,169.379,,Clutha District
9535,Owaka,Otago,South Island,-46.4524,169.6592,,Clutha District
9541,Waikouaiti,Otago,South Island,-45.5958,170.6701,,Dunedin City
9542,Tapanui,Otago,South Island,-45.9435,169.2613,,Clutha District
9543,Lawrence,Otago,South Island,-45.9129,169.6866,,Clutha District
9544,Millers Flat,Otago,South Island,-45.6629,169.4118,,Central Otago District
9546,Owaka,Otago,South Island,-46.4511,169.6583,,Clutha District
9548,Clinton,Otago,South Island,-46.2023,169.3741,,Clutha District
9571,Roxburgh Hydro,Otago,South Island,-45.4504,169.4062,,Central Otago District
9572,Millers Flat,Otago,South Island,-45.6087,169.517,,Central Otago District
9583,Clinton,Otago,South Island,-46.312,169.2557,,Clutha District
9584,Clinton,Otago,South Island,-46.1678,169.3947,,Clutha District
9585,New Haven,Otago,South Island,-46.4584,169.704,,Clutha District
9586,Puketiro,Otago,South Island,-46.4864,169.448,,Clutha District
9587,Park Hill,Otago,South Island,-45.7378,169.2347,,Central Otago District
9588,Raes Junction,Otago,South Island,-45.7799,169.475,,Central Otago District
9591,Beaumont,Otago,South Island,-45.7898,169.6184,,Clutha District
9593,Waitahuna,Otago,South Island,-45.9805,169.7257,,Clutha District
9596,Ngapuna,Otago,South Island,-45.4417,170.1501,,Dunedin City
9597,Rocklands,Otago,South Island,-45.5953,170.0034,,Dunedin City
9598,Ngapuna,Otago,South Island,-45.5065,170.2682,,Waitaki District
9600,Te Anau,Southland,South Island,-45.4033,167.7195,,Southland District
9610,Otautau,Southland,South Island,-46.1439,167.9955,,Southland District
9620,Tuatapere,Southland,South Island,-46.1327,167.6766,,Southland District
9630,Nightcaps,Southland,South Island,-45.9708,168.0264,,Southland District
9635,Birchwood,Southland,South Island,-45.9322,167.9562,,Southland
9635,Ohai,Southland,South Island,-45.9322,167.9562,,Southland District
9640,Te Anau,Southland,South Island,-45.4152,167.7164,,Southland District
9641,Otautau,Southland,South Island,-46.1435,167.9974,,Southland District
9642,Tuatapere,Southland,South Island,-46.1332,167.6892,,Southland District
9643,Manapouri,Southland,South Island,-45.5661,167.6092,,Southland District
9644,Nightcaps,Southland,South Island,-45.9702,168.0321,,Southland District
9645,Ohai,Southland,South Island,-45.9326,167.9568,,Southland District
9672,The Key,Southland,South Island,-45.3207,168.0962,,Southland District
9679,Te Anau,Southland,South Island,-45.0353,167.5133,,Southland District
9682,Eastern Bush,Southland,South Island,-45.9426,167.7666,,Southland District
9683,Fairfax,Southland,South Island,-46.1885,168.0818,,Southland District
9689,Ngaro,Southland,South Island,-45.9004,167.9675,,Southland District
9691,Wairoto,Southland,South Island,-45.8003,167.1138,,Southland District
9710,Croydon,Southland,South Island,-46.0997,168.9357,,Gore
9710,East Gore,Southland,South Island,-46.0997,168.9357,,Gore District
9710,Gore,Southland,South Island,-46.0997,168.9357,,Gore
9710,Whiterigg,Southland,South Island,-46.0997,168.9357,,Gore
9712,Mataura,Southland,South Island,-46.1902,168.8673,,Gore District
9720,Winton,Southland,South Island,-46.1414,168.3187,,Southland District
9730,Lumsden,Southland,South Island,-45.7391,168.4462,,Southland District
9740,East Gore,Southland,South Island,-46.1,168.9448,,Gore District
9741,Winton,Southland,South Island,-46.1428,168.3247,,Southland District
9742,Lumsden,Southland,South Island,-45.7392,168.4415,,Southland District
9743,Waikaka,Southland,South Island,-45.9215,169.0145,,Southland District
9744,Riversdale,Southland,South Island,-45.9021,168.7426,,Southland District
9745,Waikaia,Southland,South Island,-45.7249,168.8484,,Southland District
9746,Balfour,Southland,South Island,-45.8377,168.5889,,Southland District
9747,Mossburn,Southland,South Island,-45.6698,168.2389,,Southland District
9748,Kingston,Otago,South Island,-45.3381,168.7237,,Queenstown-Lakes District
9749,Athol,Southland,South Island,-45.5095,168.5739,,Southland District
9750,Garston,Southland,South Island,-45.467,168.6838,,Southland District
9752,Dipton,Southland,South Island,-45.8989,168.3698,,Southland District
9771,Conical Hills,Southland,South Island,-46.0435,169.22,,Gore District
9772,Pukerau,Southland,South Island,-46.1897,169.0657,,Gore District
9773,Wendon Valley,Southland,South Island,-45.9083,168.9263,,Gore District
9774,Mataura,Southland,South Island,-46.1756,168.8082,,Southland District
9775,Waikoikoi,Southland,South Island,-45.946,169.1213,,Gore District
9776,Riversdale,Southland,South Island,-45.8847,168.7116,,Gore District
9777,Waipounamu,Southland,South Island,-45.836,168.7523,,Southland District
9778,Garston,Southland,South Island,-45.526,168.9768,,Southland District
9779,Balfour,Southland,South Island,-45.8426,168.5269,,Southland District
9781,Lochiel,Southland,South Island,-46.2018,168.3909,,Southland District
9782,Otapiri Gorge,Southland,South Island,-46.0726,168.4668,,Southland District
9783,South Hillend,Southland,South Island,-45.9932,168.1991,,Southland District
9791,Dipton,Southland,South Island,-45.9097,168.4293,,Southland District
9792,Mossburn,Southland,South Island,-45.6973,168.2036,,Southland District
9793,Kingston,Southland,South Island,-45.3967,168.6723,,Southland District
9794,Lumsden,Southland,South Island,-45.7516,168.4602,,Southland District
9810,Anderson Park,Southland,South Island,-46.3894,168.3722,,Invercargill
9810,Ascot,Southland,South Island,-46.3894,168.3722,,Invercargill
9810,Avenal,Southland,South Island,-46.3894,168.3722,,Invercargill
9810,Gladstone,Southland,South Island,-46.3894,168.3722,,Invercargill
9810,Glengarry,Southland,South Island,-46.3894,168.3722,,Invercargill
9810,Grasmere,Southland,South Island,-46.3894,168.3722,,Invercargill
9810,Hargest,Southland,South Island,-46.3894,168.3722,,Invercargill
9810,Hawthorndale,Southland,South Island,-46.3894,168.3722,,Invercargill
9810,Invercargill Airport,Southland,South Island,-46.3894,168.3722,,Invercargill
9810,Invercargill Central,Southland,South Island,-46.3894,168.3722,,Invercargill
9810,Invercargill West,Southland,South Island,-46.3894,168.3722,,Invercargill
9810,Lorneville,Southland,South Island,-46.3894,168.3722,,Invercargill
9810,Prestonville,Southland,South Island,-46.3894,168.3722,,Invercargill
9810,Queens Park,Southland,South Island,-46.3894,168.3722,,Invercargill
9810,Richmond,Southland,South Island,-46.3894,168.3722,,Invercargill
9810,Rosedale,Southland,South Island,-46.3894,168.3722,,Invercargill
9810,Turnbull Thomson,Southland,South Island,-46.3894,168.3722,,Invercargill
9810,Waihopai,Southland,South Island,-46.3894,168.3722,,Invercargill
9810,Waikiwi,Southland,South Island,-46.3894,168.3722,,Invercargill
9810,Waverley,Southland,South Island,-46.3894,168.3722,,Invercargill City
9810,Windsor,Southland,South Island,-46.3894,168.3722,,Invercargill
9812,Appleby,Southland,South Island,-46.4382,168.3764,,Invercargill
9812,Clifton,Southland,South Island,-46.4382,168.3764,,Invercargill
9812,Georgetown,Southland,South Island,-46.4382,168.3764,,Invercargill
9812,Heidelberg,Southland,South Island,-46.4382,168.3764,,Invercargill
9812,Invercargill Central,Southland,South Island,-46.4382,168.3764,,Invercargill
9812,Kew,Southland,South Island,-46.4382,168.3764,,Invercargill
9812,Kingswell,Southland,South Island,-46.4382,168.3764,,Invercargill
9812,Motu Rimu,Southland,South Island,-46.4382,168.3764,,Invercargill
9812,Newfield,Southland,South Island,-46.4382,168.3764,,Invercargill
9812,Rockdale,Southland,South Island,-46.4382,168.3764,,Invercargill
9812,Seaward Bush,Southland,South Island,-46.4382,168.3764,,Invercargill
9812,Strathern,Southland,South Island,-46.4382,168.3764,,Invercargill
9812,Tisbury,Southland,South Island,-46.4382,168.3764,,Invercargill City
9812,Woodend,Southland,South Island,-46.4382,168.3764,,Invercargill
9814,Bluff,Southland,South Island,-46.6035,168.3309,,Invercargill City
9814,Ocean Beach,Southland,South Island,-46.6035,168.3309,,Invercargill
9816,Wallacetown,Southland,South Island,-46.339,168.2904,,Southland District
9818,Halfmoon Bay (Oban),Southland,South Island,-46.9877,167.8382,,
9818,Stewart Island,Southland,South Island,-46.9877,167.8382,,
9822,Riverton,Southland,South Island,-46.3631,168.0165,,Southland District
9822,Riverton North,Southland,South Island,-46.3631,168.0165,,Southland
9822,Riverton Rocks,Southland,South Island,-46.3631,168.0165,,Southland
9822,Riverton South,Southland,South Island,-46.3631,168.0165,,Southland
9825,Edendale,Southland,South Island,-46.3084,168.7938,,Southland District
9831,Wyndham,Southland,South Island,-46.3304,168.8438,,Southland District
9840,Richmond,Southland,South Island,-46.4109,168.3511,,Invercargill City
9841,Glengarry,Southland,South Island,-46.3982,168.3658,,Invercargill City
9842,East End,Southland,South Island,-46.5991,168.3436,,Invercargill City
9843,Waikiwi,Southland,South Island,-46.3772,168.3471,,Invercargill City
9844,Strathern,Southland,South Island,-46.4276,168.3612,,Invercargill City
9845,Hawthorndale,Southland,South Island,-46.4017,168.3853,,Invercargill City
9846,Half-moon Bay,Southland,South Island,-46.8992,168.1292,,Southland District
9847,Riverton,Southland,South Island,-46.3522,168.0136,,Southland District
9848,Edendale,Southland,South Island,-46.3132,168.7842,,Southland District
9849,Wyndham,Southland,South Island,-46.3322,168.8477,,Southland District
9871,Woodlands,Southland,South Island,-46.3867,168.5511,,Invercargill City
9872,Mabel Bush,Southland,South Island,-46.2616,168.5395,,Invercargill City
9874,Waianiwa,Southland,South Island,-46.2773,168.2387,,Invercargill City
9875,Fortrose,Southland,South Island,-46.553,168.722,,Southland District
9876,Makarewa,Southland,South Island,-46.3136,168.4063,,Southland District
9877,Awarua Plains,Southland,South Island,-46.5072,168.4056,,Southland District
9879,Otatara,Southland,South Island,-46.4308,168.2429,,Invercargill City
9881,Round Hill,Southland,South Island,-46.2657,167.811,,Southland District
9883,Gummies Bush,Southland,South Island,-46.269,168.0316,,Southland District
9884,Niagara,Southland,South Island,-46.585,169.0999,,Southland District
9891,Glenham,Southland,South Island,-46.4308,168.8784,,Southland District
9892,Mokoreta,Southland,South Island,-46.3907,169.0861,,Gore District
9893,Kamahi,Southland,South Island,-46.3644,168.7108,,Southland District
